{
  "type": "FeatureCollection",
  "features": [
    {
      "type": "Feature",
      "properties": {},
      "geometry": {
        "coordinates": [
          [-122.4207724917101, 37.82419099709169],
          [-122.40717085617318, 37.86510871203831],
          [-122.4266017640829, 37.90549267254737],
          [-122.44214531896438, 37.92184461773758],
          [-122.44603239504778, 37.95964395726695],
          [-122.42984024873459, 37.98721510260633],
          [-122.40781855310352, 38.008652176467535],
          [-122.36636594956303, 38.03110334211638],
          [-122.31649328592863, 38.049467361184384],
          [-122.26596083345609, 38.06119086126222],
          [-122.23034771081603, 38.06527572448536],
          [-122.18887722958092, 38.0576070716715],
          [-122.16622751667884, 38.045896838307925],
          [-122.15197824250018, 38.03518460029204],
          [-122.11117335687231, 38.04997728336605],
          [-122.08526548180429, 38.06017757879508],
          [-122.03085996255109, 38.06170636300112],
          [-121.98228166988349, 38.05864764366311],
          [-121.94277215713375, 38.05048744943235],
          [-121.90973990955852, 38.04640690596361],
          [-121.8890150138498, 38.04589639600317],
          [-121.86751107470323, 38.05501925880159],
          [-121.88046909569573, 38.03671017241672],
          [-121.89417656950418, 38.056234536034935],
          [-121.86750288121499, 38.05511062431154]
        ],
        "type": "LineString"
      }
    }
  ]
}
