{
  "type": "FeatureCollection",
  "features": [
    {
      "type": "Feature",
      "properties": {},
      "geometry": {
        "coordinates": [
          [-121.33896919987377, 37.82470939014422],
          [-121.34454016441812, 37.87498313921961],
          [-121.33817334779602, 37.915177453160894],
          [-121.4082083306368, 37.97417305273926],
          [-121.37968758069559, 37.966279294504886],
          [-121.40294214689476, 37.95340933104157],
          [-121.40839510488726, 37.97402571433365]
        ],
        "type": "LineString"
      }
    }
  ]
}
