{
  "type": "FeatureCollection",
  "features": [
    {
      "type": "Feature",
      "properties": {},
      "geometry": {
        "coordinates": [
          [-121.68927684544103, 38.188816594272964],
          [-121.70152119323485, 38.17072508279102],
          [-121.71052434704731, 38.15300121977069],
          [-121.7217094242746, 38.136800657246695],
          [-121.73587243265463, 38.12881119918188],
          [-121.75359830400284, 38.11898851691424],
          [-121.78617379876634, 38.0989570160543],
          [-121.76197500737875, 38.10221965222405],
          [-121.76866551628241, 38.10940134752184],
          [-121.77231851039896, 38.11299243944762],
          [-121.77535602518607, 38.11658304281963],
          [-121.78668636692102, 38.09889066028927]
        ],
        "type": "LineString"
      }
    }
  ]
}
