{
  "type": "FeatureCollection",
  "features": [
    {
      "type": "Feature",
      "properties": {
        "name": "CALIFORNIA",
        "type": "state_label",
        "description": "Curved path for California state label"
      },
      "geometry": {
        "type": "LineString",
        "coordinates": [
          [-122.0, 41.8],
          [-121.7, 40.5],
          [-121.9, 39.5],
          [-121.6, 38.5],
          [-121.2, 37.5],
          [-120.8, 36.5],
          [-120.3, 35.5],
          [-119.8, 34.5],
          [-118.5, 33.8]
        ]
      }
    }
  ]
}


