{
"type": "FeatureCollection",
"name": "delta",
"crs": { "type": "name", "properties": { "name": "urn:ogc:def:crs:OGC:1.3:CRS84" } },
"features": [
{ "type": "Feature", "properties": { "OBJECTID": 1, "comments": "final delta boundary", "Source": "Delta Protection Act (Section 12220 Water Code)", "Date_Recor": "2003-02-21", "Edited_By": "Joel Dudas", "Date_Data_": "1994-07-29", "GlobalID": "{AAA9F069-1595-4AD9-918C-A0D77921082B}", "Shape__Are": 4826664388.7889423, "Shape__Len": 548781.18623127323 }, "geometry": { "type": "MultiPolygon", "coordinates": [ [ [ [ -121.786629878468574, 38.28514314816416 ], [ -121.786531194941361, 38.28767899028329 ], [ -121.786618554306116, 38.292519335544327 ], [ -121.787904785486106, 38.29248759562828 ], [ -121.789959507425365, 38.292571898360244 ], [ -121.795974957147877, 38.292615745330799 ], [ -121.796076062533075, 38.293806385270912 ], [ -121.79611443317215, 38.295419920167014 ], [ -121.796031806132305, 38.299771879332532 ], [ -121.795310329601733, 38.299832042905464 ], [ -121.787992889554232, 38.299779181502807 ], [ -121.788410271089745, 38.300297182532482 ], [ -121.789718668199384, 38.301820193886314 ], [ -121.792796205632925, 38.305330534376118 ], [ -121.794374350652717, 38.307194223064556 ], [ -121.795497116298776, 38.308201615848532 ], [ -121.796431382160577, 38.308549148221744 ], [ -121.798199554100592, 38.309306238686524 ], [ -121.800339696840211, 38.310526755733456 ], [ -121.802745154304077, 38.31192116908548 ], [ -121.805969990291388, 38.31431518981671 ], [ -121.806706144395363, 38.314849880378588 ], [ -121.80756236552358, 38.315561523489592 ], [ -121.808282129865205, 38.316618722820742 ], [ -121.810263723550449, 38.320216608157899 ], [ -121.810898475825141, 38.321317989982326 ], [ -121.811985740051171, 38.323212524937283 ], [ -121.813192808993406, 38.325261434033742 ], [ -121.813633734474195, 38.326153566630531 ], [ -121.813767100157918, 38.326875900666359 ], [ -121.813811803919705, 38.327511696313771 ], [ -121.813609818626375, 38.328717237230443 ], [ -121.813400457266269, 38.329629821751979 ], [ -121.813509348350067, 38.330536631911251 ], [ -121.813871222984176, 38.331148622572506 ], [ -121.814197594401605, 38.33148084380931 ], [ -121.814569043280031, 38.331899156911859 ], [ -121.814980875023721, 38.332164658565581 ], [ -121.815541717510115, 38.332634454381164 ], [ -121.815785389124201, 38.333128055319079 ], [ -121.816064636718465, 38.333896881528489 ], [ -121.816640902379959, 38.335002174789459 ], [ -121.817176338713509, 38.335584326093695 ], [ -121.818732652875241, 38.336537254622563 ], [ -121.820664924559807, 38.337462430737226 ], [ -121.822031360921628, 38.337737505973898 ], [ -121.822537553499401, 38.337742572822428 ], [ -121.824446727701371, 38.337712173839698 ], [ -121.826702727061516, 38.337680694676656 ], [ -121.827833315237072, 38.337773119760385 ], [ -121.82932305884637, 38.338342231950428 ], [ -121.830294541012066, 38.33903234235467 ], [ -121.831152624347851, 38.339793381498296 ], [ -121.831306665656157, 38.340177943452844 ], [ -121.831283345391384, 38.340425526100788 ], [ -121.831003836387367, 38.340819251987782 ], [ -121.830851993256573, 38.341101629398302 ], [ -121.830689086474734, 38.341537078537449 ], [ -121.830495072831241, 38.341904653233193 ], [ -121.830536387249467, 38.342405220457771 ], [ -121.830837763942441, 38.342876841618533 ], [ -121.831462345491531, 38.343572502272679 ], [ -121.832081749151271, 38.344060813629014 ], [ -121.832617707405987, 38.344665427641168 ], [ -121.832775659979021, 38.345207718918225 ], [ -121.832796819795547, 38.346073066367033 ], [ -121.832808814999524, 38.346573372997696 ], [ -121.832731068506646, 38.346915057081091 ], [ -121.832663975134679, 38.347130676664221 ], [ -121.832561120729608, 38.347656836562557 ], [ -121.832576655295824, 38.348292333630283 ], [ -121.832727230903743, 38.348537159997733 ], [ -121.833052635733964, 38.348806238026029 ], [ -121.834021099560275, 38.349383620275738 ], [ -121.834612563818098, 38.349876178582306 ], [ -121.835033111914967, 38.350502176618235 ], [ -121.835136638259911, 38.351183606122738 ], [ -121.835010499522625, 38.351957386888131 ], [ -121.834964939666378, 38.352434559043097 ], [ -121.835089327587127, 38.352796247594455 ], [ -121.835657508411089, 38.353540895966127 ], [ -121.835912691037208, 38.353908395655601 ], [ -121.83627698663102, 38.354610463658041 ], [ -121.836596169729546, 38.355807697844057 ], [ -121.836679542371087, 38.356853907879128 ], [ -121.836400071096278, 38.357243164379334 ], [ -121.836207473197675, 38.357655776520495 ], [ -121.836185270437127, 38.357925935048122 ], [ -121.836336853056494, 38.358197807103416 ], [ -121.837298425007987, 38.358455149719717 ], [ -121.837662386428491, 38.358553385718828 ], [ -121.838507692127678, 38.358791580642873 ], [ -121.839578079704481, 38.358775151804473 ], [ -121.840274299202505, 38.358854128252986 ], [ -121.841035563015296, 38.359204119154477 ], [ -121.841143409358423, 38.360065816842507 ], [ -121.841175596893365, 38.364283702188487 ], [ -121.841307957362289, 38.369038812459891 ], [ -121.841347110433929, 38.371787853014695 ], [ -121.841345285057272, 38.374504930895746 ], [ -121.841357540772691, 38.374991677274529 ], [ -121.841357392550677, 38.377916067732436 ], [ -121.841414203805897, 38.381665572442181 ], [ -121.841291194799069, 38.387670778061654 ], [ -121.840568749884653, 38.387740255338258 ], [ -121.833382738753073, 38.387637400470375 ], [ -121.829365905790482, 38.387642392710703 ], [ -121.822888929522776, 38.387681173745619 ], [ -121.822940933892895, 38.386857101324274 ], [ -121.822924691454233, 38.383973131266174 ], [ -121.822971927566812, 38.379999362799651 ], [ -121.823034921926137, 38.376643063397893 ], [ -121.818277949034623, 38.376703338522788 ], [ -121.815673337767223, 38.376713136482905 ], [ -121.808707750748511, 38.376719134414138 ], [ -121.803172192728894, 38.376743870505422 ], [ -121.795428914405775, 38.376745659250211 ], [ -121.795426753957528, 38.376660014945571 ], [ -121.79538562638885, 38.3749563282773 ], [ -121.795420830466526, 38.374902646981283 ], [ -121.7954498505418, 38.373109551906985 ], [ -121.79233744500047, 38.373073044177033 ], [ -121.787433098995024, 38.37301791069482 ], [ -121.785948160474192, 38.372952979406868 ], [ -121.781136388553733, 38.372966129481647 ], [ -121.776867987785664, 38.373002749243938 ], [ -121.776907737338689, 38.374679391519493 ], [ -121.776895219315193, 38.374827955791531 ], [ -121.776935862691928, 38.375049163549662 ], [ -121.776930871652183, 38.381506134824598 ], [ -121.776914555551699, 38.387489808848272 ], [ -121.776872050865705, 38.394599711454283 ], [ -121.776235622334681, 38.394611111534587 ], [ -121.77390031161643, 38.394613720063141 ], [ -121.769493405004624, 38.394554040005268 ], [ -121.767583746610697, 38.394610553922014 ], [ -121.767605427450093, 38.395525484776279 ], [ -121.767538112194259, 38.401639320183826 ], [ -121.763328496280096, 38.401698589600244 ], [ -121.758939805705623, 38.401679255995283 ], [ -121.753453160054931, 38.401620993265936 ], [ -121.751057611008662, 38.401658581288729 ], [ -121.749038765086908, 38.401641556049164 ], [ -121.749008143315493, 38.401384399399525 ], [ -121.749053962784899, 38.399596036278815 ], [ -121.749043643837211, 38.39807745943132 ], [ -121.749008514319698, 38.394467838754203 ], [ -121.74708410379219, 38.39446530555459 ], [ -121.74449342449654, 38.39446012791403 ], [ -121.739840648093164, 38.394468733611504 ], [ -121.73986966816841, 38.391972789178105 ], [ -121.739883524681687, 38.387174130333477 ], [ -121.737657962040018, 38.387177222866654 ], [ -121.734538477774265, 38.387143583815721 ], [ -121.730488528418704, 38.387122312075576 ], [ -121.730486404801383, 38.389740222709491 ], [ -121.730407353954689, 38.394466089170805 ], [ -121.730425087596686, 38.39901723962641 ], [ -121.730451686712271, 38.403919945053474 ], [ -121.730452433212278, 38.408826861037596 ], [ -121.730424046449286, 38.413557719677158 ], [ -121.730480000711708, 38.415964481078653 ], [ -121.730498589549882, 38.418379846801926 ], [ -121.730436080280839, 38.423259046535762 ], [ -121.727024831295651, 38.423199480213185 ], [ -121.72141491612669, 38.423260053640988 ], [ -121.721354230437669, 38.422804301552084 ], [ -121.721328190972557, 38.421154891551232 ], [ -121.721300325232434, 38.419933481064731 ], [ -121.721235318646904, 38.416066741015726 ], [ -121.721107839623244, 38.415988732871924 ], [ -121.716869650994838, 38.416037013314465 ], [ -121.713472929564432, 38.416026806115745 ], [ -121.709937815477986, 38.416028519984899 ], [ -121.707598034742858, 38.416043272630894 ], [ -121.702992681301637, 38.416005907466726 ], [ -121.702936428798566, 38.419591947479105 ], [ -121.702918697851487, 38.423223509999119 ], [ -121.703725446062066, 38.423272981323798 ], [ -121.707336445332118, 38.423290340687771 ], [ -121.712219520129963, 38.423357619620063 ], [ -121.712161144009542, 38.425718074840496 ], [ -121.712172619088989, 38.43059354957834 ], [ -121.714097998000355, 38.430596678957791 ], [ -121.716614767507693, 38.430601744935252 ], [ -121.721294887730025, 38.430594331395412 ], [ -121.721328787453885, 38.430946147530058 ], [ -121.721311279289012, 38.435104876181768 ], [ -121.721318767645229, 38.436506293018091 ], [ -121.721317240509222, 38.440246149359055 ], [ -121.721376920085135, 38.444982446131007 ], [ -121.719350511247001, 38.445000849292043 ], [ -121.716029451319699, 38.44505013543467 ], [ -121.712265865113778, 38.44501332983662 ], [ -121.712242357999415, 38.446175582786012 ], [ -121.712269367645078, 38.450095967744595 ], [ -121.712324054384624, 38.454111271619155 ], [ -121.71232390706092, 38.459558838790478 ], [ -121.711819464401344, 38.45952628012742 ], [ -121.705662304544461, 38.459467420420012 ], [ -121.700803779805014, 38.459454196745455 ], [ -121.698499650508595, 38.459437618436716 ], [ -121.693740292590036, 38.459407183358678 ], [ -121.691613561697565, 38.459405953771963 ], [ -121.689598403360051, 38.45937443821952 ], [ -121.684462866034778, 38.459388967465614 ], [ -121.684457613585337, 38.461925667073906 ], [ -121.684486895070322, 38.466544468450856 ], [ -121.6824111633332, 38.466602248360566 ], [ -121.681756182794942, 38.466612902777044 ], [ -121.675087054193014, 38.466744927240278 ], [ -121.675054458822956, 38.468096313741484 ], [ -121.675085416564244, 38.469457423029453 ], [ -121.675177095927211, 38.472982032057189 ], [ -121.675256146773904, 38.474221994976439 ], [ -121.675662576049447, 38.477186917031666 ], [ -121.675807936937161, 38.47805367980861 ], [ -121.67644570755121, 38.482318914496403 ], [ -121.676941990813091, 38.485352417919927 ], [ -121.67736883520179, 38.487520015786259 ], [ -121.674850799069915, 38.487554624150242 ], [ -121.669258950817976, 38.487491219651616 ], [ -121.660843370641274, 38.48733222579844 ], [ -121.658828844717732, 38.487340719176835 ], [ -121.658792560865066, 38.490805239374644 ], [ -121.658799229957737, 38.492224649586731 ], [ -121.658861256831486, 38.49950673611017 ], [ -121.659543357508184, 38.499595658567657 ], [ -121.659545331106855, 38.4997218338656 ], [ -121.659513070808387, 38.502235697364746 ], [ -121.659449703648235, 38.50507362325645 ], [ -121.659372590467612, 38.507298590924641 ], [ -121.659366481923684, 38.507357114935232 ], [ -121.65936584771309, 38.509555930334528 ], [ -121.659297303561971, 38.512285637580653 ], [ -121.659278751554723, 38.515024955874487 ], [ -121.658937886718476, 38.514966989859083 ], [ -121.658298105674817, 38.514946128295577 ], [ -121.657180741598552, 38.51497388162425 ], [ -121.654750101662358, 38.515229846446822 ], [ -121.654241264444408, 38.515260058340047 ], [ -121.653745762716824, 38.515421066156676 ], [ -121.652242198526892, 38.516052577075705 ], [ -121.650657721282641, 38.516638119221113 ], [ -121.649004958602106, 38.517308447563913 ], [ -121.647757805035283, 38.517794188890448 ], [ -121.646490089031616, 38.518266146149784 ], [ -121.645005970672628, 38.518848259383944 ], [ -121.644251189102917, 38.519033295006317 ], [ -121.643822334284579, 38.519077886870591 ], [ -121.642787075326979, 38.519232598531929 ], [ -121.641732035466816, 38.519373563722439 ], [ -121.640595338747318, 38.51943246026287 ], [ -121.639578855477481, 38.519542318860395 ], [ -121.638542143944051, 38.519620364068359 ], [ -121.638093953787546, 38.519664732066801 ], [ -121.637835642329279, 38.519715768549993 ], [ -121.636698087718699, 38.519743074441735 ], [ -121.636080992729248, 38.519848538440279 ], [ -121.635324834042194, 38.51995239911971 ], [ -121.634747115804871, 38.52002224884604 ], [ -121.634271730949763, 38.520214957776822 ], [ -121.633697478412827, 38.520442572920246 ], [ -121.633345251684858, 38.520758366083726 ], [ -121.633052407190462, 38.521079336965201 ], [ -121.632802364724384, 38.521486473495223 ], [ -121.632537087729418, 38.522132178626613 ], [ -121.632452187951898, 38.523284672054977 ], [ -121.63238051407032, 38.526843404546796 ], [ -121.632410614818852, 38.530479884862011 ], [ -121.632302059704969, 38.534168854047536 ], [ -121.632312528671321, 38.53781863227178 ], [ -121.632256499848722, 38.541192777234812 ], [ -121.632164634534519, 38.544755756449362 ], [ -121.632158340039311, 38.548531525645622 ], [ -121.632146679906924, 38.549829043692974 ], [ -121.63219905797618, 38.55130302899763 ], [ -121.632414342827303, 38.552017428139493 ], [ -121.632856943666084, 38.552581325389752 ], [ -121.633879276765086, 38.553665646176995 ], [ -121.635517733774705, 38.555473529322541 ], [ -121.637198809556381, 38.557421557991063 ], [ -121.638123053812876, 38.558540747404642 ], [ -121.638860847342244, 38.55943243323577 ], [ -121.639098930536932, 38.560309328672119 ], [ -121.639320549409092, 38.561870896612405 ], [ -121.639397290687199, 38.563926399692647 ], [ -121.63954559445574, 38.565000475616358 ], [ -121.63991164086606, 38.566018523190216 ], [ -121.639664094818144, 38.5660967546834 ], [ -121.637769078065062, 38.566538797543735 ], [ -121.633575032649702, 38.567499214292184 ], [ -121.628045584072353, 38.568772705113076 ], [ -121.626213113419226, 38.569237845939277 ], [ -121.626069317396727, 38.569254162290321 ], [ -121.623203450891907, 38.569959435147652 ], [ -121.619867452879745, 38.570749196584657 ], [ -121.616350406608618, 38.571509677621123 ], [ -121.612862118104644, 38.572301972853616 ], [ -121.610465228771986, 38.572859277044998 ], [ -121.609181530841099, 38.573204461600234 ], [ -121.607106954337439, 38.573598820959106 ], [ -121.6060929297565, 38.573798534456408 ], [ -121.603395483892697, 38.574419689488323 ], [ -121.601029552301384, 38.574999716906042 ], [ -121.596329911687917, 38.576047344261525 ], [ -121.593459127805232, 38.576756304116046 ], [ -121.591754323025341, 38.577163850963935 ], [ -121.587367681507999, 38.578151798462933 ], [ -121.583416302491955, 38.57903670435379 ], [ -121.579414819042569, 38.580020032694897 ], [ -121.575011152653985, 38.581052347587409 ], [ -121.571599643157398, 38.581835292022973 ], [ -121.569270554170799, 38.582523242534648 ], [ -121.565908739475674, 38.583180495398487 ], [ -121.563366936616333, 38.583735042579008 ], [ -121.555723198813226, 38.585407177452041 ], [ -121.554017276529109, 38.585814165423692 ], [ -121.550049469123124, 38.586796859590443 ], [ -121.545818135538653, 38.587713095212145 ], [ -121.543100796482889, 38.588237988596475 ], [ -121.540348365638877, 38.588793913683702 ], [ -121.538043938101779, 38.589017469583744 ], [ -121.536280049329022, 38.589162122658792 ], [ -121.53463615302033, 38.589155082122396 ], [ -121.531729607206174, 38.58902853420755 ], [ -121.526211109990427, 38.588616740593757 ], [ -121.523689347646737, 38.588485796883326 ], [ -121.520888563185935, 38.588382867232667 ], [ -121.516211274453369, 38.588071321384291 ], [ -121.515055055546142, 38.587975544139361 ], [ -121.5124969734172, 38.587762830736573 ], [ -121.51018282161715, 38.587517111028475 ], [ -121.508848422771621, 38.58726133180371 ], [ -121.506986447851304, 38.586872635403758 ], [ -121.504592874200355, 38.586134654996052 ], [ -121.504626141510258, 38.586054003111592 ], [ -121.505189889148298, 38.584542801713738 ], [ -121.506033592253004, 38.582161037258238 ], [ -121.506332993550672, 38.581389901626849 ], [ -121.507164776909931, 38.579300871103001 ], [ -121.508101203219979, 38.577181626949105 ], [ -121.509020195027006, 38.575936262191689 ], [ -121.509928196844825, 38.574979086248142 ], [ -121.512362898064424, 38.572595048681009 ], [ -121.51397863039233, 38.571232337354687 ], [ -121.515491284634606, 38.569926846307595 ], [ -121.516826838713612, 38.568542528967555 ], [ -121.517842464092382, 38.567748854971171 ], [ -121.518773004640693, 38.567080277711419 ], [ -121.519659437908544, 38.56597408965893 ], [ -121.519891300269904, 38.565337213750873 ], [ -121.519660741364021, 38.564302514544252 ], [ -121.518937327167393, 38.563130873023731 ], [ -121.518043554663663, 38.56218688442965 ], [ -121.515927478688823, 38.560474964500898 ], [ -121.515175714560158, 38.559604811062094 ], [ -121.51434557062629, 38.558328191990363 ], [ -121.513754366879937, 38.556802274923889 ], [ -121.512723205138371, 38.55337836048961 ], [ -121.512463627055553, 38.552645148882988 ], [ -121.511432056580503, 38.550081813740334 ], [ -121.510660548380187, 38.548229153090702 ], [ -121.510079142558624, 38.546306828524585 ], [ -121.509818818874123, 38.545542062717786 ], [ -121.509624916621746, 38.544615918758453 ], [ -121.509817365400025, 38.543735259865954 ], [ -121.510454054442462, 38.542387151803972 ], [ -121.511332403771078, 38.540897929197733 ], [ -121.512679170621453, 38.539225423139193 ], [ -121.514189291614656, 38.537834287525975 ], [ -121.515908737137053, 38.536445834515845 ], [ -121.516866955677571, 38.535421639854647 ], [ -121.517277669018725, 38.53497628219759 ], [ -121.518073838668542, 38.534580841688275 ], [ -121.52159598916711, 38.533318750796312 ], [ -121.524475378011928, 38.532242141868508 ], [ -121.527564836089283, 38.531163632122855 ], [ -121.528637906035527, 38.530686012517201 ], [ -121.529429753890497, 38.530074170245506 ], [ -121.529803288656993, 38.52954719137265 ], [ -121.529786263785738, 38.528726919300709 ], [ -121.529707883980549, 38.528315907993793 ], [ -121.52927496787882, 38.527639134557653 ], [ -121.528525551047991, 38.52690879134537 ], [ -121.527196852012949, 38.526035993353162 ], [ -121.526095170724901, 38.525143525817931 ], [ -121.524675686150616, 38.524120859074998 ], [ -121.523713815958459, 38.523230141662133 ], [ -121.523170668486529, 38.522304108922931 ], [ -121.522980864348483, 38.521594329440475 ], [ -121.523136805593566, 38.520663603259528 ], [ -121.523437846316639, 38.520000538318847 ], [ -121.524306881912395, 38.518939165281928 ], [ -121.525443952331045, 38.518128915151316 ], [ -121.52690001899866, 38.517561516044701 ], [ -121.5231067785069, 38.510696550985351 ], [ -121.519353174380413, 38.50389055694292 ], [ -121.52276770131806, 38.500806723647536 ], [ -121.522496685885059, 38.499933701261156 ], [ -121.522614181032651, 38.499935154423135 ], [ -121.522501603262924, 38.499798585188763 ], [ -121.521832317952075, 38.498109501465777 ], [ -121.521007761539295, 38.496305789894095 ], [ -121.520691781833065, 38.495846722892828 ], [ -121.516206755029188, 38.495817032265769 ], [ -121.513033924310292, 38.495754224913519 ], [ -121.509020855288725, 38.495811333885712 ], [ -121.506658536721446, 38.495821801187347 ], [ -121.502272974979121, 38.495869410938887 ], [ -121.501070115542305, 38.495849517593612 ], [ -121.499315615062599, 38.495854100199701 ], [ -121.493142435549231, 38.495914488205393 ], [ -121.491251105482092, 38.495917170412582 ], [ -121.489132459427211, 38.495925887761068 ], [ -121.484622062403105, 38.495980239867222 ], [ -121.482606047072792, 38.495981170729372 ], [ -121.482627616521071, 38.494782931659437 ], [ -121.482559107404242, 38.492515683039116 ], [ -121.482574381459017, 38.489839470675072 ], [ -121.482557877610617, 38.487892783112216 ], [ -121.482457593285574, 38.485706224275255 ], [ -121.482434905434744, 38.483439533169403 ], [ -121.482463925510004, 38.479731714149324 ], [ -121.482437064984708, 38.475545531211779 ], [ -121.482453009182677, 38.471197706999007 ], [ -121.482447047962438, 38.46690363874329 ], [ -121.482456174845723, 38.463357758331604 ], [ -121.482479048647818, 38.46223160265864 ], [ -121.482481543269358, 38.458352197292861 ], [ -121.482490446472141, 38.455946256242626 ], [ -121.482425998638703, 38.453859235941444 ], [ -121.482348809999593, 38.44940654441919 ], [ -121.48244983992636, 38.444789457146392 ], [ -121.482398689854051, 38.440494830632609 ], [ -121.482415565604995, 38.436201060362713 ], [ -121.482475169722406, 38.43178167380907 ], [ -121.482380584309524, 38.427612625601157 ], [ -121.482329100063936, 38.423299932462953 ], [ -121.482363707660269, 38.418772064763985 ], [ -121.482353127302844, 38.414248146295975 ], [ -121.482341652223411, 38.409665591874969 ], [ -121.482257311198012, 38.400283484604813 ], [ -121.482277985924284, 38.397891177645057 ], [ -121.482236038193761, 38.394078715586275 ], [ -121.482202548101682, 38.389554461603858 ], [ -121.482189881856172, 38.384922360700742 ], [ -121.482131132934896, 38.380271596291522 ], [ -121.482117758816941, 38.375603396563172 ], [ -121.482087322098494, 38.374629754530602 ], [ -121.482084529236275, 38.37455763357719 ], [ -121.482038483391435, 38.368852686886108 ], [ -121.481979437127819, 38.36702256274971 ], [ -121.481858066648115, 38.362627836679629 ], [ -121.481724626404215, 38.358742098291771 ], [ -121.48179600294344, 38.354949118760302 ], [ -121.481816789060787, 38.350871602284819 ], [ -121.481875462523575, 38.346452141256961 ], [ -121.481906679878023, 38.341771015351874 ], [ -121.481723506205043, 38.338794769418399 ], [ -121.481745410724926, 38.335176877888202 ], [ -121.475205848831422, 38.335218192720006 ], [ -121.46782291890473, 38.3353427296706 ], [ -121.463264727015925, 38.335391196428823 ], [ -121.461686395146572, 38.335397528961437 ], [ -121.445922975933144, 38.335577163522402 ], [ -121.445858938629783, 38.335026603118429 ], [ -121.445464355437849, 38.331574413433827 ], [ -121.445284163273328, 38.330436560971826 ], [ -121.444967549356519, 38.32638165601702 ], [ -121.443885314797768, 38.317242996708103 ], [ -121.443355056353511, 38.312653512889547 ], [ -121.44296676855511, 38.308381350238427 ], [ -121.442463742538735, 38.304026523139797 ], [ -121.441890308367007, 38.299526595635292 ], [ -121.441388770859049, 38.295207829061056 ], [ -121.440847374203628, 38.29118593054487 ], [ -121.440707042983163, 38.290364019316371 ], [ -121.435551872977371, 38.290421538923219 ], [ -121.43421758552293, 38.290457785841021 ], [ -121.430633036248054, 38.290454954282602 ], [ -121.427987148291692, 38.290469074000029 ], [ -121.424674210032904, 38.290465162275957 ], [ -121.42187036950348, 38.290513106969151 ], [ -121.419891197676236, 38.290495449929438 ], [ -121.419867616001724, 38.286903971066238 ], [ -121.419917720435009, 38.28594493183482 ], [ -121.419944430941655, 38.28319671042248 ], [ -121.41557764488708, 38.283070237837364 ], [ -121.413293072812692, 38.283043863440462 ], [ -121.407785975217934, 38.283009776899824 ], [ -121.406813861536591, 38.283023597675353 ], [ -121.401626766303892, 38.283160316734907 ], [ -121.401265412692638, 38.28318240736413 ], [ -121.401167660718372, 38.27920245568145 ], [ -121.401168964173849, 38.275070587064903 ], [ -121.401119565816359, 38.273055837899236 ], [ -121.395849732152755, 38.272956857628934 ], [ -121.394605969726101, 38.27295335611565 ], [ -121.392582726551041, 38.272948178248157 ], [ -121.392356117537489, 38.272954064175963 ], [ -121.392417918934072, 38.270215379168839 ], [ -121.392432224604974, 38.268561908788861 ], [ -121.392514143772374, 38.267504187565486 ], [ -121.392817419503871, 38.266773881260455 ], [ -121.393104080894162, 38.266376802280107 ], [ -121.393686567389025, 38.266105415203356 ], [ -121.394648734923535, 38.265559845681253 ], [ -121.395272050746343, 38.265054696556717 ], [ -121.395670880274622, 38.264623084876696 ], [ -121.395845559478232, 38.264283040023976 ], [ -121.396144252903483, 38.26395368703897 ], [ -121.396367806746767, 38.263826095435682 ], [ -121.396949064346316, 38.263446525719161 ], [ -121.397636417472455, 38.262725980004667 ], [ -121.398431357328633, 38.261723019595422 ], [ -121.398595940366789, 38.260864638675834 ], [ -121.398674246510097, 38.260225863400862 ], [ -121.39880705254339, 38.260065489085889 ], [ -121.398913521769188, 38.259706483066473 ], [ -121.398986761414292, 38.259396576163873 ], [ -121.399151530403714, 38.258560732132743 ], [ -121.399459388441457, 38.258073799549727 ], [ -121.399883885532347, 38.257804721926242 ], [ -121.400262337676722, 38.257517017505982 ], [ -121.400369737557128, 38.257212065814869 ], [ -121.400427293515691, 38.256640605601653 ], [ -121.400737162881384, 38.25632041780802 ], [ -121.401026618032247, 38.256085537991666 ], [ -121.401272003631888, 38.255904152521019 ], [ -121.401445004782559, 38.255473956548698 ], [ -121.401504051046203, 38.255028672765754 ], [ -121.401713672917722, 38.254752181229676 ], [ -121.402113397168037, 38.254374623226049 ], [ -121.402558121624153, 38.253961637594273 ], [ -121.403210011059528, 38.253776751438529 ], [ -121.404095289093931, 38.253959998189458 ], [ -121.404891048213628, 38.254218644878797 ], [ -121.405682970628789, 38.254260963792781 ], [ -121.406423297407244, 38.253951094330198 ], [ -121.406753843295817, 38.253500483697749 ], [ -121.406929378593915, 38.253214492657392 ], [ -121.406562959382768, 38.252952716618069 ], [ -121.404991593948452, 38.252332083415169 ], [ -121.404814009593196, 38.252514398398525 ], [ -121.404328566301857, 38.253156638827242 ], [ -121.40379044849719, 38.253397144033009 ], [ -121.402613964495472, 38.253336086991546 ], [ -121.40179529474274, 38.253081611909423 ], [ -121.40135977083176, 38.252746745957346 ], [ -121.401235717982587, 38.252181805585558 ], [ -121.401227969114956, 38.251753658058327 ], [ -121.400904018657229, 38.251348234760911 ], [ -121.400334979942187, 38.251142225691105 ], [ -121.399161737061974, 38.251261398155663 ], [ -121.398394401536166, 38.251304983662813 ], [ -121.397939878256921, 38.25118614706426 ], [ -121.397733646627245, 38.251048125506031 ], [ -121.397523875635358, 38.25071184280074 ], [ -121.397451083351271, 38.250449508194961 ], [ -121.396903316742154, 38.249536364886765 ], [ -121.396400402116868, 38.248988785213577 ], [ -121.395960371358058, 38.248536683476217 ], [ -121.395550923743144, 38.248319312466663 ], [ -121.395290563227718, 38.247946262230769 ], [ -121.394817973031465, 38.247092686622146 ], [ -121.394480722117621, 38.246678061664333 ], [ -121.393430897876016, 38.246091439960622 ], [ -121.39241188225536, 38.245825156206031 ], [ -121.391137236647566, 38.245460748320582 ], [ -121.390064613164057, 38.245035991391788 ], [ -121.388830871444412, 38.244113386082411 ], [ -121.387619518436608, 38.243051379822241 ], [ -121.386616110145724, 38.242244557043875 ], [ -121.385006189019379, 38.24089767846916 ], [ -121.384135476268995, 38.240390069768836 ], [ -121.383267484515628, 38.240080721842347 ], [ -121.38250227170883, 38.239808812504116 ], [ -121.382067382008415, 38.239613570782303 ], [ -121.381681330116749, 38.239279337762412 ], [ -121.381339683746219, 38.23864831043759 ], [ -121.381352088581963, 38.237927541401959 ], [ -121.381311631156521, 38.237111441852647 ], [ -121.381275980616167, 38.235885336720578 ], [ -121.381419962589902, 38.235445752039162 ], [ -121.381786344970109, 38.234702817665962 ], [ -121.38240120405284, 38.233702018485495 ], [ -121.382568059828657, 38.233100533199369 ], [ -121.382586425884639, 38.232722266469764 ], [ -121.382455593450047, 38.232504188407042 ], [ -121.382110109476599, 38.232337220867755 ], [ -121.381574748601579, 38.232167608929913 ], [ -121.380961975406905, 38.231915853358139 ], [ -121.379863162439577, 38.231427579361423 ], [ -121.379201067244281, 38.231274246626192 ], [ -121.378032481230505, 38.231131940687746 ], [ -121.376231563003415, 38.231070994782733 ], [ -121.375749958213277, 38.231055311800986 ], [ -121.375194479567455, 38.230989038905065 ], [ -121.37399579190685, 38.230819240354435 ], [ -121.37338778786804, 38.230738699019554 ], [ -121.373277183696999, 38.227402850472863 ], [ -121.373216462075362, 38.225897051025896 ], [ -121.373150187068646, 38.222719489692068 ], [ -121.373067895998744, 38.219586780900869 ], [ -121.372950995535874, 38.21637248857013 ], [ -121.372882636437694, 38.213095759992008 ], [ -121.372798071731793, 38.209841383608818 ], [ -121.372769163945961, 38.209408393751488 ], [ -121.373217651444804, 38.209558820691548 ], [ -121.373977759125836, 38.209853229919091 ], [ -121.374524855591758, 38.210000490907198 ], [ -121.375084729694265, 38.210152408082159 ], [ -121.375469776371105, 38.21023432743749 ], [ -121.375830309820486, 38.210297917963445 ], [ -121.376102106787826, 38.210306188376968 ], [ -121.37673708274302, 38.210481686513937 ], [ -121.377011562978069, 38.210625147376987 ], [ -121.377225953107157, 38.210839910048151 ], [ -121.377677532607223, 38.211175074889532 ], [ -121.37815470510975, 38.211546634593283 ], [ -121.378556701199386, 38.211863097981144 ], [ -121.379007648285494, 38.212162202240393 ], [ -121.379400852563464, 38.212298324120866 ], [ -121.379632378954895, 38.212351074157361 ], [ -121.37979282704778, 38.212294710987237 ], [ -121.38018271654235, 38.212160413668833 ], [ -121.380570928882292, 38.211940473385653 ], [ -121.380775336033579, 38.211736028307079 ], [ -121.380839857528883, 38.211498094990027 ], [ -121.380880835977194, 38.21122830853362 ], [ -121.380876849253966, 38.210989443258676 ], [ -121.380639548491885, 38.210648243302295 ], [ -121.38052048847905, 38.210448344476802 ], [ -121.380517656989284, 38.210286071019688 ], [ -121.380700941155041, 38.210230042234038 ], [ -121.381185452893419, 38.210205194966427 ], [ -121.381786491395516, 38.210272026064473 ], [ -121.382042194146166, 38.210361172450753 ], [ -121.382553043590363, 38.210534920665189 ], [ -121.382994230480918, 38.210694214201887 ], [ -121.383434559480349, 38.210763355780543 ], [ -121.384056311336266, 38.210699839068951 ], [ -121.384469966659992, 38.210588377824379 ], [ -121.384835641167754, 38.21041768534603 ], [ -121.385087582672341, 38.210290466332076 ], [ -121.385524782839639, 38.210210894691208 ], [ -121.385963175071367, 38.210207913894038 ], [ -121.386613834713117, 38.210451138214999 ], [ -121.386962857150451, 38.210613635056745 ], [ -121.387457986077166, 38.210561891001568 ], [ -121.387802723550578, 38.210467492663028 ], [ -121.388193768278612, 38.210409787632017 ], [ -121.389142859935859, 38.210521918291391 ], [ -121.389930386894278, 38.210676927385244 ], [ -121.390323927142163, 38.21076342848238 ], [ -121.390788395669929, 38.210904990076429 ], [ -121.391044137048183, 38.210994099689586 ], [ -121.391113465428532, 38.210990522489119 ], [ -121.391168710021887, 38.209031243311117 ], [ -121.391578232196963, 38.208716940255528 ], [ -121.392263573995209, 38.208325300440819 ], [ -121.392511938408347, 38.208035807765945 ], [ -121.392672349670292, 38.207979444783305 ], [ -121.393272493450382, 38.207987639932249 ], [ -121.398260769951136, 38.20811441192123 ], [ -121.40195517869364, 38.208196330746858 ], [ -121.40546358317178, 38.208230527915191 ], [ -121.406871631294194, 38.20821357862404 ], [ -121.409375772285273, 38.208211492079364 ], [ -121.409651815588902, 38.208188208325829 ], [ -121.409352935314104, 38.207030649947022 ], [ -121.409334867498799, 38.203596937328811 ], [ -121.409213273338565, 38.199017288368239 ], [ -121.409091157257151, 38.194397071142909 ], [ -121.408904854752052, 38.191249424278261 ], [ -121.408752975688671, 38.190521949181175 ], [ -121.408556876157093, 38.189924487227294 ], [ -121.408160504419442, 38.189085514614426 ], [ -121.407521691759655, 38.188238756485497 ], [ -121.406872447862781, 38.187477456055916 ], [ -121.406496416678124, 38.18711640059874 ], [ -121.405866247607989, 38.186724835228681 ], [ -121.403862412534622, 38.185679295874479 ], [ -121.402534159962258, 38.185003340994136 ], [ -121.401321206156624, 38.184310959503186 ], [ -121.400363358620311, 38.183667080195796 ], [ -121.399893003432467, 38.183183053091717 ], [ -121.399654212365348, 38.182747230637283 ], [ -121.399472752677937, 38.181681350762638 ], [ -121.399453641918612, 38.180662781870097 ], [ -121.399240070154747, 38.171769694200286 ], [ -121.399140827875428, 38.167077690571112 ], [ -121.399041361915579, 38.162363148806968 ], [ -121.398918240619366, 38.157652779057543 ], [ -121.398750676971119, 38.153018406422987 ], [ -121.398589185035846, 38.148726573888069 ], [ -121.398419981962206, 38.148309713450104 ], [ -121.397981105538577, 38.14639774511852 ], [ -121.39780545795108, 38.145656375234736 ], [ -121.397842897037151, 38.145183747648147 ], [ -121.398099271727688, 38.144092312276641 ], [ -121.398230401504648, 38.143706595821946 ], [ -121.398621110262724, 38.141787884716656 ], [ -121.398578678340286, 38.140791480781907 ], [ -121.398555134394996, 38.139520486562311 ], [ -121.398566794527397, 38.138921384877918 ], [ -121.398511026216241, 38.134099256856928 ], [ -121.398456859601239, 38.129335728487405 ], [ -121.398433129704713, 38.125005227128568 ], [ -121.398380528853224, 38.12463951475587 ], [ -121.398438307594006, 38.124442037043977 ], [ -121.398452351855141, 38.122657884085307 ], [ -121.398234310074457, 38.121118370507396 ], [ -121.397438587785672, 38.119521450284758 ], [ -121.39546742443919, 38.115637424930114 ], [ -121.393371053010085, 38.111359673542374 ], [ -121.391349039628636, 38.107213536672866 ], [ -121.389720752446337, 38.103973986954315 ], [ -121.38814122851258, 38.100825185018401 ], [ -121.387311716992713, 38.099326836213415 ], [ -121.386681547024267, 38.098389963089268 ], [ -121.385816757764886, 38.097526478124422 ], [ -121.384286892700032, 38.096374432354267 ], [ -121.381076399214564, 38.094225982855534 ], [ -121.375991265461536, 38.090906972701745 ], [ -121.368328490560927, 38.08584426616823 ], [ -121.362741969318606, 38.082148257069953 ], [ -121.359633362752646, 38.080023165262674 ], [ -121.356655961422135, 38.077998954365789 ], [ -121.354664047890907, 38.076709407110442 ], [ -121.353358520000285, 38.075762886368494 ], [ -121.35297574516278, 38.075324940592587 ], [ -121.352371988358641, 38.07435219232508 ], [ -121.351992082740139, 38.073405112110827 ], [ -121.351916979989156, 38.06992546750142 ], [ -121.351907629425355, 38.062945613513357 ], [ -121.351824704144832, 38.058988237282307 ], [ -121.351622382881615, 38.056227722713643 ], [ -121.351256559253486, 38.052180753150722 ], [ -121.350747757968151, 38.048001088754354 ], [ -121.350516342069511, 38.045587138195678 ], [ -121.350321696910342, 38.045183390826637 ], [ -121.349959001216092, 38.044556461751725 ], [ -121.348447575869088, 38.043196953861802 ], [ -121.347140446282324, 38.042160243676847 ], [ -121.343009247902557, 38.039051525672583 ], [ -121.342354639266816, 38.038456522173448 ], [ -121.339521033958775, 38.035866142301657 ], [ -121.337948252779583, 38.034370437468333 ], [ -121.336614487246294, 38.033107936965735 ], [ -121.334063818015096, 38.030589007578286 ], [ -121.33208602240687, 38.028654947955786 ], [ -121.330055925086185, 38.026458740621351 ], [ -121.326972203650229, 38.022913753969043 ], [ -121.323916310225115, 38.019567363028081 ], [ -121.318986221198585, 38.006898245923018 ], [ -121.316234311377428, 37.999982728594205 ], [ -121.314962607752207, 37.996643601639263 ], [ -121.312332142970945, 37.997254736018562 ], [ -121.305852818507091, 37.998869314770722 ], [ -121.299949276411127, 38.000072807265688 ], [ -121.299866723931459, 37.999918394101542 ], [ -121.298088045295842, 37.995634534076132 ], [ -121.296416842897457, 37.991572961152272 ], [ -121.296462104513068, 37.991555600470775 ], [ -121.297715740322985, 37.991325937424953 ], [ -121.298879780861398, 37.991185083241277 ], [ -121.299806745216571, 37.991202964366266 ], [ -121.300377460187917, 37.991143657945784 ], [ -121.30065160445308, 37.99113859172958 ], [ -121.301179141900306, 37.991222820714285 ], [ -121.302599893997467, 37.991369522620005 ], [ -121.303170944040431, 37.991328171765055 ], [ -121.303852038603992, 37.991049632002863 ], [ -121.304349327080701, 37.990718862714637 ], [ -121.30525148176433, 37.989988370355682 ], [ -121.305721240470788, 37.989368817674936 ], [ -121.306351112198556, 37.988129711484781 ], [ -121.306991750235014, 37.986823215190938 ], [ -121.307682084869597, 37.985769702567922 ], [ -121.309184271043904, 37.98403848539666 ], [ -121.309727007985757, 37.983708350055338 ], [ -121.309410767768057, 37.983284747308403 ], [ -121.306216553552147, 37.979124826865267 ], [ -121.304370000908634, 37.97683619572863 ], [ -121.302568711677338, 37.974471604555482 ], [ -121.300720295927931, 37.972056722183758 ], [ -121.299922524581973, 37.970891636898038 ], [ -121.299663244739818, 37.970441808266422 ], [ -121.299282221617105, 37.969562155785411 ], [ -121.298182663946434, 37.966833641070842 ], [ -121.293942128918488, 37.967547221361009 ], [ -121.291249301293576, 37.957874280924145 ], [ -121.290171908654202, 37.953717638599713 ], [ -121.291447970905196, 37.9535063771594 ], [ -121.291361245751034, 37.953104083201573 ], [ -121.290125863707686, 37.948431413610173 ], [ -121.288825067243664, 37.943888459634977 ], [ -121.287997641611881, 37.940956543477483 ], [ -121.289260478865245, 37.939312200287297 ], [ -121.292543464597529, 37.935529763557412 ], [ -121.294113749358573, 37.933835761357599 ], [ -121.295077779998991, 37.932741271444655 ], [ -121.295276821513141, 37.932343112875969 ], [ -121.2953600450343, 37.931911723812448 ], [ -121.29535121639168, 37.931370886333518 ], [ -121.295262702691801, 37.930891962844264 ], [ -121.294490487517393, 37.928519622857522 ], [ -121.293898761849846, 37.926677094843271 ], [ -121.293813825241429, 37.925738582183605 ], [ -121.293918505023157, 37.925176845796777 ], [ -121.293942980521379, 37.923933566632734 ], [ -121.293888479733099, 37.922107801929663 ], [ -121.293897306579083, 37.914033159489613 ], [ -121.293899764369684, 37.904939987004568 ], [ -121.298651932172731, 37.904941215352707 ], [ -121.298655881166738, 37.901868148746139 ], [ -121.298675065587943, 37.897731883994908 ], [ -121.303175142766065, 37.897702229908099 ], [ -121.302685601360423, 37.888624479622649 ], [ -121.302434441390147, 37.882075828501982 ], [ -121.30215344208105, 37.875218052978134 ], [ -121.302063587196443, 37.873436842071264 ], [ -121.301574343133126, 37.860362189553229 ], [ -121.301378540943915, 37.855677525288876 ], [ -121.297262691179114, 37.855730722159969 ], [ -121.291377327391245, 37.855686019541302 ], [ -121.291076992743982, 37.844909871290973 ], [ -121.288397726984911, 37.844911510660147 ], [ -121.282561388753663, 37.845027031828053 ], [ -121.282239336436078, 37.838855789900791 ], [ -121.281504483092647, 37.819223285210192 ], [ -121.290359537072646, 37.819099865958499 ], [ -121.289972590458959, 37.811866469064796 ], [ -121.287134701085321, 37.811870268767841 ], [ -121.281048842309175, 37.811898767954041 ], [ -121.280787958974273, 37.807963370995424 ], [ -121.275590471132034, 37.807964004785909 ], [ -121.275590582523122, 37.804602451872363 ], [ -121.271008101985657, 37.804542027500936 ], [ -121.270878200205686, 37.800919480747858 ], [ -121.280187702904783, 37.800848475921889 ], [ -121.279821207336838, 37.790053254163283 ], [ -121.270671669437064, 37.790049976536913 ], [ -121.270601931424935, 37.787987395006795 ], [ -121.270468565741197, 37.78277861949568 ], [ -121.261694946736654, 37.782762153781903 ], [ -121.261665702980906, 37.775587988989393 ], [ -121.26155867320638, 37.767856148282 ], [ -121.261515980772487, 37.763286334682533 ], [ -121.261403402104463, 37.753911938193987 ], [ -121.256620277458396, 37.753890816037156 ], [ -121.251904878598239, 37.753886308783031 ], [ -121.251877161978456, 37.749938544067639 ], [ -121.251926633997769, 37.747715476913434 ], [ -121.251959303029707, 37.739332343627886 ], [ -121.251057485214318, 37.739285144530278 ], [ -121.250198805397162, 37.739274639262028 ], [ -121.236270688326641, 37.739303586287832 ], [ -121.228577851305033, 37.739303101801035 ], [ -121.21874960207208, 37.739294646014166 ], [ -121.215383690160976, 37.739311298294133 ], [ -121.215098516380792, 37.717513132991471 ], [ -121.208379283345593, 37.717517082507527 ], [ -121.202742918181428, 37.717458298081972 ], [ -121.19680316589465, 37.717482512509925 ], [ -121.196750713265203, 37.714879428281343 ], [ -121.196700272862017, 37.710320715671308 ], [ -121.199806047938225, 37.710334386814012 ], [ -121.20594774868735, 37.710290576893932 ], [ -121.20596443758869, 37.707776415753258 ], [ -121.205936943751112, 37.703977364591019 ], [ -121.205990363866107, 37.699584688857939 ], [ -121.205990735768637, 37.695364716487887 ], [ -121.206447941417338, 37.695011185873916 ], [ -121.206671459328007, 37.694883892831399 ], [ -121.207181861411186, 37.694323869797898 ], [ -121.207289298122532, 37.693983043078092 ], [ -121.207215686574912, 37.693625936802412 ], [ -121.207004984030092, 37.693163106580236 ], [ -121.206615876968129, 37.692807974615519 ], [ -121.206180502177475, 37.692402551807497 ], [ -121.206081111676113, 37.691849047687086 ], [ -121.206274714789529, 37.691257173340439 ], [ -121.206503820221272, 37.69078074599782 ], [ -121.206945974597375, 37.690167898371982 ], [ -121.207252602841507, 37.689591260859565 ], [ -121.207495977113226, 37.689286308532729 ], [ -121.208092730651401, 37.68849326879932 ], [ -121.208218123786978, 37.687848532605514 ], [ -121.208299857003084, 37.687309073668921 ], [ -121.208583723734563, 37.686734335477986 ], [ -121.209097069596965, 37.686372609708258 ], [ -121.209545631655971, 37.686169916535022 ], [ -121.210052867177765, 37.686121263891955 ], [ -121.210480978191043, 37.686062441767362 ], [ -121.211499099987975, 37.68619506251288 ], [ -121.212226536840419, 37.686510258788338 ], [ -121.21277348418603, 37.686845237204395 ], [ -121.213476297318223, 37.687033884852248 ], [ -121.21419982380425, 37.687098929354065 ], [ -121.214877864095854, 37.687109173305181 ], [ -121.215217721920681, 37.687213481670391 ], [ -121.215446939641822, 37.687408463112831 ], [ -121.215793130589404, 37.687868797792405 ], [ -121.21608999953628, 37.688080579931736 ], [ -121.216384073824301, 37.688114331201461 ], [ -121.21650622583833, 37.68801479199626 ], [ -121.216862736631882, 37.68768897792112 ], [ -121.217213509885724, 37.687040888564717 ], [ -121.217520623220111, 37.686500274943029 ], [ -121.218080161352702, 37.686191075071726 ], [ -121.218754103529989, 37.685987190640631 ], [ -121.219270801006701, 37.685839557366464 ], [ -121.219759745930986, 37.685369276568778 ], [ -121.220400271678045, 37.684486717581073 ], [ -121.220952658322645, 37.683765091467102 ], [ -121.22144588641423, 37.683529168888697 ], [ -121.221875077202469, 37.683542431213617 ], [ -121.222330605696527, 37.683788114020629 ], [ -121.222831098463828, 37.684050263080898 ], [ -121.22311373629995, 37.684056782226961 ], [ -121.223451360014664, 37.684016808548705 ], [ -121.223807832180668, 37.683690958426645 ], [ -121.2238907951904, 37.683243848820261 ], [ -121.223730830391133, 37.682432591423876 ], [ -121.223492561245166, 37.681665218847485 ], [ -121.223294450385694, 37.680612303388457 ], [ -121.222660852446111, 37.679097674997337 ], [ -121.222850171493917, 37.678291671164047 ], [ -121.223043737776393, 37.677663735679694 ], [ -121.22292341024071, 37.676528640206449 ], [ -121.22247678494945, 37.674753240571789 ], [ -121.222104553638431, 37.674078441198922 ], [ -121.221314345208881, 37.672656087813799 ], [ -121.221295904592722, 37.671529299617362 ], [ -121.221668956065599, 37.670863478475802 ], [ -121.222113829642069, 37.670482678876908 ], [ -121.222450372683468, 37.670336797355361 ], [ -121.222720306544872, 37.670280023346443 ], [ -121.223023434054355, 37.670196726279279 ], [ -121.223520052387798, 37.670172659946907 ], [ -121.224874940906673, 37.670231371658808 ], [ -121.225325887992781, 37.670190840175316 ], [ -121.226335775831814, 37.669859065237972 ], [ -121.227437270270244, 37.66957821635787 ], [ -121.228742984112145, 37.669350004217193 ], [ -121.229191919870331, 37.669185532559595 ], [ -121.229458426658923, 37.668914629657507 ], [ -121.229534646015821, 37.668778357974858 ], [ -121.229820674093872, 37.66831176543365 ], [ -121.230095786742908, 37.667200623355569 ], [ -121.230217007203962, 37.666303461431951 ], [ -121.22989052259878, 37.665699219224948 ], [ -121.22960561292328, 37.664807235912065 ], [ -121.229794968802011, 37.663965171312398 ], [ -121.230168317617256, 37.663371434635536 ], [ -121.230862152986504, 37.663005611242617 ], [ -121.231984769512223, 37.66263714207949 ], [ -121.232795542175282, 37.662538905609068 ], [ -121.23386190619793, 37.662868072865727 ], [ -121.234340569005511, 37.663150114798718 ], [ -121.234479671330604, 37.663379741218876 ], [ -121.234824968454461, 37.663788219739246 ], [ -121.235631755292601, 37.66412923284917 ], [ -121.236582224965474, 37.664296684597637 ], [ -121.238324879361542, 37.664584090676335 ], [ -121.23947819221884, 37.664713953747416 ], [ -121.240290417457743, 37.664705795934601 ], [ -121.240835688546966, 37.664898690420671 ], [ -121.241110726635839, 37.665164155250821 ], [ -121.241525313512511, 37.665641252713343 ], [ -121.241737320411133, 37.666176129786393 ], [ -121.241899146519671, 37.667095532390782 ], [ -121.242039479536714, 37.668776197040913 ], [ -121.242067456667954, 37.670473178522492 ], [ -121.242128737041668, 37.67142040786262 ], [ -121.242434210950663, 37.672168446001798 ], [ -121.242778204619029, 37.672486772823802 ], [ -121.243938781253732, 37.673065086236257 ], [ -121.244957127629505, 37.673215439718533 ], [ -121.245496326107428, 37.673067992200913 ], [ -121.246143669169143, 37.672631499671567 ], [ -121.246340774813831, 37.672235650151087 ], [ -121.246535719111961, 37.671751884293705 ], [ -121.246658616727672, 37.671016959332945 ], [ -121.24654380305121, 37.67020413759316 ], [ -121.246416956441507, 37.668005471288986 ], [ -121.246469036270099, 37.667057682825423 ], [ -121.246880158344723, 37.665998097643325 ], [ -121.247961462248853, 37.664520387495074 ], [ -121.248561643758165, 37.663977276597336 ], [ -121.249055877962846, 37.663811129024403 ], [ -121.249643021324118, 37.663822118595192 ], [ -121.250097097242374, 37.663977537575988 ], [ -121.250555456327888, 37.664403412232375 ], [ -121.250855826009456, 37.664829213334833 ], [ -121.251068428491109, 37.665400151872724 ], [ -121.251346149847734, 37.665825579620837 ], [ -121.251967192932867, 37.666535507887978 ], [ -121.252919749392177, 37.667464371938586 ], [ -121.253902929419468, 37.668204438295689 ], [ -121.254747191276323, 37.668766696467991 ], [ -121.255298087615884, 37.669297549869029 ], [ -121.255535202426699, 37.669974733514351 ], [ -121.255935895060887, 37.670990061880481 ], [ -121.256328056394764, 37.671523076585608 ], [ -121.25663680825626, 37.671743949098683 ], [ -121.257135587037993, 37.671900001379676 ], [ -121.257813218596127, 37.671891991541493 ], [ -121.258578392775391, 37.671777141103817 ], [ -121.259278598098305, 37.671805490211483 ], [ -121.259823049924023, 37.671978007843592 ], [ -121.260213906904141, 37.672384847041414 ], [ -121.260536480244568, 37.672774884525062 ], [ -121.261041778998631, 37.673289273931722 ], [ -121.261566149884473, 37.673623692752017 ], [ -121.262111347311873, 37.673796210423212 ], [ -121.262791175250911, 37.673968468882826 ], [ -121.263064015162257, 37.674089614113761 ], [ -121.263418662849901, 37.674381006608357 ], [ -121.263792384465987, 37.675130013867069 ], [ -121.263914239137662, 37.67564779122322 ], [ -121.264261846728402, 37.676180098447311 ], [ -121.266461778638401, 37.675441931796257 ], [ -121.267809217428592, 37.675033639707138 ], [ -121.269056556048383, 37.674725260182655 ], [ -121.269932558079162, 37.674447465745097 ], [ -121.270737294961819, 37.673972602739653 ], [ -121.272674148952632, 37.672378774109355 ], [ -121.281673111244515, 37.680556047706922 ], [ -121.284731798430158, 37.683178129820242 ], [ -121.287268461129443, 37.685610036698137 ], [ -121.289562532887956, 37.687749992548795 ], [ -121.291568788920998, 37.689525242521 ], [ -121.29372714769795, 37.691595535281586 ], [ -121.295215699242888, 37.693482655512369 ], [ -121.297888409995309, 37.696567457150863 ], [ -121.300542083650257, 37.696583214898823 ], [ -121.306514433103729, 37.696581277255383 ], [ -121.308591580585741, 37.696575055614254 ], [ -121.313072285594799, 37.696517573823499 ], [ -121.315397686997144, 37.696474249032939 ], [ -121.31542123094242, 37.692646549722085 ], [ -121.318254574840708, 37.692641930692112 ], [ -121.324622102170807, 37.692642488700535 ], [ -121.324625381021605, 37.68963014461692 ], [ -121.329579720069233, 37.689547218309976 ], [ -121.334208244654889, 37.689549603273441 ], [ -121.335970231694205, 37.687715679513339 ], [ -121.339750694549366, 37.683817051449267 ], [ -121.342584113007831, 37.685735984988298 ], [ -121.344275432278693, 37.684358335118645 ], [ -121.345154973671683, 37.683658688133228 ], [ -121.340210469379798, 37.679215906840753 ], [ -121.331443704520865, 37.671176991436568 ], [ -121.326684048361585, 37.66687368465503 ], [ -121.314008894262827, 37.655181972744202 ], [ -121.309227035343014, 37.65078981808157 ], [ -121.30453722858698, 37.646486623932503 ], [ -121.299596412777618, 37.641970118536392 ], [ -121.295067501475515, 37.637772499257331 ], [ -121.291548852609893, 37.634544721300635 ], [ -121.288237030957021, 37.631513564860285 ], [ -121.285464520071443, 37.62900391057984 ], [ -121.28629943226278, 37.628360367190695 ], [ -121.290617862903957, 37.625005071287504 ], [ -121.292637828126544, 37.625027534339836 ], [ -121.297363471374226, 37.625003469019568 ], [ -121.302585285594319, 37.624990877127949 ], [ -121.308506896403927, 37.625006076618099 ], [ -121.31480096130673, 37.624992515681953 ], [ -121.31486686171597, 37.625554475671393 ], [ -121.314882211229218, 37.629641864998163 ], [ -121.314940996981406, 37.633655529472087 ], [ -121.315067582181342, 37.638305512021596 ], [ -121.319477805373211, 37.638264794515486 ], [ -121.32452095456479, 37.638271201731946 ], [ -121.330307710283918, 37.638251866974741 ], [ -121.335823301449693, 37.638163092062555 ], [ -121.33886932238984, 37.638183469697317 ], [ -121.339366834546979, 37.638267102166282 ], [ -121.340137560314702, 37.638455937329397 ], [ -121.340706822710246, 37.638752359557763 ], [ -121.341415818946558, 37.639264772420852 ], [ -121.342078809762185, 37.639774280883998 ], [ -121.342196529488604, 37.64002380045612 ], [ -121.342271668172231, 37.64043492347362 ], [ -121.342338835206021, 37.642321708189939 ], [ -121.34235776001411, 37.645262303704833 ], [ -121.346159978268844, 37.645281899104461 ], [ -121.351361601954622, 37.645287113589561 ], [ -121.351165650645058, 37.64069252658868 ], [ -121.35257552504244, 37.640649126516891 ], [ -121.355599044981346, 37.640668796401151 ], [ -121.357368186203573, 37.641166607341759 ], [ -121.358718492416173, 37.641608984758719 ], [ -121.359916396745859, 37.641702266076663 ], [ -121.360907808934428, 37.641619154609714 ], [ -121.361743056197398, 37.641646535736854 ], [ -121.36299005974557, 37.641988294290371 ], [ -121.364090249830227, 37.64230773784724 ], [ -121.366335706562182, 37.642924682463885 ], [ -121.367306330836783, 37.642949381452972 ], [ -121.368769737638587, 37.64279161521187 ], [ -121.370075637431725, 37.642613657875572 ], [ -121.370143214097297, 37.642632619478398 ], [ -121.370169700923455, 37.642847010374162 ], [ -121.370154651447478, 37.645090938873267 ], [ -121.370136584530499, 37.649678075172744 ], [ -121.370184268004095, 37.654139930675541 ], [ -121.370187211783275, 37.658639448771652 ], [ -121.370205578737583, 37.66272463900436 ], [ -121.370331381504926, 37.667178559882885 ], [ -121.376011406588532, 37.667119475992529 ], [ -121.379506996599119, 37.667117985561845 ], [ -121.379581763380202, 37.669088254737865 ], [ -121.37970369261204, 37.67436449544514 ], [ -121.381579674064255, 37.674392509387943 ], [ -121.388481633411416, 37.674383381394243 ], [ -121.388399974755444, 37.677142369819293 ], [ -121.388178730480746, 37.68173345521619 ], [ -121.393702964337905, 37.681720974605646 ], [ -121.397697928713228, 37.68176407624847 ], [ -121.40324615297834, 37.68169065072999 ], [ -121.408618023580161, 37.681677648990387 ], [ -121.413376933239419, 37.681692214095207 ], [ -121.417995437118094, 37.681677648279482 ], [ -121.419744982490698, 37.681728162954109 ], [ -121.42013982619406, 37.682391376285324 ], [ -121.42030631006736, 37.683096574081937 ], [ -121.420349412133007, 37.684005171475228 ], [ -121.420362747623386, 37.684712828623901 ], [ -121.420473165843177, 37.685155914864218 ], [ -121.420944079783098, 37.685777329785793 ], [ -121.421756119070707, 37.686858446330191 ], [ -121.421847574753158, 37.686990359024833 ], [ -121.420802445107199, 37.687041693294951 ], [ -121.416361003662615, 37.687013679863064 ], [ -121.416425675176555, 37.691804701525164 ], [ -121.416628740244818, 37.691721813903108 ], [ -121.417157024192051, 37.691312068866537 ], [ -121.417609908045904, 37.690982417866948 ], [ -121.417899177245516, 37.690745228751332 ], [ -121.418127313395047, 37.690682942020402 ], [ -121.418436288937016, 37.690820032897804 ], [ -121.418541864339105, 37.691021980471561 ], [ -121.418832213313664, 37.69150351229748 ], [ -121.419069625466861, 37.691905508057502 ], [ -121.419459253551665, 37.692284742608329 ], [ -121.41989935976892, 37.692621880772066 ], [ -121.420207479216415, 37.692700336022973 ], [ -121.420692735658164, 37.692713597418766 ], [ -121.420972541106252, 37.6926903146257 ], [ -121.42108705744036, 37.696046764372184 ], [ -121.425247425015684, 37.696016812418954 ], [ -121.425244518965741, 37.69384247215153 ], [ -121.425178841338692, 37.689071715490542 ], [ -121.428022989274893, 37.688988008730647 ], [ -121.434376287290902, 37.688912570768714 ], [ -121.434445019189937, 37.690497458448135 ], [ -121.434522505171415, 37.695239083091835 ], [ -121.43446886137589, 37.699778423776451 ], [ -121.434553091010159, 37.704840050820749 ], [ -121.434641752932109, 37.710803011905192 ], [ -121.434689697815443, 37.711995552233233 ], [ -121.434819189963648, 37.712076130309271 ], [ -121.435891365187871, 37.712103883411963 ], [ -121.436529991896379, 37.712114612126335 ], [ -121.438285572151088, 37.711811187253176 ], [ -121.439781947123819, 37.711288006929337 ], [ -121.440620770579912, 37.71111660621078 ], [ -121.441489434273151, 37.711146110031649 ], [ -121.443189210284075, 37.711236151475859 ], [ -121.445336430849835, 37.711392947878032 ], [ -121.44689285730098, 37.711354875736568 ], [ -121.448345719678002, 37.711216294909597 ], [ -121.449213378156415, 37.711225458877955 ], [ -121.450275459011749, 37.711363331871226 ], [ -121.451555021099111, 37.711510853209738 ], [ -121.453370393219117, 37.71166984851186 ], [ -121.454878800226766, 37.711793266665531 ], [ -121.455213740673713, 37.711950884115069 ], [ -121.456266880597042, 37.712282360636017 ], [ -121.457488628010992, 37.712721944227283 ], [ -121.45805397824347, 37.712916366823265 ], [ -121.458983660900685, 37.713491812391744 ], [ -121.460126581148444, 37.714489110508602 ], [ -121.461161652358157, 37.715183058040807 ], [ -121.461883502587909, 37.715559758831297 ], [ -121.462472210814397, 37.715653040305078 ], [ -121.462982016416234, 37.715585351769484 ], [ -121.463717574937164, 37.715333559226075 ], [ -121.464226897245382, 37.715288370813248 ], [ -121.464905831360724, 37.715409889847074 ], [ -121.465804966806687, 37.71568295376742 ], [ -121.466188821419152, 37.715739764796268 ], [ -121.466953846478049, 37.715709179823307 ], [ -121.467567216154052, 37.715741925072734 ], [ -121.467929314468677, 37.715960674053122 ], [ -121.468242387226653, 37.716320761054313 ], [ -121.469045858383069, 37.716937296554775 ], [ -121.469511296193019, 37.71723397884363 ], [ -121.470099407938179, 37.717288926194335 ], [ -121.470740531064877, 37.717421174156499 ], [ -121.472139936495935, 37.717817843435121 ], [ -121.473347042269097, 37.718187242979802 ], [ -121.476229821355773, 37.719384886531579 ], [ -121.478869674430086, 37.720536559514535 ], [ -121.480725763588651, 37.721423439493961 ], [ -121.481271258358404, 37.721901395135546 ], [ -121.482229290947657, 37.722596421490252 ], [ -121.483369602487883, 37.723431259358819 ], [ -121.485498010534954, 37.724567137531793 ], [ -121.488381944855107, 37.725764557147926 ], [ -121.491394550263252, 37.727022103439836 ], [ -121.492442884199832, 37.72774749194955 ], [ -121.494075418616802, 37.728939995417662 ], [ -121.497981461457115, 37.731479562969994 ], [ -121.498881863527643, 37.731810963479944 ], [ -121.499293322470507, 37.731946899809387 ], [ -121.499753620120401, 37.731982029294223 ], [ -121.500036742148481, 37.73208026544323 ], [ -121.500580224692015, 37.732456705534695 ], [ -121.500996711505522, 37.732836014653969 ], [ -121.501488189678923, 37.733153223535162 ], [ -121.502680170517607, 37.73404706964476 ], [ -121.504820573768654, 37.73571003923508 ], [ -121.505468774721493, 37.736207179242612 ], [ -121.506568518343457, 37.737566239605059 ], [ -121.507407825991521, 37.738649367812755 ], [ -121.508319405799128, 37.739526114572286 ], [ -121.509506580651049, 37.740138217348104 ], [ -121.51114179743746, 37.740834846361693 ], [ -121.511892928253872, 37.741331017816265 ], [ -121.512363059761171, 37.741870923936787 ], [ -121.513147009628156, 37.74275054003639 ], [ -121.513831011139985, 37.743732526178576 ], [ -121.514379709302077, 37.744352302810753 ], [ -121.514845482183617, 37.744651070941842 ], [ -121.515436126279539, 37.744804963073044 ], [ -121.515921457281479, 37.744797549981207 ], [ -121.516633435924533, 37.744666829119822 ], [ -121.517851568517756, 37.744267590128935 ], [ -121.518699071496172, 37.743883921928472 ], [ -121.519401960086867, 37.743248387159731 ], [ -121.519724121998905, 37.742779261229877 ], [ -121.519917353209763, 37.742229669541231 ], [ -121.520115315847235, 37.74190545697784 ], [ -121.531469145181106, 37.742608530079565 ], [ -121.536392825626407, 37.742960421435271 ], [ -121.541418019292081, 37.743311119856465 ], [ -121.549677845971559, 37.743809637329463 ], [ -121.549677213557601, 37.749911141818629 ], [ -121.5497451989566, 37.751079094815729 ], [ -121.552752329133128, 37.751048472586646 ], [ -121.558744943681106, 37.751040798027383 ], [ -121.558713055285168, 37.75429394569634 ], [ -121.558808609980247, 37.758364310069808 ], [ -121.560990512702475, 37.758388710690106 ], [ -121.561051943094867, 37.760270838798306 ], [ -121.563267857830397, 37.760338452399836 ], [ -121.563323067389447, 37.761959140560734 ], [ -121.56546034001174, 37.761949119298663 ], [ -121.565544308236284, 37.763847304335769 ], [ -121.567846836734859, 37.763843764920196 ], [ -121.567863302854008, 37.765675750584741 ], [ -121.570221859276899, 37.765713413456005 ], [ -121.570367853476853, 37.76793454374797 ], [ -121.572394970187446, 37.767943334277675 ], [ -121.572561454060718, 37.769581121186278 ], [ -121.574456955904083, 37.769572553822876 ], [ -121.574583579731609, 37.771403645598625 ], [ -121.57691993159726, 37.771425102884564 ], [ -121.576953385756767, 37.773011741794321 ], [ -121.582021867439337, 37.772996243857499 ], [ -121.582143834400398, 37.776158866204696 ], [ -121.586527718988123, 37.776067335941484 ], [ -121.586534610862984, 37.779023540231186 ], [ -121.586518183371382, 37.782903243928338 ], [ -121.586593062441878, 37.787505058462408 ], [ -121.58823535705443, 37.787511241938311 ], [ -121.593471588336513, 37.787535568338079 ], [ -121.598947616798895, 37.787490417608048 ], [ -121.603566119779259, 37.787488926758137 ], [ -121.607544954005348, 37.787497718512547 ], [ -121.61398110274169, 37.787463221661334 ], [ -121.613999803869277, 37.790906246335624 ], [ -121.613910695484677, 37.794954109822285 ], [ -121.617602719200107, 37.794947926259347 ], [ -121.625970057151093, 37.79500302248961 ], [ -121.632049583702823, 37.794981377546925 ], [ -121.632040383157673, 37.798173989185074 ], [ -121.623049579365201, 37.798109803862644 ], [ -121.623077704718426, 37.801908929639062 ], [ -121.618614621062008, 37.801978331451146 ], [ -121.613940275210339, 37.801954974410499 ], [ -121.613945527659823, 37.809383613694891 ], [ -121.613903284383582, 37.816656237670465 ], [ -121.618414350652571, 37.816727279101897 ], [ -121.623090671001236, 37.816768517419348 ], [ -121.623055840622726, 37.823840720880071 ], [ -121.625946443137238, 37.823820417688616 ], [ -121.628037560320223, 37.823829022756982 ], [ -121.62804434080401, 37.827835163143433 ], [ -121.628053765927945, 37.831967516399985 ], [ -121.628065426958671, 37.836208052338883 ], [ -121.628034544675813, 37.840596817359092 ], [ -121.62804914858738, 37.844983793255544 ], [ -121.62810543792142, 37.849152766565282 ], [ -121.632198675293907, 37.849261209022586 ], [ -121.632301048201967, 37.852910205900471 ], [ -121.63486319071599, 37.852885879758013 ], [ -121.641573631041211, 37.852848589020049 ], [ -121.641528072083233, 37.860206783376277 ], [ -121.647770877319289, 37.860292166742148 ], [ -121.653002005272299, 37.860374643593786 ], [ -121.659740758698604, 37.860537177849622 ], [ -121.659711589503033, 37.862853079181988 ], [ -121.659651315242414, 37.867396965284868 ], [ -121.658008722389212, 37.86746387097191 ], [ -121.652492758422568, 37.867504477435865 ], [ -121.652394038962726, 37.869803801451503 ], [ -121.652165679132651, 37.874927044667373 ], [ -121.65348480482173, 37.874915085902195 ], [ -121.659736587820774, 37.874925628619174 ], [ -121.659768253434493, 37.878393539025645 ], [ -121.662743717098948, 37.878395847706521 ], [ -121.668663278851383, 37.878480971045995 ], [ -121.668805399515861, 37.881878026146801 ], [ -121.672227861272418, 37.881927944738813 ], [ -121.678023036002415, 37.881952605879171 ], [ -121.678060027727497, 37.882586165058591 ], [ -121.678141053969497, 37.883738435631145 ], [ -121.678020429091447, 37.887781419251596 ], [ -121.677962277549852, 37.89016009173185 ], [ -121.678131070093428, 37.890736506050281 ], [ -121.678605970756578, 37.891048274664954 ], [ -121.679254208540328, 37.891127661592463 ], [ -121.679878380457609, 37.891121141547025 ], [ -121.680526692801536, 37.891195982730054 ], [ -121.680799868682811, 37.891460404331148 ], [ -121.681045589354028, 37.891990400938418 ], [ -121.681193893122597, 37.892640985600977 ], [ -121.681675238299647, 37.893232189657994 ], [ -121.682102119519271, 37.893367640539125 ], [ -121.682996896339489, 37.893494821748675 ], [ -121.683511918458166, 37.893631242641185 ], [ -121.683746313170303, 37.894120559542564 ], [ -121.683801521831043, 37.894612334486069 ], [ -121.68403345875258, 37.894997976921431 ], [ -121.684349997210916, 37.895186253379698 ], [ -121.685018723769659, 37.895193740703498 ], [ -121.685556209160353, 37.895307883662866 ], [ -121.686053124836164, 37.895583815610486 ], [ -121.686662583247411, 37.895928591389556 ], [ -121.687280087868672, 37.89613825106769 ], [ -121.687884701665595, 37.896235146160869 ], [ -121.688283642584963, 37.896144956396277 ], [ -121.688723935651794, 37.895888507447808 ], [ -121.688897571911369, 37.895678624467514 ], [ -121.688909640777212, 37.895237140512329 ], [ -121.688769234098316, 37.894938185902298 ], [ -121.688516398770034, 37.894606411641583 ], [ -121.688487155912583, 37.894290655638343 ], [ -121.688571608329056, 37.894097797375323 ], [ -121.688902562951071, 37.893952809527789 ], [ -121.689391991169032, 37.893890633611839 ], [ -121.690171508748406, 37.893863289718112 ], [ -121.690775415571196, 37.893960110535197 ], [ -121.691796667098586, 37.893768705373105 ], [ -121.692483759713312, 37.893582552013577 ], [ -121.692883147993697, 37.893505885689741 ], [ -121.693471334299019, 37.893404259284644 ], [ -121.69406965270241, 37.89325319895535 ], [ -121.69548951007755, 37.89294899174125 ], [ -121.696628294481769, 37.893024689560356 ], [ -121.69761471473231, 37.893274432971467 ], [ -121.69852714973608, 37.893207936374779 ], [ -121.699371859852235, 37.893109104092147 ], [ -121.699763276482784, 37.893163009790712 ], [ -121.700167097050766, 37.893280132616233 ], [ -121.700862199044593, 37.893445534838079 ], [ -121.701530441411407, 37.89343938930206 ], [ -121.701970585357898, 37.89318737297009 ], [ -121.702433228509008, 37.892949140613261 ], [ -121.703075878771671, 37.892780496113033 ], [ -121.703611315105206, 37.892808920087383 ], [ -121.704623364290839, 37.893180554655089 ], [ -121.705454552067025, 37.893451048735265 ], [ -121.706091278838727, 37.893539188801419 ], [ -121.706563421673934, 37.893693079918634 ], [ -121.707526371641066, 37.893906428016429 ], [ -121.70864004723478, 37.893873607835381 ], [ -121.709280649338623, 37.893619245087507 ], [ -121.709894800548923, 37.893170868790278 ], [ -121.710443312759722, 37.89277580167235 ], [ -121.711236054438388, 37.892356408687498 ], [ -121.711813398976545, 37.892263574149766 ], [ -121.712513307855431, 37.892154087631425 ], [ -121.712869109878227, 37.892130953380985 ], [ -121.713535675988723, 37.892016549574436 ], [ -121.714134330362043, 37.891883408010123 ], [ -121.714712942423049, 37.891840157934048 ], [ -121.715163143907475, 37.892029812107999 ], [ -121.71565864473672, 37.89226957161948 ], [ -121.716194081070256, 37.892297921354391 ], [ -121.717012788552225, 37.892018450197448 ], [ -121.717499237058362, 37.891839003095413 ], [ -121.717879440019203, 37.891883706467304 ], [ -121.718179735140566, 37.892355625331049 ], [ -121.718402508347879, 37.893322375902194 ], [ -121.71837762321789, 37.894182806154596 ], [ -121.71847619445569, 37.894607489166859 ], [ -121.718857776330523, 37.895188448820193 ], [ -121.719450208972191, 37.895744634662428 ], [ -121.719909425050474, 37.896317435328172 ], [ -121.719965678451885, 37.896845271755986 ], [ -121.719931702371227, 37.897286531986808 ], [ -121.719586107905002, 37.897787471995521 ], [ -121.719057936247182, 37.898074617397235 ], [ -121.718437302793788, 37.898243596403113 ], [ -121.717861484493284, 37.898408589801114 ], [ -121.717553402775039, 37.898589973797982 ], [ -121.717425439559435, 37.8988364390014 ], [ -121.717410240064837, 37.899138187678957 ], [ -121.717834252065444, 37.89965201756803 ], [ -121.718670841411466, 37.900147778251736 ], [ -121.71942182310751, 37.900827383677921 ], [ -121.720628072786212, 37.901899485329849 ], [ -121.721268636262465, 37.90259589065883 ], [ -121.72188401636808, 37.903183891012397 ], [ -121.722580273595341, 37.90390793765318 ], [ -121.722505247201127, 37.90450648089034 ], [ -121.722095241732404, 37.905110350122165 ], [ -121.721972157267132, 37.905568672475582 ], [ -121.72216684105382, 37.906273758313937 ], [ -121.722732637749004, 37.906649416699338 ], [ -121.723877010572593, 37.906950233902158 ], [ -121.72430784078621, 37.907279363362676 ], [ -121.724271109572555, 37.907634942754896 ], [ -121.72396865310462, 37.908023712797785 ], [ -121.723608529286977, 37.908375790834661 ], [ -121.723262971651707, 37.908872260338526 ], [ -121.723343661025467, 37.909467934554023 ], [ -121.723516029762195, 37.910190826473105 ], [ -121.723324438874997, 37.910580790002761 ], [ -121.722826293405575, 37.91118372842233 ], [ -121.722768513766482, 37.911606698131841 ], [ -121.722927248772123, 37.91221224406118 ], [ -121.723335092894274, 37.912473535553495 ], [ -121.724191835943699, 37.91288387621502 ], [ -121.724425448223201, 37.913355050936055 ], [ -121.724283999498567, 37.913970879347644 ], [ -121.723591356193694, 37.914882644078865 ], [ -121.723230189432044, 37.915662794305184 ], [ -121.723085126785023, 37.916156917060064 ], [ -121.72317360185734, 37.917086153466492 ], [ -121.723479300345176, 37.917787961152989 ], [ -121.723795987025539, 37.917976163007872 ], [ -121.724845624417569, 37.91805063105123 ], [ -121.725689402980791, 37.917897521508735 ], [ -121.726418144187051, 37.917571968761031 ], [ -121.726850278754469, 37.916963776790702 ], [ -121.726980105075981, 37.916320792378897 ], [ -121.726962185482677, 37.915545521420157 ], [ -121.727159029717626, 37.915385445830765 ], [ -121.727560616175481, 37.915394275499715 ], [ -121.727808832366605, 37.915514117652016 ], [ -121.72819477286717, 37.915811209149766 ], [ -121.728758968764524, 37.916119216124869 ], [ -121.729249738167169, 37.91611098396951 ], [ -121.729826040659617, 37.915964021132069 ], [ -121.730176255161311, 37.915692894010817 ], [ -121.730721972713269, 37.915176084069351 ], [ -121.731954857440115, 37.91256670463325 ], [ -121.732277616731821, 37.912070012003767 ], [ -121.732608087161893, 37.911870783470022 ], [ -121.732851906998008, 37.911832859922328 ], [ -121.733009970962144, 37.911902149813251 ], [ -121.733366630876006, 37.912207922233712 ], [ -121.733606688567718, 37.912760271417653 ], [ -121.734101444693565, 37.91359473602018 ], [ -121.734367691869082, 37.914323104684527 ], [ -121.736611247765893, 37.916753558469409 ], [ -121.737483488550581, 37.917222535590511 ], [ -121.7376480338595, 37.917454136938055 ], [ -121.737609402709012, 37.917760132191425 ], [ -121.737479240417613, 37.918011104836872 ], [ -121.73687127410804, 37.918180307358021 ], [ -121.736305066882764, 37.918192265474282 ], [ -121.735492990764229, 37.918363777840966 ], [ -121.734884985827108, 37.918532980968166 ], [ -121.734799229056833, 37.918766407255085 ], [ -121.734986909577572, 37.91901626315714 ], [ -121.735768960406034, 37.919520368930876 ], [ -121.737073408521709, 37.920039078720329 ], [ -121.738163278760368, 37.920131876096463 ], [ -121.739157559269657, 37.919993816314516 ], [ -121.739833178601572, 37.919820813903478 ], [ -121.74030651350121, 37.91970871942263 ], [ -121.740739169091498, 37.919771937927401 ], [ -121.741153942817746, 37.920051260468703 ], [ -121.741179610380343, 37.920213757287563 ], [ -121.740888105274024, 37.920836998111348 ], [ -121.740057514877492, 37.922134926990807 ], [ -121.739470111004763, 37.923219135370864 ], [ -121.738721216095144, 37.924143901903186 ], [ -121.73846089330894, 37.924645809855718 ], [ -121.738371150713718, 37.925194619702346 ], [ -121.738376291772127, 37.925392954032013 ], [ -121.738315718372505, 37.925734787639414 ], [ -121.738028946489408, 37.926078668206074 ], [ -121.73748963482376, 37.926262139534302 ], [ -121.736928271314497, 37.926485954760388 ], [ -121.736480975880042, 37.92677853924998 ], [ -121.736328686286541, 37.927033796407997 ], [ -121.736247251311099, 37.927429459761605 ], [ -121.736332150190279, 37.928160361333866 ], [ -121.736778552699349, 37.928836613694116 ], [ -121.737449588826692, 37.929434112341852 ], [ -121.737765791315141, 37.929865613016254 ], [ -121.737928064784683, 37.930025054815928 ], [ -121.737978804326872, 37.930259934716503 ], [ -121.737936111892992, 37.930385663399555 ], [ -121.737732674023889, 37.930387972575545 ], [ -121.737300056162809, 37.930320247581378 ], [ -121.737049418113699, 37.930254458296574 ], [ -121.736846092533966, 37.93029282936385 ], [ -121.736734220840077, 37.930345727893744 ], [ -121.736624735071572, 37.930511280624835 ], [ -121.736470209571323, 37.930689871024242 ], [ -121.736200424830272, 37.930786094968937 ], [ -121.735838475635987, 37.930827259568581 ], [ -121.735547231939421, 37.930972843630101 ], [ -121.735553267719794, 37.931243300112556 ], [ -121.735652024908873, 37.931582338247722 ], [ -121.735752421523344, 37.931988954505293 ], [ -121.736108634076217, 37.932700261667975 ], [ -121.73643951413807, 37.933271609119139 ], [ -121.737323675566586, 37.93425896001979 ], [ -121.737635407139848, 37.934496633525576 ], [ -121.73802745708268, 37.934775695375379 ], [ -121.738247658413314, 37.934958308959764 ], [ -121.738323728649888, 37.934959127996692 ], [ -121.738323542698623, 37.93505375008359 ], [ -121.738469164996076, 37.93539781803679 ], [ -121.738330881934502, 37.935955084343085 ], [ -121.738398793671664, 37.936519093417409 ], [ -121.738492037899817, 37.936970710468863 ], [ -121.738668132848346, 37.937445759324035 ], [ -121.738932590579807, 37.938160606379846 ], [ -121.739139792389977, 37.938811711631395 ], [ -121.739703912828816, 37.93939006295048 ], [ -121.740016352274537, 37.939794443327123 ], [ -121.740110192984062, 37.940295644375738 ], [ -121.740529734967836, 37.940593033908456 ], [ -121.741085213613658, 37.940801762213596 ], [ -121.741530423160029, 37.941013804768751 ], [ -121.741580453931491, 37.941415428852864 ], [ -121.741480355557684, 37.947159789690986 ], [ -121.749983630170746, 37.947146825410542 ], [ -121.750070392155806, 37.947107188743544 ], [ -121.750070168475332, 37.947120673699267 ], [ -121.750660664349255, 37.947113446681392 ], [ -121.750677093637449, 37.950258970559361 ], [ -121.750759907526884, 37.954274908362663 ], [ -121.749974131384931, 37.954298117278526 ], [ -121.745873294265152, 37.954281502143495 ], [ -121.743968292737662, 37.954274685240811 ], [ -121.744999974603786, 37.95572769756135 ], [ -121.746152579588653, 37.957519933937668 ], [ -121.747138701598544, 37.958936401488629 ], [ -121.747768125965294, 37.959659592565075 ], [ -121.748725712990193, 37.960372761661688 ], [ -121.749717012889349, 37.961072743866559 ], [ -121.749809660636188, 37.961145834607642 ], [ -121.749883012570706, 37.961142108467513 ], [ -121.749882713431717, 37.96116010244328 ], [ -121.750176341257074, 37.961298422042873 ], [ -121.750563324701673, 37.961383656295318 ], [ -121.750748434244073, 37.961543322935348 ], [ -121.750759125992587, 37.961543434839342 ], [ -121.750776299085871, 37.960403569741999 ], [ -121.751015015592841, 37.960424095942336 ], [ -121.750967220728143, 37.958373286211881 ], [ -121.752023600874736, 37.958839618028804 ], [ -121.752954178253944, 37.958881006313895 ], [ -121.75351896973433, 37.958801396438488 ], [ -121.753870264909338, 37.958769061342906 ], [ -121.755083145053121, 37.958268195955291 ], [ -121.756322548853987, 37.957925320178518 ], [ -121.757001222457902, 37.957842357644459 ], [ -121.757659072215176, 37.957853831922854 ], [ -121.758068928563546, 37.957934744658679 ], [ -121.758439184479258, 37.95825411383673 ], [ -121.758973503308567, 37.958800502589646 ], [ -121.75943815868591, 37.959260501130736 ], [ -121.759767884412625, 37.959791206257243 ], [ -121.759841533689539, 37.960021801625828 ], [ -121.759856212161267, 37.960630327949403 ], [ -121.759961078792571, 37.961712897667631 ], [ -121.7598768500566, 37.968750753200666 ], [ -121.751192713135822, 37.96887517883588 ], [ -121.751042398039331, 37.968760924133377 ], [ -121.750724965757286, 37.968766549943197 ], [ -121.750714721369789, 37.968320334212137 ], [ -121.750744708930569, 37.967180581392526 ], [ -121.750675568298107, 37.965215118622446 ], [ -121.750330084324688, 37.964986162093055 ], [ -121.74998668713765, 37.964847320398263 ], [ -121.749735937697452, 37.964781569104431 ], [ -121.749394105375643, 37.964714848903228 ], [ -121.749004365001412, 37.96453946233278 ], [ -121.748679631212738, 37.96422057729427 ], [ -121.748145052770283, 37.963692144316084 ], [ -121.747908533542514, 37.963248016081884 ], [ -121.747301422429103, 37.962507055802057 ], [ -121.747023180049638, 37.962260739506313 ], [ -121.746567465604329, 37.962156766052338 ], [ -121.746249251787958, 37.962126331245692 ], [ -121.745729238629522, 37.962206424790672 ], [ -121.745483443398143, 37.962352492748856 ], [ -121.74548828621586, 37.9625688578435 ], [ -121.745653949927288, 37.962868036894825 ], [ -121.74620361647321, 37.963094682673294 ], [ -121.746798583262304, 37.963335336659114 ], [ -121.7469401065471, 37.963548647078518 ], [ -121.74689860707592, 37.963728466715523 ], [ -121.746674754093647, 37.963838734826396 ], [ -121.746152729607317, 37.963828639700814 ], [ -121.745836527118882, 37.963888356307585 ], [ -121.745635510209439, 37.964034946426139 ], [ -121.745507658384952, 37.964358003722111 ], [ -121.745603323572823, 37.964588859541685 ], [ -121.746154629544122, 37.964887628093599 ], [ -121.74657007431189, 37.965184980410264 ], [ -121.746784501271918, 37.96562884905434 ], [ -121.747222819841753, 37.965962486377755 ], [ -121.74745840661825, 37.966334493555671 ], [ -121.747394443875095, 37.966496059460958 ], [ -121.747238577190146, 37.966625066040713 ], [ -121.74701319707188, 37.966699274465981 ], [ -121.746356689397615, 37.966728332046799 ], [ -121.745074332651441, 37.966701137040999 ], [ -121.744097337524835, 37.966623129102345 ], [ -121.743049078148445, 37.966427179372786 ], [ -121.742203101407753, 37.966134222981808 ], [ -121.741626128772111, 37.965713488339098 ], [ -121.740653044910275, 37.965324567927006 ], [ -121.740106508094783, 37.965206028647167 ], [ -121.739608436287185, 37.96525028587417 ], [ -121.739227152653044, 37.965453463250633 ], [ -121.739029340932518, 37.965703690212472 ], [ -121.738882004649511, 37.966206829228078 ], [ -121.738793752359371, 37.966791661669369 ], [ -121.738928273276542, 37.967703389577999 ], [ -121.738941236864406, 37.968275817514197 ], [ -121.738865353477408, 37.968428219460776 ], [ -121.73866824783272, 37.968718978410337 ], [ -121.738375291048897, 37.968792441126887 ], [ -121.737672924379382, 37.968839006992617 ], [ -121.736358121383432, 37.968874435244331 ], [ -121.733431793768432, 37.968865494440408 ], [ -121.733387201397704, 37.972785431500334 ], [ -121.735418975873031, 37.972892905837334 ], [ -121.741479911789952, 37.973070564709033 ], [ -121.741499506741221, 37.973422268947814 ], [ -121.741511018651593, 37.975873771888025 ], [ -121.741476597006539, 37.97730636928592 ], [ -121.741638572235416, 37.977447818009743 ], [ -121.742139959724739, 37.977547805165223 ], [ -121.74277731980871, 37.977644737450419 ], [ -121.74330269680766, 37.9777990757092 ], [ -121.743819767983524, 37.978065955321881 ], [ -121.743915396340469, 37.978301282121521 ], [ -121.744015121913421, 37.978671873620222 ], [ -121.744138317769796, 37.979083258100111 ], [ -121.74430070263044, 37.979242700732492 ], [ -121.744734215213526, 37.979359971833254 ], [ -121.745302731109078, 37.979406612424938 ], [ -121.745734940236659, 37.979474302089649 ], [ -121.745806577287325, 37.979614745411801 ], [ -121.745947802331443, 37.979846085022693 ], [ -121.746216806436522, 37.980682599825663 ], [ -121.746457683391753, 37.981289002785601 ], [ -121.746760513558868, 37.981603156778135 ], [ -121.747382339076637, 37.98198827648983 ], [ -121.748115773980231, 37.982338565083765 ], [ -121.748665701037609, 37.982560741725088 ], [ -121.749164628939681, 37.982557016671784 ], [ -121.749599408147304, 37.982390422126187 ], [ -121.749882679295752, 37.982222187350075 ], [ -121.750352326611107, 37.981929752103603 ], [ -121.750576961127692, 37.981819483550488 ], [ -121.751007270318468, 37.981792512217012 ], [ -121.751415114440618, 37.981787855320569 ], [ -121.75193769857735, 37.981815907151692 ], [ -121.752735507652545, 37.981982092329112 ], [ -121.753578428324673, 37.98213073154038 ], [ -121.75398698031924, 37.982126037138514 ], [ -121.754593830921237, 37.981884638270138 ], [ -121.755773927947047, 37.981410446055285 ], [ -121.760044117260819, 37.97970262360684 ], [ -121.760291178218452, 37.979610609523284 ], [ -121.760472265104994, 37.979589970437402 ], [ -121.760631819374197, 37.979623200580647 ], [ -121.761068237108887, 37.979866648272356 ], [ -121.762230565458395, 37.980572851245917 ], [ -121.764393618831008, 37.981866346325091 ], [ -121.764808392557271, 37.982127564412274 ], [ -121.765013097050939, 37.982143209584763 ], [ -121.765238588560308, 37.982105026323261 ], [ -121.765866970881333, 37.981809722268373 ], [ -121.766001304050619, 37.98173450809751 ], [ -121.766228361323513, 37.981732384630384 ], [ -121.769026092410684, 37.982996413759793 ], [ -121.768920815249274, 37.980949478157569 ], [ -121.769058911461244, 37.976259932848734 ], [ -121.771975999903603, 37.976331010892075 ], [ -121.777966491732556, 37.976402424510702 ], [ -121.778050274005835, 37.980404802066019 ], [ -121.778106860682215, 37.982784667280939 ], [ -121.778159462432001, 37.985020325298834 ], [ -121.778512098791722, 37.985042006488399 ], [ -121.779055954136112, 37.985034145978204 ], [ -121.779489465820859, 37.985115246125403 ], [ -121.779789574990971, 37.985343643551047 ], [ -121.780162923806216, 37.985789151151415 ], [ -121.780575313403659, 37.985942111471857 ], [ -121.781075172858678, 37.985969827530603 ], [ -121.781640150290343, 37.985890068606537 ], [ -121.78184444605057, 37.985887684708942 ], [ -121.782052056594182, 37.986029543827271 ], [ -121.782264285376698, 37.986365191940109 ], [ -121.782544428591308, 37.98668351916357 ], [ -121.782842488704262, 37.986821801296415 ], [ -121.783184432417173, 37.98688840936417 ], [ -121.783796610028759, 37.986881219535995 ], [ -121.784180128671352, 37.986799598829684 ], [ -121.784356595522382, 37.986585096416604 ], [ -121.784674511996371, 37.986124240323292 ], [ -121.784980768338002, 37.985636227329209 ], [ -121.785018953025755, 37.985348225171336 ], [ -121.785081872824918, 37.98511457491702 ], [ -121.78519214102603, 37.984989516927698 ], [ -121.786515588509928, 37.984358788214344 ], [ -121.786988029585828, 37.984192454067824 ], [ -121.788074361360628, 37.984086468990739 ], [ -121.790744799375389, 37.983812026765648 ], [ -121.791300910435183, 37.983795225722105 ], [ -121.793650264516259, 37.984351075609844 ], [ -121.794149715237822, 37.984360724684699 ], [ -121.797741901090887, 37.984208248195344 ], [ -121.799941797068271, 37.984158590178197 ], [ -121.802298043024237, 37.984033904402651 ], [ -121.802902248087705, 37.983684062178071 ], [ -121.803941231460456, 37.983032210442978 ], [ -121.805043508331536, 37.982642396176693 ], [ -121.807635789323342, 37.981956718430268 ], [ -121.80867380341391, 37.981710365426999 ], [ -121.809083436980117, 37.981773099393195 ], [ -121.809657876366657, 37.982071829874322 ], [ -121.810221326662287, 37.982392949871965 ], [ -121.81058983355814, 37.982621980979204 ], [ -121.810930921176563, 37.982652491547491 ], [ -121.811112006266512, 37.982631778263894 ], [ -121.81131421524033, 37.982539204952708 ], [ -121.81135567788057, 37.982395408936611 ], [ -121.811346029974416, 37.981052442204074 ], [ -121.811264594100663, 37.980497373113295 ], [ -121.811305945349801, 37.980317553479821 ], [ -121.811370988766257, 37.980210041156994 ], [ -121.811952356858612, 37.979859939248108 ], [ -121.812623543004591, 37.979456639027291 ], [ -121.812985008006933, 37.979415213482383 ], [ -121.816016910125725, 37.980013569730062 ], [ -121.816335646761587, 37.980061849098888 ], [ -121.816540760887037, 37.980095451475513 ], [ -121.816687127887846, 37.980065388055216 ], [ -121.817181846284512, 37.979881097986016 ], [ -121.817634022265906, 37.979818028898208 ], [ -121.818612134896725, 37.979931500961243 ], [ -121.822619914637883, 37.980075333668758 ], [ -121.825685642818712, 37.98020963118271 ], [ -121.82662598039353, 37.981534865809571 ], [ -121.828382306249907, 37.981939916253864 ], [ -121.828887120812027, 37.98263889274714 ], [ -121.830167950422236, 37.984891239886153 ], [ -121.830469475337239, 37.985173617161777 ], [ -121.832932824729554, 37.987095233974799 ], [ -121.835405709738637, 37.98895828946749 ], [ -121.837805356000914, 37.989653465207802 ], [ -121.838531936758898, 37.98966061724127 ], [ -121.839542160567831, 37.989688632079485 ], [ -121.844853270920467, 37.989767942970211 ], [ -121.845559585685635, 37.990342680996577 ], [ -121.847163510557451, 37.991908569745291 ], [ -121.84712253300745, 37.994846221509867 ], [ -121.847228777654408, 37.995014008953412 ], [ -121.850693224870739, 37.997922901712151 ], [ -121.856001429173375, 37.997861993077677 ], [ -121.870171317022852, 37.997827756769425 ], [ -121.869991609050288, 37.992003972276102 ], [ -121.869934910084467, 37.990642527044216 ], [ -121.876039505920815, 37.990691998724216 ], [ -121.878490971500256, 37.990724445779151 ], [ -121.881416479851765, 37.990662158408803 ], [ -121.88452441447788, 37.990633101098823 ], [ -121.886111538158929, 37.990589552280817 ], [ -121.888652596314913, 37.990582064758719 ], [ -121.890149455479587, 37.990578190022411 ], [ -121.891807991632447, 37.990661412914029 ], [ -121.892199184582495, 37.990867868655407 ], [ -121.89247761291324, 37.991095819144633 ], [ -121.892623309770826, 37.991489247259615 ], [ -121.892712195373264, 37.991873101638625 ], [ -121.892703850024276, 37.992427275483507 ], [ -121.892668274044084, 37.993278652504586 ], [ -121.892700422951478, 37.994549722061912 ], [ -121.892640855664993, 37.995765843286343 ], [ -121.892630909518147, 37.996283956829778 ], [ -121.892731791222886, 37.996676974845037 ], [ -121.893009362560832, 37.99686882783157 ], [ -121.893602391683856, 37.997005097996265 ], [ -121.894943570114833, 37.997089811534416 ], [ -121.896304120714916, 37.997071036337857 ], [ -121.898018351517095, 37.997105159025807 ], [ -121.899924060917016, 37.997091450346495 ], [ -121.901009126067237, 37.996930331936646 ], [ -121.901824405578054, 37.996865883624146 ], [ -121.902821740359329, 37.996812090760322 ], [ -121.903910793131089, 37.996813245366184 ], [ -121.904754197995146, 37.996960767179495 ], [ -121.906012973965105, 37.997373565460336 ], [ -121.906431623023494, 37.997796536113654 ], [ -121.906579963622988, 37.998257539746625 ], [ -121.906521662961055, 37.998635545471032 ], [ -121.906334728042026, 37.999336756985514 ], [ -121.906218498620646, 37.999732234114497 ], [ -121.906200617654932, 37.999930344579575 ], [ -121.906148016803485, 38.000979834163793 ], [ -121.906506761707149, 38.005246074067479 ], [ -121.908678420940191, 38.005221188832493 ], [ -121.914502242046282, 38.005180470802514 ], [ -121.914473147410845, 38.006284237460775 ], [ -121.914624245838269, 38.01172919659296 ], [ -121.914650435322045, 38.012752347209997 ], [ -121.91472043294732, 38.013703823913261 ], [ -121.915042336144538, 38.013841958143594 ], [ -121.917287270955299, 38.014416918714872 ], [ -121.919107671844301, 38.01486179253245 ], [ -121.919751587833204, 38.014259338168969 ], [ -121.92003903075782, 38.013933041068775 ], [ -121.920368086341327, 38.013440370652376 ], [ -121.920361306755879, 38.013174422316311 ], [ -121.9204418470093, 38.012778610018195 ], [ -121.920614961347724, 38.01243323851088 ], [ -121.920813035376298, 38.012178205205025 ], [ -121.923646379274572, 38.012195154748163 ], [ -121.923991788687843, 38.015888929939145 ], [ -121.932680843884796, 38.015747330981512 ], [ -121.93271351381506, 38.012169635591533 ], [ -121.935522457673599, 38.012150041125452 ], [ -121.939722387952372, 38.01214292525777 ], [ -121.940133474094381, 38.0123719554906 ], [ -121.940246126424256, 38.012607283367899 ], [ -121.940318918708371, 38.012941403548147 ], [ -121.940363733861247, 38.013685344563562 ], [ -121.940454408009401, 38.01500201169776 ], [ -121.940339967133767, 38.015830106336416 ], [ -121.939999438267449, 38.01673281937439 ], [ -121.939599938595975, 38.017134777362962 ], [ -121.938868551851243, 38.017885237699133 ], [ -121.938085086176201, 38.01839638471337 ], [ -121.937230690424641, 38.018789701045492 ], [ -121.935940176077338, 38.019354826887124 ], [ -121.934928647016292, 38.019827865134239 ], [ -121.933420090888305, 38.020598255270677 ], [ -121.931989876836255, 38.021608181633248 ], [ -121.931251635945856, 38.02208814827415 ], [ -121.931121177210414, 38.022343852641171 ], [ -121.930968327966525, 38.02306342904339 ], [ -121.930957524826908, 38.023464419619771 ], [ -121.931149079781449, 38.02473690416555 ], [ -121.931248879914577, 38.025954515284866 ], [ -121.931012399314341, 38.026497625402008 ], [ -121.930773681909074, 38.027392179823693 ], [ -121.930581494540561, 38.027877100786625 ], [ -121.930445000024704, 38.028741069853034 ], [ -121.930499165741395, 38.029962741815496 ], [ -121.930269501557532, 38.030771800354792 ], [ -121.929819785163374, 38.032313325923248 ], [ -121.929336465489357, 38.033421972299784 ], [ -121.928863652510955, 38.034053036124526 ], [ -121.928518429048935, 38.034775407664164 ], [ -121.92852964182029, 38.035226130957561 ], [ -121.928485424047054, 38.036600129854122 ], [ -121.928459272292542, 38.04044824252162 ], [ -121.928514779193918, 38.043481449721256 ], [ -121.927719616555578, 38.043987903170652 ], [ -121.922067679994271, 38.047446537034652 ], [ -121.919529750670407, 38.049045506927492 ], [ -121.917706482359065, 38.050285954066908 ], [ -121.91516516369164, 38.052150648546224 ], [ -121.913760169841197, 38.053133529402743 ], [ -121.912199646174031, 38.054367345824943 ], [ -121.907540723497476, 38.057820950427882 ], [ -121.905595748736474, 38.059217785945236 ], [ -121.901561669018719, 38.062010078421494 ], [ -121.899810558780871, 38.063241920439445 ], [ -121.895310743012487, 38.066795661239816 ], [ -121.893658018061188, 38.06814999103505 ], [ -121.891916779409982, 38.069372817395212 ], [ -121.889546638313234, 38.071044765445322 ], [ -121.885018547172947, 38.074377038521362 ], [ -121.883528058860293, 38.07539478761408 ], [ -121.882397209274984, 38.076285281083663 ], [ -121.880971764378785, 38.077335179684304 ], [ -121.880159054947967, 38.078012401121057 ], [ -121.879241553446008, 38.079112144425565 ], [ -121.878273201010771, 38.080459284029381 ], [ -121.877637145280588, 38.081417540461942 ], [ -121.87674393242726, 38.083486342497856 ], [ -121.876552899393928, 38.084047819085917 ], [ -121.876130974179688, 38.08540013604037 ], [ -121.876034712510474, 38.086102168128505 ], [ -121.876047192804705, 38.087940821950234 ], [ -121.876035494943082, 38.090657937995267 ], [ -121.876009231797426, 38.0941409730044 ], [ -121.876010499320287, 38.096105653395774 ], [ -121.876066452684427, 38.096502731799319 ], [ -121.874162121300117, 38.096489022631538 ], [ -121.862047251833957, 38.096530039136027 ], [ -121.855642582760126, 38.096512865920985 ], [ -121.849653321623094, 38.09650396330548 ], [ -121.843052403897346, 38.096457173832668 ], [ -121.843040743764945, 38.09552428722246 ], [ -121.84305311087148, 38.090896581867369 ], [ -121.843093566500301, 38.086431336723585 ], [ -121.843027330121132, 38.081906487581598 ], [ -121.841955117167657, 38.081932005775734 ], [ -121.8361515611561, 38.081883651374753 ], [ -121.830141140202571, 38.081891587056433 ], [ -121.824061539090692, 38.081902986775155 ], [ -121.817357766959859, 38.081867261710983 ], [ -121.811738947689804, 38.08185113154606 ], [ -121.806167328599756, 38.081871248290732 ], [ -121.800386756883043, 38.081857465669657 ], [ -121.793892718014831, 38.081894607041662 ], [ -121.788217237508235, 38.081903808414658 ], [ -121.785238383601921, 38.081823492049061 ], [ -121.764351124924815, 38.081547114181795 ], [ -121.76254178858521, 38.081546108693772 ], [ -121.762269133726804, 38.081741499786389 ], [ -121.756848948135755, 38.084306847378279 ], [ -121.751492911239154, 38.086683396425002 ], [ -121.751502820555061, 38.087107073977791 ], [ -121.751092144044833, 38.08736859010358 ], [ -121.750911802759958, 38.087497335942714 ], [ -121.750190437620475, 38.087922242550299 ], [ -121.749081717133905, 38.088370060063383 ], [ -121.747575469676192, 38.088975866935378 ], [ -121.746153116781201, 38.089717721266197 ], [ -121.743603229982611, 38.09112345904034 ], [ -121.740958906891464, 38.092879562104272 ], [ -121.740002512829264, 38.09304056848724 ], [ -121.739398270934856, 38.093570305454293 ], [ -121.735141492569994, 38.096773459057204 ], [ -121.730253986382849, 38.100402227441407 ], [ -121.729174657874026, 38.101192660204326 ], [ -121.728077634350754, 38.102181166464447 ], [ -121.726931362488642, 38.103006876963939 ], [ -121.72668959081139, 38.103423327454053 ], [ -121.726398645355502, 38.10371758796623 ], [ -121.725945240478765, 38.103883885489218 ], [ -121.725605382653967, 38.103997357021377 ], [ -121.723903967217623, 38.105055861030337 ], [ -121.721428288448024, 38.106732242961755 ], [ -121.717857449261047, 38.109022998233854 ], [ -121.7161696684541, 38.110185140083672 ], [ -121.71459334970929, 38.111249381354199 ], [ -121.713132812126503, 38.112332882873517 ], [ -121.7118031815385, 38.113674657839503 ], [ -121.710392674727132, 38.114992963868971 ], [ -121.709360023578796, 38.115819754382137 ], [ -121.708464389765822, 38.116639057363514 ], [ -121.707206507619532, 38.118107716440093 ], [ -121.706225415276933, 38.119200903012143 ], [ -121.70489090414199, 38.12084442674459 ], [ -121.703222831474051, 38.122880820344484 ], [ -121.702314791926995, 38.124191078562497 ], [ -121.701975641076331, 38.124700997070526 ], [ -121.701667672545753, 38.125139202461668 ], [ -121.700994400511703, 38.126114073969077 ], [ -121.699672928423084, 38.128095668774478 ], [ -121.699150120605836, 38.12898657095527 ], [ -121.698386808634183, 38.130370517094775 ], [ -121.697580693735887, 38.131992769276373 ], [ -121.697251601321426, 38.132854279598575 ], [ -121.69681689667398, 38.134201307552061 ], [ -121.696186131122502, 38.135866028404742 ], [ -121.695875553884377, 38.136727762912756 ], [ -121.69475491185564, 38.139865053540895 ], [ -121.694504795727752, 38.140813065700286 ], [ -121.69412321475123, 38.141935346900517 ], [ -121.693494647377264, 38.143708249721442 ], [ -121.693110904155873, 38.144749394238303 ], [ -121.691865875104696, 38.147569849379273 ], [ -121.691560066124083, 38.148598327324521 ], [ -121.69091615013518, 38.151420942933626 ], [ -121.690378031432203, 38.153352542537171 ], [ -121.689871578343045, 38.15494655824255 ], [ -121.689602166402793, 38.155493281059478 ], [ -121.688999414813438, 38.156248100579639 ], [ -121.688264600995879, 38.157208703363018 ], [ -121.686672560835277, 38.159268193347764 ], [ -121.685765116871252, 38.160303451698162 ], [ -121.68474323292989, 38.161432028672195 ], [ -121.683775775216702, 38.162389987246257 ], [ -121.682779520210389, 38.16336113331964 ], [ -121.681912756454011, 38.164468922713439 ], [ -121.681352324497709, 38.165440441556228 ], [ -121.680519572754591, 38.167192930547522 ], [ -121.679678104658279, 38.168593862680389 ], [ -121.679598234548052, 38.168710129266906 ], [ -121.679753243341906, 38.168779456904872 ], [ -121.679728880133069, 38.168824235251009 ], [ -121.680692464310809, 38.169317239470743 ], [ -121.681643717314614, 38.169819073297582 ], [ -121.68260692869147, 38.170294010238479 ], [ -121.683493473350438, 38.170786084298896 ], [ -121.688879760115938, 38.174955876383855 ], [ -121.694507072956981, 38.179529154984756 ], [ -121.700629365604414, 38.184314886121584 ], [ -121.703699080508471, 38.186786578014164 ], [ -121.706939413332748, 38.189386272125589 ], [ -121.708015835791599, 38.190263279984265 ], [ -121.710507087754991, 38.19221473602471 ], [ -121.712528430094949, 38.193868131426676 ], [ -121.713748314402963, 38.194832273926167 ], [ -121.713779382637085, 38.195053407495642 ], [ -121.713701934384844, 38.196170063096261 ], [ -121.713737175293446, 38.199401268547113 ], [ -121.713680067594197, 38.201387816663129 ], [ -121.713650265984668, 38.204014482599334 ], [ -121.713656710498498, 38.205433967120776 ], [ -121.713733154434237, 38.208755734460972 ], [ -121.717431324422861, 38.208814220780582 ], [ -121.726993364209562, 38.20898141101204 ], [ -121.732004625005175, 38.20898159735912 ], [ -121.7320248164378, 38.209873991132554 ], [ -121.73207842430071, 38.215507114044634 ], [ -121.73211906677912, 38.219459349955422 ], [ -121.733820519944686, 38.219495745208675 ], [ -121.737619571638021, 38.219451041765332 ], [ -121.743200130761807, 38.219519959062438 ], [ -121.746395947572182, 38.219554119151034 ], [ -121.750415088306752, 38.219538399104003 ], [ -121.750474916104679, 38.219881498204138 ], [ -121.750456066755063, 38.221818910229445 ], [ -121.750523011006663, 38.223581456623059 ], [ -121.750748727094845, 38.227166155343355 ], [ -121.752056042632887, 38.22721160348182 ], [ -121.75617442654513, 38.227223784986649 ], [ -121.75870736393091, 38.227250606589678 ], [ -121.763547783125802, 38.227337740035665 ], [ -121.768879419084342, 38.227344222431313 ], [ -121.768940327555541, 38.229363591104622 ], [ -121.76893313833834, 38.231314636967682 ], [ -121.768990881146479, 38.234879516472446 ], [ -121.772016785214134, 38.234866142359316 ], [ -121.775881476805282, 38.234829932609429 ], [ -121.780158072903646, 38.234757288671595 ], [ -121.787088492675622, 38.234716459235514 ], [ -121.787146831066821, 38.234901829940704 ], [ -121.787044534515516, 38.23676175548038 ], [ -121.787087823430767, 38.238582639964847 ], [ -121.787145005690149, 38.24206191221203 ], [ -121.790996286332444, 38.241993479106185 ], [ -121.794115211846076, 38.241989530199163 ], [ -121.798395533257946, 38.24201992767599 ], [ -121.805432719598045, 38.241956597703528 ], [ -121.805444789362198, 38.242483912354359 ], [ -121.805444120117315, 38.243529303326227 ], [ -121.805402098724969, 38.245660244757431 ], [ -121.805416441226797, 38.247359163269934 ], [ -121.805407352072734, 38.249179526254451 ], [ -121.805515236145126, 38.249221175084656 ], [ -121.808354168462799, 38.249191447288297 ], [ -121.815459826190491, 38.249177775277488 ], [ -121.822139681575194, 38.249213499573251 ], [ -121.82339279546396, 38.249194501268107 ], [ -121.82977935989156, 38.24921331262378 ], [ -121.834392536760603, 38.249227692214063 ], [ -121.84260434309823, 38.249182801752355 ], [ -121.84263425789554, 38.249593142941166 ], [ -121.84264848810794, 38.250183600896293 ], [ -121.84250938668113, 38.254494507095295 ], [ -121.842436744415679, 38.259162035700712 ], [ -121.842415584599166, 38.26414103568591 ], [ -121.841708003209447, 38.264161077490755 ], [ -121.839972986289894, 38.264143941624532 ], [ -121.833235313536861, 38.264018549562273 ], [ -121.833250140230632, 38.265190264522737 ], [ -121.833130260954277, 38.267370006293469 ], [ -121.833051619739351, 38.271212867313068 ], [ -121.832646085185829, 38.27119528386212 ], [ -121.829854874070961, 38.271135940741509 ], [ -121.827165660368451, 38.271086580492735 ], [ -121.821772892258195, 38.270996502836077 ], [ -121.820874948876607, 38.270942412321411 ], [ -121.815093185095478, 38.270915702046999 ], [ -121.813284332947802, 38.270816311924669 ], [ -121.810682291760457, 38.270812474604341 ], [ -121.805536286367158, 38.27075119452504 ], [ -121.805546344803403, 38.27118388691742 ], [ -121.80546889655119, 38.274558105585093 ], [ -121.805502945395389, 38.275968836308138 ], [ -121.805458614434443, 38.277716705209492 ], [ -121.805393049995089, 38.280365572977047 ], [ -121.805223587308348, 38.285297932624943 ], [ -121.805079194804534, 38.285300987202334 ], [ -121.803545940396134, 38.285280833476314 ], [ -121.80199934870069, 38.285292083658895 ], [ -121.798384773237444, 38.28525512904131 ], [ -121.795146824541959, 38.285257960802653 ], [ -121.793947951828386, 38.285286198731256 ], [ -121.790738613576352, 38.285289216642937 ], [ -121.786629878468574, 38.28514314816416 ] ] ] ] } }
]
}
