{
  "type": "FeatureCollection",
  "name": "central_valley_boundary",
  "features": [
    {
      "type": "Feature",
      "properties": {},
      "geometry": {
        "type": "LineString",
        "coordinates": [
          [-122.53795505434465, 40.506683167743482],
          [-122.583582235477678, 40.477821083089886],
          [-122.623334897119832, 40.441240983534875],
          [-122.657213039271113, 40.396942869078451],
          [-122.685216661931548, 40.344926739720606],
          [-122.707345765101124, 40.285192595461353],
          [-122.717363130648536, 40.225649619916055],
          [-122.715268758573771, 40.166297813084711],
          [-122.701062648876871, 40.107137174967335],
          [-122.674744801557807, 40.048167705563927],
          [-122.65406649294998, 39.984976337670574],
          [-122.639027723053374, 39.917563071287304],
          [-122.629628491868033, 39.84592790641409],
          [-122.625868799393942, 39.770070843050959],
          [-122.616234587428977, 39.688320089900103],
          [-122.600725855973138, 39.600675646961548],
          [-122.579342605026454, 39.507137514235268],
          [-122.552084834588868, 39.407705691721276],
          [-122.515662813745564, 39.298576233457652],
          [-122.470076542496543, 39.179749139444382],
          [-122.415326020841746, 39.051224409681495],
          [-122.351411248781204, 38.913002044168962],
          [-122.290316246076301, 38.776800516506547],
          [-122.232041012727009, 38.642619826694229],
          [-122.176585548733343, 38.510459974732029],
          [-122.123949854095301, 38.380320960619926],
          [-122.068494390101648, 38.26235790297477],
          [-122.010219156752399, 38.156570801796562],
          [-121.949124154047524, 38.062959657085294],
          [-121.885209381987039, 37.981524468840973],
          [-121.813070282639359, 37.902419204895203],
          [-121.732706856004512, 37.825643865247997],
          [-121.644119102082414, 37.751198449899341],
          [-121.54730702087312, 37.679082958849243],
          [-121.461539036306647, 37.60333149200229],
          [-121.386815148382993, 37.523944049358484],
          [-121.323135357102132, 37.440920630917823],
          [-121.27049966246409, 37.354261236680308],
          [-121.217159025487149, 37.268087439345074],
          [-121.163113446171266, 37.182399238912112],
          [-121.108362924516499, 37.09719663538143],
          [-121.052907460522846, 37.012479628753034],
          [-120.984998015208546, 36.928781037168989],
          [-120.904634588573629, 36.846100860629306],
          [-120.811817180618107, 36.76443909913398],
          [-120.706545791341952, 36.683795752683011],
          [-120.617488075860564, 36.60213513081758],
          [-120.54464403417397, 36.519457233537686],
          [-120.488013666282114, 36.435762060843331],
          [-120.447596972185039, 36.351049612734514],
          [-120.410939970562126, 36.272521927843442],
          [-120.378042661413332, 36.200179006170124],
          [-120.348905044738714, 36.134020847714545],
          [-120.323527120538245, 36.074047452476719],
          [-120.290629811389465, 36.014209523639074],
          [-120.250213117292404, 35.954507061201618],
          [-120.202277038247047, 35.894940065164342],
          [-120.14682157425338, 35.835508535527254],
          [-120.082436840633619, 35.765871298261096],
          [-120.009122837387764, 35.686028353365884],
          [-119.926879564515801, 35.595979700841603],
          [-119.835707022017743, 35.495725340688246],
          [-119.735605209893578, 35.401548666105697],
          [-119.626574128143318, 35.313449677093942],
          [-119.508613776766964, 35.231428373652982],
          [-119.381724155764516, 35.155484755782823],
          [-119.26587863140486, 35.101409585298335],
          [-119.161077203688023, 35.069202862199525],
          [-119.067319872613979, 35.058864586486393],
          [-118.984606638182726, 35.070394758158955],
          [-118.917872096766615, 35.097646150150638],
          [-118.867116248365605, 35.140618762461457],
          [-118.832339092979709, 35.199312595091421],
          [-118.813540630608969, 35.273727648040527],
          [-118.806256226440269, 35.362736707399741],
          [-118.810485880473664, 35.466339773169068],
          [-118.826229592709154, 35.584536845348516],
          [-118.853487363146712, 35.717327923938079],
          [-118.892729153345613, 35.856725729551719],
          [-118.943954963305885, 36.002730262189431],
          [-119.007164793027499, 36.15534152185122],
          [-119.082358642510485, 36.31455950853708],
          [-119.167656665517711, 36.470648199369656],
          [-119.263058862049206, 36.623607594348954],
          [-119.36856523210497, 36.773437693474968],
          [-119.484175775684974, 36.920138496747704],
          [-119.605190877196577, 37.068021499594082],
          [-119.731610536639749, 37.217086702014086],
          [-119.86343475401452, 37.367334104007739],
          [-120.00066352932086, 37.51876370557504],
          [-120.131782804356703, 37.671566293194886],
          [-120.256792579122077, 37.82574186686729],
          [-120.375692853616982, 37.981290426592253],
          [-120.488483627841362, 38.138211972369767],
          [-120.587645516847005, 38.287314461722445],
          [-120.673178520633854, 38.428597894650295],
          [-120.745082639201911, 38.562062271153302],
          [-120.803357872551231, 38.687707591231465],
          [-120.863747932917221, 38.801485513613244],
          [-120.926252820299908, 38.903396038298631],
          [-120.990872534699321, 38.993439165287619],
          [-121.057607076115431, 39.071614894580215],
          [-121.127631348446414, 39.151665241353307],
          [-121.200945351692297, 39.233590205606902],
          [-121.277549085853053, 39.317389787340993],
          [-121.357442550928681, 39.403063986555573],
          [-121.440625746919181, 39.506066255660649],
          [-121.527098673824582, 39.626396594656214],
          [-121.616861331644841, 39.764055003542261],
          [-121.709913720380001, 39.919041482318796],
          [-121.793566877929763, 40.065767184118393],
          [-121.867820804294155, 40.204232108941049],
          [-121.932675499473191, 40.334436256786766],
          [-121.988130963466858, 40.456379627655544],
          [-122.041471600443799, 40.554256280173007],
          [-122.092697410404028, 40.628066214339171],
          [-122.14180839334756, 40.677809430154014],
          [-122.18880454927438, 40.703485927617535],
          [-122.237190134937023, 40.710741777022129],
          [-122.286965150335504, 40.699576978367773],
          [-122.338129595469809, 40.669991531654475],
          [-122.390683470339923, 40.621985436882241],
          [-122.441505671775772, 40.578765344639663],
          [-122.490596199777343, 40.540331254926741],
          [-122.53795505434465, 40.506683167743482]
        ]
      }
    }
  ]
}
