{
  "type": "FeatureCollection",
  "name": "delta_legal_boundary",
  "features": [
    {
      "type": "Feature",
      "properties": {},
      "geometry": {
        "type": "LineString",
        "coordinates": [
          [-121.796784634371562, 38.282095899227983],
          [-121.812037735031083, 38.276021587590087],
          [-121.828429542818668, 38.265925768770373],
          [-121.833052898420988, 38.260165374815429],
          [-121.831804397507568, 38.255387151857747],
          [-121.815282495988299, 38.247074484359572],
          [-121.763789897454203, 38.228372864132247],
          [-121.739972743376612, 38.216095447781562],
          [-121.717210022613898, 38.201318578728518],
          [-121.705819380530215, 38.191283677779118],
          [-121.695256892078646, 38.17627479602173],
          [-121.692414703080317, 38.161254509588019],
          [-121.696537722446806, 38.145777840543147],
          [-121.707518080022567, 38.129781220610724],
          [-121.724498128954821, 38.114377434031368],
          [-121.745762575537016, 38.101792095115128],
          [-121.762319094177002, 38.094967571586537],
          [-121.787810916409484, 38.087592973497223],
          [-121.808847274987016, 38.084577128037722],
          [-121.830089212329625, 38.086849517240716],
          [-121.852332120230159, 38.093287024393362],
          [-121.857962993698237, 38.092798708141471],
          [-121.865595178029878, 38.089226596185556],
          [-121.892474584531016, 38.06758570853144],
          [-121.910354389118709, 38.046705093931955],
          [-121.918971395338709, 38.031150150802006],
          [-121.921764561713587, 38.022232045878198],
          [-121.921839619878682, 38.015222952370294],
          [-121.91919656983363, 38.010122870278323],
          [-121.904990794155239, 38.003974463235849],
          [-121.876085830846947, 37.997085716120395],
          [-121.748536238786471, 37.974551950653099],
          [-121.74573887741218, 37.972507442277781],
          [-121.744548133708022, 37.967792882784281],
          [-121.749994022794297, 37.959116282056861],
          [-121.749439818099887, 37.952717892942995],
          [-121.740596328237842, 37.933818589855102],
          [-121.73006935154396, 37.91647388317212],
          [-121.720663504628902, 37.905976968907686],
          [-121.709674253675672, 37.898479103634485],
          [-121.675381890498045, 37.886231670120898],
          [-121.664733773735293, 37.879504508989683],
          [-121.626482541641394, 37.831149330523296],
          [-121.622558509981388, 37.820578681230401],
          [-121.621404892468888, 37.802022975935714],
          [-121.618477463722826, 37.796520700620178],
          [-121.543135418213652, 37.751013168439648],
          [-121.520483249238964, 37.741515974114236],
          [-121.486406338069258, 37.730775999881686],
          [-121.462527692036602, 37.719466920964507],
          [-121.440240700766225, 37.704097544336719],
          [-121.426338913190364, 37.692013433043826],
          [-121.402977771265398, 37.67888411728412],
          [-121.374060937969858, 37.658592380338661],
          [-121.356701342162751, 37.648947995212765],
          [-121.341532115909985, 37.642401809591775],
          [-121.333262766863911, 37.640723756474124],
          [-121.326864624724351, 37.641520725792653],
          [-121.322337689491278, 37.644792717547361],
          [-121.319643232932989, 37.650127571987021],
          [-121.318819599307574, 37.65967932257999],
          [-121.32452997595216, 37.681694868697065],
          [-121.323460678902052, 37.683865509194348],
          [-121.318381964818869, 37.686160534532846],
          [-121.30341359373665, 37.684487433400513],
          [-121.250620547242775, 37.671963787407492],
          [-121.235921409251844, 37.672735521679954],
          [-121.22409727031966, 37.679081009704348],
          [-121.21527423685815, 37.6889780193587],
          [-121.209704521691194, 37.69838208639905],
          [-121.207173964244333, 37.710014901195656],
          [-121.208282241005293, 37.718962532307074],
          [-121.213927622770512, 37.726365542558],
          [-121.238234672288257, 37.743902330339196],
          [-121.254515084727601, 37.760030193301262],
          [-121.267711287201905, 37.780974313059517],
          [-121.280238829733136, 37.808397825446519],
          [-121.291333699319878, 37.851426235649527],
          [-121.298604750871434, 37.954702683160029],
          [-121.303865116018244, 37.989367404553704],
          [-121.307807484124936, 37.995610703756753],
          [-121.327216110159696, 38.016475117887204],
          [-121.335833421855639, 38.028877471196054],
          [-121.374518545516395, 38.09851720093743],
          [-121.39444569857325, 38.143545175360714],
          [-121.399296907489159, 38.165322981807556],
          [-121.398372562116066, 38.183966732001252],
          [-121.389571041326491, 38.206421463284535],
          [-121.378128796686354, 38.218457616200453],
          [-121.377931564210769, 38.224678546475431],
          [-121.396539593683983, 38.254561626480659],
          [-121.399591317719057, 38.274073608741659],
          [-121.404840675492878, 38.278859614277792],
          [-121.41931448086396, 38.287443293179635],
          [-121.427936352281961, 38.29519063558692],
          [-121.454857050385527, 38.325574207892714],
          [-121.462347589808871, 38.339394953967194],
          [-121.469531897439879, 38.361343202680899],
          [-121.4981906729179, 38.477852927446746],
          [-121.506265040526131, 38.49598563950467],
          [-121.519455222028228, 38.509571816271375],
          [-121.522858890804429, 38.517131280316294],
          [-121.522860244214669, 38.522762438559639],
          [-121.513711475385037, 38.563811104493131],
          [-121.514036889233495, 38.568785106339931],
          [-121.51566730903032, 38.570783223446639],
          [-121.521863574369192, 38.573801690026684],
          [-121.538496536740539, 38.57588497081332],
          [-121.553563057048876, 38.575459747845265],
          [-121.568885488292437, 38.572992978285334],
          [-121.592348968161403, 38.56546484560767],
          [-121.621786369781205, 38.550133295378394],
          [-121.638532782747887, 38.535891430122959],
          [-121.650159221961204, 38.513052064111898],
          [-121.672163092803586, 38.483059415560874],
          [-121.684411350727174, 38.470832910612388],
          [-121.712274444249346, 38.447430184679474],
          [-121.714852643868312, 38.440647600228694],
          [-121.713716411619941, 38.422436931023487],
          [-121.72810971363873, 38.408068763876591],
          [-121.738578373830848, 38.400461364366041],
          [-121.751606946314865, 38.394287261867392],
          [-121.80603621789092, 38.381171683224743],
          [-121.817188487873281, 38.376753376060397],
          [-121.826333433101084, 38.370985741688335],
          [-121.828599885005218, 38.363934113990396],
          [-121.826354195469236, 38.353006915366969],
          [-121.796554652450766, 38.296769686814244],
          [-121.794394552731774, 38.287194549546413],
          [-121.796784634371562, 38.282095899227983]
        ]
      }
    }
  ]
}
