{
  "type": "FeatureCollection",
  "name": "geometro_editor_edited",
  "features": [
    {
      "type": "Feature",
      "properties": {
        "metro_river_id": "mccloud",
        "metro_river_name": "McCloud River",
        "metro_feature_index": 0,
        "metro_line_index": 0,
        "metro_color": "#74c8f5",
        "metro_stroke_width": 8
      },
      "geometry": {
        "type": "LineString",
        "coordinates": [
          [-121.77437618808881, 41.21819500268782],
          [-121.9755047798157, 41.21819500268782],
          [-122.08032057867584, 41.136491835889416],
          [-122.08125751327982, 41.136491835889416],
          [-122.21481869634118, 41.03238184735596],
          [-122.21481869634118, 40.88654253889671],
          [-122.37011958716408, 40.765486603390514]
        ]
      }
    },
    {
      "type": "Feature",
      "properties": {
        "metro_river_id": "sacramento",
        "metro_river_name": "Sacramento River",
        "metro_feature_index": 0,
        "metro_line_index": 0,
        "metro_color": "#67b8ef",
        "metro_stroke_width": 8
      },
      "geometry": {
        "type": "LineString",
        "coordinates": [
          [-122.38069538714768, 41.284673669251276],
          [-122.38069538714768, 40.773730363963665],
          [-122.37011958716408, 40.765486603390514],
          [-122.37011958716408, 40.747466864195495],
          [-122.45253661127357, 40.68322338238193],
          [-122.45253661127357, 40.58382751039282],
          [-122.16838798072268, 40.36233568177627],
          [-122.16838798072268, 39.87497849299544],
          [-122.00976905919657, 39.75133617624772],
          [-122.00976905919657, 39.21921837152067],
          [-122.00976905919657, 38.985212207739025],
          [-122.01181640542859, 38.98361631596977],
          [-121.50649138850457, 38.58971907343442],
          [-121.50649138850457, 38.32213438101907],
          [-121.83659708695052, 38.06481934612418]
        ]
      }
    },
    {
      "type": "Feature",
      "properties": {
        "metro_river_id": "sacramento",
        "metro_river_name": "Sacramento River",
        "metro_feature_index": 1,
        "metro_line_index": 0,
        "metro_color": "#67b8ef",
        "metro_stroke_width": 8
      },
      "geometry": {
        "type": "LineString",
        "coordinates": [
          [-122.5062977869527, 41.25445886929822],
          [-122.48490782013683, 41.27113219570106],
          [-122.39830758777406, 41.27113219570106]
        ]
      }
    },
    {
      "type": "Feature",
      "properties": {
        "metro_river_id": "sacramento",
        "metro_river_name": "Sacramento River",
        "metro_feature_index": 2,
        "metro_line_index": 0,
        "metro_color": "#67b8ef",
        "metro_stroke_width": 8
      },
      "geometry": {
        "type": "LineString",
        "coordinates": [
          [-122.49658318696777, 41.20624933603972],
          [-122.48130481830873, 41.20624933603972],
          [-122.38069538714768, 41.284673669251276]
        ]
      }
    },
    {
      "type": "Feature",
      "properties": {
        "metro_river_id": "sacramento",
        "metro_river_name": "Sacramento River",
        "metro_feature_index": 3,
        "metro_line_index": 0,
        "metro_color": "#67b8ef",
        "metro_stroke_width": 8
      },
      "geometry": {
        "type": "LineString",
        "coordinates": [
          [-122.47849352032921, 41.30084560255955],
          [-122.40144212408876, 41.30084560255955],
          [-122.38069538714768, 41.284673669251276]
        ]
      }
    },
    {
      "type": "Feature",
      "properties": {
        "metro_river_id": "san_joaquin",
        "metro_river_name": "San Joaquin River",
        "metro_feature_index": 0,
        "metro_line_index": 0,
        "metro_color": "#8fd2ff",
        "metro_stroke_width": 8
      },
      "geometry": {
        "type": "LineString",
        "coordinates": [
          [-119.18302, 37.53236],
          [-119.18302, 37.34324066706392],
          [-119.81506, 36.85057],
          [-119.88543315029735, 36.7957146318265],
          [-120.24893521913977, 36.7957146318265],
          [-120.29093, 36.7957146318265],
          [-120.73907128368808, 37.145037562611705],
          [-120.73907128368808, 37.3012815046357],
          [-121.275135623372, 37.71913982977534],
          [-121.275135623372, 37.90508111829396],
          [-121.33534, 37.95201],
          [-121.47577746345269, 38.06148],
          [-121.84503, 38.06148]
        ]
      }
    }
  ]
}
