{
"type": "FeatureCollection",
"name": "SacramentoRiver_headwater",
"crs": { "type": "name", "properties": { "name": "urn:ogc:def:crs:OGC::CRS84" } },
"features": [
{"type":"Feature","properties":{"GNIS_Name":"Middle Fork Sacramento River"},"geometry":{"type":"MultiLineString","coordinates":[[[-122.5062977869527,41.254458869298219],[-122.506268853619417,41.254449735964897],[-122.505851053620063,41.254339802631705],[-122.505506653620614,41.254216735965258],[-122.504998853621373,41.253980335965593],[-122.50463558695526,41.253884202632435],[-122.504199386955975,41.253850802632485],[-122.503472786957104,41.253739535965963],[-122.502164453625767,41.253625802632826],[-122.502091453625894,41.253598535966205],[-122.501884453626189,41.253589469299527],[-122.50129125362713,41.253563469299593],[-122.501182720293968,41.253522602632984],[-122.501146253627383,41.253508869299651],[-122.501136320294052,41.253535802632939],[-122.499659520296348,41.25307460263366],[-122.499521386963238,41.253184469300152],[-122.499390586963443,41.253294402633344],[-122.499230586963677,41.253453669299745],[-122.499143386963794,41.253558069299572],[-122.499012520297356,41.253717402632674],[-122.498932720297489,41.253843669299158],[-122.49880178696435,41.25397006929893],[-122.498641920297928,41.254124002632068],[-122.498510920298088,41.254206402631894],[-122.498321920298395,41.254338202631743],[-122.498089186965444,41.254459202631551],[-122.497849120299122,41.254558069298014],[-122.497565520299588,41.254668202631194],[-122.497194520300184,41.254783669297694],[-122.496874520300651,41.25489366929753],[-122.496437986967976,41.255042069297303],[-122.496088720301884,41.255179602630392],[-122.495841386968948,41.255295069296892],[-122.495630520302598,41.255415869296712],[-122.495434186969533,41.255580802629765],[-122.495332520303066,41.255674202629621],[-122.495216186969913,41.255833469296078],[-122.495114320303401,41.255932402629242],[-122.494976120303591,41.256020269295789],[-122.494699786970671,41.256229069295443],[-122.494314386971269,41.256553269294955],[-122.493943720305197,41.256888402627737],[-122.493659986972318,41.25714106929405],[-122.493369186972757,41.257437802626896],[-122.493078386973195,41.257723469293126],[-122.493013120306671,41.257849802626254],[-122.492976786973372,41.257992602626018],[-122.492918720306818,41.258124402625867],[-122.492867520306902,41.258200535959077],[-122.492707986973812,41.258437469292005],[-122.492497120307462,41.258613269291743],[-122.492177120307929,41.258926402624581],[-122.491849920308482,41.259162669290902],[-122.491406186975837,41.259410069290539],[-122.491180720309501,41.259498002623729],[-122.491064320309647,41.259574869290248],[-122.490933386976565,41.259662802623438],[-122.490744320310171,41.259794669289931],[-122.490496986977234,41.259910069289731],[-122.490249586977598,41.260020069289567],[-122.489711320311756,41.260196202622637],[-122.489551320312046,41.260284069289128],[-122.489383986978964,41.260361002622346],[-122.489187586979256,41.260459869288866],[-122.488954786979605,41.260597269288667],[-122.488685720313356,41.260756669288412],[-122.488547520313602,41.260828069288323],[-122.48843838698042,41.26093246928815],[-122.488292986980639,41.261058802621278],[-122.488081986980944,41.261234602621016],[-122.487841986981323,41.261427002620735],[-122.487769386981483,41.261513935953928],[-122.487631120315029,41.261679602620347],[-122.487471186981907,41.261932269286604],[-122.487432586981981,41.261994535953193],[-122.487362186982068,41.262108069286342],[-122.487347586982082,41.262157469286251],[-122.487282320315558,41.262283802619379],[-122.487187786982361,41.262448602619145],[-122.487107920315793,41.262618802618874],[-122.48703518698261,41.262783602618583],[-122.486948120316072,41.262953869285013],[-122.486839120316233,41.263124202618087],[-122.486751786983007,41.263299869284481],[-122.48665732031651,41.263453669284218],[-122.486567120316636,41.263551669284084],[-122.486540986983357,41.263580002617346],[-122.486388320316905,41.263700869283866],[-122.486097320317356,41.263920602616849],[-122.485675386984724,41.264195402616394],[-122.485238986985394,41.264448202616052],[-122.485122520318896,41.26447566928266],[-122.48496258698583,41.264591002615816],[-122.484715186986193,41.264777802615527],[-122.4845261869865,41.264920669281935],[-122.484191520320337,41.265178869281556],[-122.483827920320891,41.265448069281149],[-122.483434986988186,41.265706269280713],[-122.482954920322243,41.266003002613616],[-122.482402120323115,41.26644266927957],[-122.482053120323656,41.266772202612401],[-122.481827586990676,41.267002869278713],[-122.481696786990881,41.267255602611669],[-122.481587786991042,41.267513669277946],[-122.481464320324562,41.267766269277558],[-122.481340720324795,41.267969602610549],[-122.481187920324999,41.268200202610217],[-122.481049786991889,41.268408869276527],[-122.480911720325423,41.2685572692763],[-122.480787986992311,41.268667069276148],[-122.480606120325888,41.268760602609348],[-122.480387920326223,41.268837469275866],[-122.479994786993529,41.268952869275722],[-122.47975458699392,41.269046402608865],[-122.479427320327716,41.269238669275239],[-122.479201786994736,41.269431002608314],[-122.478939920328514,41.26966706927459],[-122.478757986995447,41.269804469274391],[-122.478568786995709,41.269903402607554],[-122.478168786996378,41.270128669273845],[-122.477593986997249,41.270430802606711],[-122.477281120331043,41.27055720260654],[-122.477091920331361,41.270617669273122],[-122.476984453664841,41.270638002606404],[-122.476888120331694,41.270656269273047],[-122.476720720331912,41.270656269273047],[-122.476436920332389,41.270667402606364],[-122.476080320332926,41.2706620026064],[-122.475585320333721,41.270629269273115],[-122.475192320334315,41.270634802606423],[-122.47488672033478,41.270673402606349],[-122.474602920335201,41.270750269272924],[-122.474289920335707,41.270843869272767],[-122.474049787002741,41.270926402605994],[-122.47381698700309,41.270981269272568],[-122.473525787003553,41.271008869272521],[-122.473256520337316,41.271014402605829],[-122.472892720337882,41.270992602605872],[-122.472557787005087,41.271003669272488],[-122.472346787005392,41.271064069272427],[-122.47215032033904,41.271124602605653],[-122.471880987006102,41.271174069272263],[-122.471640987006481,41.271185202605579],[-122.471349787006943,41.271163269272279],[-122.471065787007376,41.271141402605622],[-122.470876520340994,41.271103002605685],[-122.470672720341327,41.271037202605783],[-122.47010492034218,41.270867069272754],[-122.469566187009718,41.270713602606293],[-122.469187720343655,41.270614802606474],[-122.468867520344133,41.270549002606572],[-122.468496320344684,41.270488669273334],[-122.468110520345306,41.270461269273369],[-122.467848587012384,41.270472402606686],[-122.467550187012819,41.270489002606666],[-122.467186320346741,41.270516469273275],[-122.466698720347495,41.270533002606555],[-122.466021787015222,41.270549669273237],[-122.465490520349363,41.270566269273218],[-122.465315787016323,41.270560802606553],[-122.464959187016859,41.270561002606541],[-122.464573387017481,41.270572002606514],[-122.464202320351376,41.270610469273151],[-122.463998520351709,41.270638002606404],[-122.463751120352072,41.270671069273021],[-122.463532720352418,41.270715069272967],[-122.463416320352565,41.270775602606193],[-122.463256320352855,41.270836002606131],[-122.463066987019772,41.270923802605978],[-122.462899720353391,41.271017269272477],[-122.462695920353724,41.271132602605633],[-122.462528587020643,41.271253402605453],[-122.462404987020818,41.271434669271855],[-122.46219398702118,41.271659802604802],[-122.462033787021426,41.271808202604575],[-122.461895520354972,41.271912602604459],[-122.46172818702189,41.271994869270998],[-122.461582520355421,41.27202240260425],[-122.461386120355769,41.272016869270942],[-122.461102187022846,41.272011469270979],[-122.460876587023222,41.272022602604238],[-122.460687387023484,41.272072002604204],[-122.460483720357161,41.272148869270723],[-122.46030892035742,41.272214802603969],[-122.460003320357885,41.272258869270559],[-122.459763120358275,41.272297269270496],[-122.459522987025309,41.272297269270496],[-122.45937732035884,41.27228086927056],[-122.459180920359188,41.272231469270594],[-122.458933387026207,41.272193069270656],[-122.458744120359825,41.272198602604021],[-122.458656787026655,41.272204202603973],[-122.458496720360245,41.27222066927061],[-122.458278320360591,41.272231669270582],[-122.458074520360867,41.272259202603891],[-122.457776120361359,41.272308669270501],[-122.457455920361838,41.272352669270447],[-122.457164787028944,41.272369202603727],[-122.456720920362955,41.272440602603638],[-122.456400587030146,41.272490069270191],[-122.456116787030567,41.272528602603472],[-122.455956720364156,41.272534069270137],[-122.455825720364373,41.272534069270137],[-122.455650987031333,41.272528669270173],[-122.455454520364924,41.272517669270144],[-122.455323520365141,41.272528669270173],[-122.455199787032029,41.272567202603398],[-122.455075987032217,41.272605602603335],[-122.455003187032332,41.27263306927],[-122.454901387032464,41.27263306927],[-122.454813987032594,41.272622069270028],[-122.454748520366024,41.272594669270063],[-122.454687387032777,41.272548535936778],[-122.454661187032855,41.27252880260346],[-122.454581120366299,41.272468402603579],[-122.454486520366459,41.272413602603649],[-122.454420920366545,41.272391602603705],[-122.45426078703349,41.272391669270348],[-122.45403518703381,41.272391669270348],[-122.453765787034229,41.272397269270357],[-122.453387387034809,41.272391802603693],[-122.453052587035359,41.272424802603666],[-122.452856120369006,41.272468802603555],[-122.452732387035837,41.272556669270102],[-122.452659587035953,41.272655469269978],[-122.452630587036026,41.272743402603169],[-122.452572320369427,41.272831202603015],[-122.452492187036228,41.272891602602897],[-122.452397520369686,41.272913602602898],[-122.452281120369889,41.272930002602834],[-122.452179187036677,41.272968469269472],[-122.451975520370354,41.273039869269326],[-122.451706187037416,41.273116802602544],[-122.451487787037763,41.273215669269064],[-122.451327787037997,41.273292602602282],[-122.451233120371512,41.27338046926883],[-122.451123920371685,41.273468269268676],[-122.450992987038546,41.273611069268441],[-122.450825587038821,41.273720869268288],[-122.450723720372309,41.273781269268227],[-122.450636320372439,41.273819802601452],[-122.450512720372615,41.273869202601418],[-122.45043272037276,41.273918669267971],[-122.45034532037289,41.273995469267845],[-122.450207120373079,41.274138402600954],[-122.450112387039894,41.274248202600802],[-122.449952387040128,41.274369002600622],[-122.449901387040256,41.274407402600559],[-122.449763120373802,41.274539269267052],[-122.449566720374094,41.27468746926678],[-122.449399187041024,41.274830269266602],[-122.449217320374657,41.274978602599674],[-122.449108187041475,41.275093869266186],[-122.449013520374933,41.27516526926604],[-122.448867987041865,41.27526420259926],[-122.448722387042039,41.275324469265797],[-122.448504120375731,41.275428869265625],[-122.448271187042792,41.27554420259878],[-122.448052920376426,41.275665069265301],[-122.447798120376831,41.275796869265093],[-122.447514320377252,41.275928669264886],[-122.447208587044429,41.276038469264677],[-122.447004787044705,41.276115402597895],[-122.446932120378165,41.276203269264442],[-122.446888387044908,41.276302069264318],[-122.446844720378294,41.276406469264145],[-122.446793720378366,41.276439402597418],[-122.446699120378526,41.276488802597328],[-122.446553587045457,41.276565669263903],[-122.446364320379075,41.276642602597121],[-122.44613138704608,41.276692069263675],[-122.445934920379727,41.276703069263647],[-122.445760320379975,41.276681202597047],[-122.445549120380349,41.276659202597045],[-122.445330720380639,41.276642669263765],[-122.445075987047744,41.276604269263828],[-122.444843120381393,41.276554869263919],[-122.444682987048338,41.276544002597234],[-122.444551920381855,41.276576869263863],[-122.444406320382086,41.276653802597082],[-122.444297120382259,41.276703202596991],[-122.44423172038239,41.276708669263655],[-122.444173387049148,41.276703269263692],[-122.44401332038268,41.276692202597019],[-122.443860520382941,41.276692269263663],[-122.443707587049857,41.276692269263663],[-122.443467320383547,41.276703269263692],[-122.443248920383894,41.2767306692636],[-122.442979587050957,41.276791202596883],[-122.442681187051448,41.276890002596701],[-122.442462787051795,41.277027269263158],[-122.442302720385385,41.277104202596377],[-122.442200787052172,41.277192002596223],[-122.442062520385718,41.277274402596106],[-122.441851387052736,41.277356802595989],[-122.441611187053127,41.277439069262527],[-122.44121092038705,41.277543469262355],[-122.440956120387455,41.277581869262292],[-122.44074512038776,41.277614869262266],[-122.440526720388107,41.277658802595511],[-122.440322920388439,41.277741202595394],[-122.440111920388745,41.27781246926196],[-122.439915320389048,41.277856469261906],[-122.439733320389337,41.277883869261814],[-122.439522320389699,41.277916869261787],[-122.439303920389989,41.277916869261787],[-122.439085520390336,41.277900402595151],[-122.438736120390899,41.27787846926185],[-122.438488587057975,41.277834469261904],[-122.438313920391579,41.277790602595303],[-122.438197520391725,41.277752202595366],[-122.438008320392044,41.277675269262147],[-122.437811720392347,41.277576469262328],[-122.437585987059322,41.277483069262473],[-122.437222120393244,41.27740066926259],[-122.436916387060364,41.277329402596024],[-122.436676187060755,41.277280002596115],[-122.436399720394547,41.277241469262833],[-122.436217720394779,41.277230602596205],[-122.43605018706171,41.277219602596176],[-122.435846387062043,41.277230602596205],[-122.435526187062521,41.277291002596087],[-122.435271387062926,41.277340402595996],[-122.435045720396602,41.277378802595933],[-122.434871120396906,41.277411802595907],[-122.434776520397065,41.277433802595851],[-122.434674520397209,41.277444669262536],[-122.434514520397443,41.277439269262516],[-122.434376120397644,41.277406269262599],[-122.434208720397919,41.277378869262634],[-122.434106920398108,41.277351269262681],[-122.433982987064951,41.277329402596024],[-122.433764587065298,41.277340402595996],[-122.433538987065617,41.277351269262681],[-122.433276920399351,41.277334869262688],[-122.433131320399582,41.27732926926268],[-122.433080387066354,41.277318402596052],[-122.432905587066614,41.277241469262833],[-122.432730987066861,41.277115202596349],[-122.43254898706715,41.276906469263338],[-122.432417987067367,41.276758202596909],[-122.432287120400929,41.276642869263753],[-122.432246187067619,41.276619135930446],[-122.432192520401031,41.276588069263823],[-122.431959520401392,41.276527602597298],[-122.431668387068555,41.276428802597422],[-122.431442720402231,41.276302469264294],[-122.43121712040255,41.276181669264474],[-122.431027920402869,41.27605540259799],[-122.430860387069799,41.275967469264799],[-122.43074412040329,41.275918002598246],[-122.430496520403665,41.27586860259828],[-122.430249120404085,41.275841202598315],[-122.430037987071046,41.27580266926509],[-122.42977598707148,41.275753269265124],[-122.429543120405185,41.275703802598571],[-122.429382987072074,41.275665402598634],[-122.429295587072204,41.27561586926538],[-122.429128320405823,41.275429269265658],[-122.428960920406098,41.275248002599255],[-122.428756987073029,41.2751326692661],[-122.428509587073449,41.275055802599582],[-122.428189387073928,41.274995402599643],[-122.427752720407966,41.274918469266424],[-122.42748718707503,41.274897202599789],[-122.42713412040888,41.274869002599871],[-122.42671912040953,41.274869002599871],[-122.426355320410096,41.274918402599781],[-122.426071320410529,41.274962202599681],[-122.425969387077373,41.274978669266318],[-122.425867587077562,41.274978669266318],[-122.425794787077677,41.274956669266373],[-122.425649187077852,41.274890802599828],[-122.425256187078503,41.274682069266817],[-122.424877720412383,41.274533802600388],[-122.424652120412759,41.274467869267141],[-122.424426520413135,41.274446002600484],[-122.424149920413527,41.274467869267141],[-122.423705787080905,41.274544669267016],[-122.423254520414901,41.274643469266891],[-122.422730387082424,41.274802669266592],[-122.422308187083047,41.274956402599685],[-122.421987920416882,41.275082602599525],[-122.421733120417287,41.275230869265954],[-122.421514787084277,41.275373602599075],[-122.42138372041785,41.275505402598867],[-122.421281787084638,41.275653602598652],[-122.421216187084781,41.275730402598526],[-122.421179787084839,41.275768869265107],[-122.421085320418285,41.275796402598417],[-122.420932320418558,41.275768869265107],[-122.420692120418892,41.275708402598525],[-122.420495720419183,41.275708402598525],[-122.420218987086287,41.275752269265126],[-122.419745920420382,41.275856469264966],[-122.419207187087864,41.275993669264778],[-122.419047120421453,41.276021202598088],[-122.418886987088399,41.276043069264688],[-122.418799587088529,41.276032069264716],[-122.418736253755299,41.27600813593142],[-122.418610387088791,41.275960669264805],[-122.418282987089299,41.27581786926504],[-122.417969987089805,41.275669602598612],[-122.417758920423466,41.275570669265448],[-122.417416920423989,41.275433402598992],[-122.417176720424379,41.2753454025991],[-122.416965720424685,41.275296002599191],[-122.416776387091659,41.275274002599247],[-122.416653053758523,41.275274002599247],[-122.41658718709192,41.275274002599247],[-122.416295987092383,41.275334269265784],[-122.415946587092947,41.275427602598995],[-122.415386187093816,41.275520802598862],[-122.414869320427954,41.275570269265415],[-122.41458538709503,41.275608602598709],[-122.414272387095536,41.275597602598737],[-122.413930320429415,41.27558646926542],[-122.41360998709655,41.275575469265391],[-122.413304387097014,41.275559002598754],[-122.413034987097433,41.275547869265438],[-122.412911320430965,41.275525869265493],[-122.412751320431255,41.275487402598912],[-122.412583787098185,41.275438002598946],[-122.412372787098491,41.275333602599119],[-122.412096320432227,41.275190802599354],[-122.412013653765712,41.275156869266084],[-122.411841587099332,41.275086269266183],[-122.411630587099637,41.275009402599608],[-122.411484920433224,41.274965469266363],[-122.411230320433617,41.274910469266445],[-122.41112772043374,41.274904269266472],[-122.411048320433849,41.274899469266472],[-122.410858987100823,41.274926869266437],[-122.410684320434427,41.275014802599628],[-122.410538720434658,41.275064069266193],[-122.410371320434933,41.275152002599384],[-122.410232987101836,41.275151869266097],[-122.4098471871024,41.275102402599487],[-122.409541520436221,41.275074802599534],[-122.409425120436367,41.275074869266177],[-122.409250320436684,41.275113269266114],[-122.40905378710363,41.275223002599319],[-122.40889372043722,41.275310869265809],[-122.408478787104514,41.275442469265613],[-122.40823852043826,41.275502869265551],[-122.408005587105265,41.275546669265452],[-122.407932787105381,41.27555220259876],[-122.407823587105554,41.27555220259876],[-122.407743587105699,41.275524602598807],[-122.407682720439084,41.275487269265568],[-122.407627120439201,41.275453202598953],[-122.407452520439449,41.275327002599113],[-122.407321520439666,41.275222602599285],[-122.407117787106642,41.275118069266114],[-122.406957587106888,41.275068669266204],[-122.406732120440552,41.274991802599629],[-122.406280920441247,41.274766469266694],[-122.405800720442016,41.274469869267136],[-122.40531312044277,41.274189669267571],[-122.404920320443409,41.27396440260128],[-122.404672720443784,41.27386546926806],[-122.404541720444001,41.273805069268178],[-122.404493253777389,41.273791135934857],[-122.404388920444205,41.273761069268232],[-122.404185120444538,41.273744602601596],[-122.403988587111485,41.273755469268224],[-122.403857520445058,41.273739002601587],[-122.403784787111817,41.273717069268287],[-122.403646587112007,41.273656602601704],[-122.403471920445611,41.273596202601823],[-122.40320258711273,41.273563202601849],[-122.403006120446378,41.273541202601905],[-122.402831520446625,41.273535669268597],[-122.402620387113643,41.273508069268644],[-122.402387520447292,41.273442069268754],[-122.402296320447476,41.273417802602125],[-122.402140120447712,41.273376202602151],[-122.401870787114774,41.273304669268953],[-122.401754320448276,41.27329366926898],[-122.401616120448523,41.273277069269]]]}},
{"type":"Feature","properties":{"GNIS_Name":"South Fork Sacramento River"},"geometry":{"type":"MultiLineString","coordinates":[[[-122.496583186967769,41.206249336039718],[-122.496927520300574,41.207299402704734],[-122.495843120302254,41.207961669370377],[-122.495450586969525,41.20811006937015],[-122.494767320303936,41.208324602703158],[-122.494367520304536,41.208440269369646],[-122.493894986971952,41.208643669369337],[-122.493633386972363,41.208808469369046],[-122.493415386972686,41.208912869368874],[-122.493022920306657,41.209061402701991],[-122.492666586973826,41.209237269368373],[-122.492412186974263,41.209396602701474],[-122.492077786974789,41.209567002701192],[-122.491619986975479,41.209814269367484],[-122.491096520309611,41.210006669367203],[-122.490616920310345,41.210309002700058],[-122.490209986977675,41.210567202699679],[-122.489860986978215,41.210770469366025],[-122.489163386979271,41.211226802698661],[-122.488807186979841,41.211528869364827],[-122.488407586980486,41.211864002697666],[-122.488000586981116,41.212149802697184],[-122.487542720315162,41.212457402696714],[-122.487193720315702,41.212671669363033],[-122.486830320316244,41.212886069362753],[-122.486394186983603,41.213144269362317],[-122.485965386984276,41.213430002695191],[-122.485594586984803,41.213677269361483],[-122.485238520318717,41.213908069361139],[-122.484678720319607,41.214177402694077],[-122.484017320320618,41.214556469360105],[-122.483998586987298,41.214568136026799],[-122.483406720321568,41.214935669359534],[-122.482985120322212,41.215199402692463],[-122.482636186989396,41.215397269358846],[-122.482185520323469,41.215639002691773],[-122.481821986990667,41.215809402691548],[-122.481538386991133,41.215919269358039],[-122.481305720324826,41.216018202691203],[-122.480731520325719,41.216282002690775],[-122.48038972032623,41.216430469357249],[-122.480098920326668,41.216617269356959],[-122.48000065366017,41.216673002690186],[-122.479808186993807,41.216782202690013],[-122.479408386994407,41.217007469356304],[-122.479095720328246,41.217183202689398],[-122.47867412032889,41.217468869355628],[-122.478216186996292,41.21776020268851],[-122.477859986996862,41.217957869354848],[-122.477438320330805,41.218188602687803],[-122.47700932033149,41.218386469354186],[-122.476696720331972,41.218501869353986],[-122.476398520332452,41.218595402687185],[-122.476005786999735,41.218710802687042],[-122.475613187000306,41.218815269353513],[-122.47538778700067,41.218886802686768],[-122.474929720334728,41.218952869353302],[-122.474566120335282,41.219073802686466],[-122.474318920335691,41.219189202686266],[-122.474086320336028,41.219282602686121],[-122.473860920336392,41.219348469352667],[-122.473439120337048,41.219436602685903],[-122.472697520338158,41.219711269352103],[-122.471933987006025,41.220106869351525],[-122.471497920340028,41.220326669351152],[-122.471408787006851,41.220367936017794],[-122.471046987007412,41.220535469350864],[-122.470647120341368,41.220705802683938],[-122.470218120342054,41.220909069350284],[-122.469927120342504,41.221024469350084],[-122.469367187009993,41.221189469349838],[-122.468465587011394,41.221403802682858],[-122.467869320345699,41.221590669349212],[-122.467491187012911,41.22176646934895],[-122.467069520346911,41.222008202681877],[-122.466785920347377,41.222145469348334],[-122.466400520347975,41.222288402681443],[-122.465913320348704,41.222458669347873],[-122.465433387016105,41.222634602680898],[-122.465149787016571,41.222744469347447],[-122.4646989203506,41.222859869347246],[-122.464386187017737,41.222931269347157],[-122.463898987018524,41.222953402680446],[-122.463404387019295,41.223112802680191],[-122.463011587019878,41.223228269346691],[-122.462706320353675,41.22330520267991],[-122.462451787020768,41.223354669346463],[-122.462175387021205,41.223404202679717],[-122.461855387021672,41.223497469346228],[-122.461455387022284,41.223591002679427],[-122.460837187023287,41.2237394026792],[-122.460488320357115,41.223871202678993],[-122.460262787024135,41.223992069345513],[-122.460000987024557,41.224112869345277],[-122.459717387025023,41.224277669345042],[-122.459441120358747,41.224415002678143],[-122.459164720359183,41.224541402677971],[-122.458888520359608,41.224678669344428],[-122.458553920360146,41.224887469344083],[-122.458364787027108,41.22502480267724],[-122.458066720360875,41.225162069343696],[-122.457484987028465,41.225409269343288],[-122.457077587029119,41.225574069343054],[-122.456801320362842,41.225689469342853],[-122.456524987029979,41.225804802676009],[-122.456219520363788,41.225953202675782],[-122.455877587030955,41.22611240267554],[-122.455375920365043,41.226365069341796],[-122.45510678703215,41.226513402674925],[-122.454626920366252,41.226749602674545],[-122.454263320366806,41.226925269340938],[-122.453935987033958,41.227095602674012],[-122.45360152036784,41.227249402673749],[-122.453426920368088,41.227309869340331],[-122.453216120368438,41.22737026934027],[-122.452968787035445,41.227364802673605],[-122.452750520369136,41.227337402673641],[-122.452532387036172,41.227359402673585],[-122.452357720369776,41.227337469340284],[-122.452154120370096,41.227376002673566],[-122.451470387037773,41.227376002673566],[-122.450990520371874,41.227672602673124],[-122.450735787038923,41.22787580267277],[-122.450706720372295,41.227947202672681],[-122.450706787038996,41.228205269338957],[-122.450684920372339,41.228353469338742],[-122.450415787039447,41.228512802671787],[-122.450088587039943,41.228705002671518],[-122.449724987040497,41.228985202671083],[-122.449499587040862,41.229199269337414],[-122.4491869203747,41.22952326933688],[-122.449012387041591,41.229803402669802],[-122.448866920375167,41.230023002669441],[-122.448735987042028,41.230303002669018],[-122.448605120375589,41.230456869335455],[-122.448343320376011,41.230671069335131],[-122.448095987043018,41.230846802668168],[-122.447855987043397,41.231000602667962],[-122.447637787043732,41.231121469334425],[-122.447281387044313,41.231302669334127],[-122.447034187044665,41.231434469333919],[-122.446699587045202,41.23162666933365],[-122.446575920378734,41.23174740266677],[-122.446553987045434,41.232033002666356],[-122.446474120378866,41.232362469332486],[-122.446284987045829,41.232543669332188],[-122.446059387046205,41.232648069332072],[-122.445652120380146,41.232840202665102],[-122.445259387047429,41.233027002664812],[-122.444888520381369,41.233230269331159],[-122.444655720381718,41.23334006933095],[-122.444321120382256,41.233521269330708],[-122.444008387049394,41.233702602663755],[-122.4437391870498,41.233883802663456],[-122.443455587050266,41.234108869329759],[-122.443288187050484,41.234224202662915],[-122.443070120384164,41.234356002662707],[-122.442837187051225,41.2344878026625],[-122.442669987051431,41.23459206932904],[-122.442189920385545,41.234905069328534],[-122.441724387052943,41.235196202661427],[-122.441615320386404,41.235317002661247],[-122.441607987053089,41.235503669327613],[-122.441520587053219,41.235723269327252],[-122.441375120386795,41.235904602660355],[-122.441113187053872,41.236124269326638],[-122.441000253720745,41.236204535993181],[-122.44086592038758,41.236300002659732],[-122.440582187054702,41.236398869326251],[-122.440233120388598,41.236558069326009],[-122.439869387055808,41.236728269325738],[-122.439440187056448,41.236948002658721],[-122.439083787057029,41.23715106932508],[-122.438807320390765,41.237332269324781],[-122.438698320390984,41.237513469324483],[-122.4385891203911,41.237815469324005],[-122.438487320391289,41.238194469323446],[-122.438341787058164,41.238353602656503],[-122.438108987058513,41.238562402656214],[-122.437867720392262,41.238737202655955],[-122.437563387059413,41.238957669322247],[-122.437374187059675,41.239117002655348],[-122.437235987059921,41.239287202655078],[-122.437206187059928,41.23933026932167],[-122.437068720393484,41.239528869321362],[-122.436835787060488,41.23983080265424],[-122.43662478706085,41.240154802653706],[-122.436413787061156,41.240467802653257],[-122.436195587061491,41.240731402652841],[-122.435933720395269,41.240841202652689],[-122.435820587062096,41.240861269319282],[-122.435438987062696,41.240929002652535],[-122.435016987063364,41.240983869319109],[-122.434740587063743,41.24100580265241],[-122.434631520397261,41.241115669318901],[-122.434621853730619,41.241135335985518],[-122.43453692039742,41.241307869318632],[-122.434500520397478,41.241598869318182],[-122.434405987064281,41.241752602651275],[-122.434267720397827,41.241906402651011],[-122.433692987065399,41.242241402650507],[-122.433307320399308,41.24246646931681],[-122.432972720399846,41.242691602649813],[-122.432616187067083,41.242971669316034],[-122.432419720400731,41.243163869315708],[-122.432310587067548,41.243317602648801],[-122.43218692040108,41.243449269315306],[-122.431939387068098,41.243669002648289],[-122.43183038706826,41.243789802648109],[-122.431582920401979,41.244042402647722],[-122.431437387068911,41.244185069314142],[-122.431073587069477,41.244492602646972],[-122.430833587069856,41.244690202646666],[-122.430709787070043,41.24484400264646],[-122.43044058707045,41.245118602646016],[-122.430251387070712,41.245305269312382],[-122.430033187071047,41.245453602645512],[-122.429749320404824,41.245590802645268],[-122.429392920405405,41.245837869311572],[-122.42908732040587,41.245980602644693],[-122.428810920406306,41.245980602644693],[-122.428679453739846,41.246032802644606],[-122.428534320406754,41.246090402644541],[-122.428112387074066,41.246304469310871],[-122.427777587074559,41.246480202643909],[-122.427544920408252,41.246606469310393],[-122.427333120408605,41.246761135976783],[-122.427319320408628,41.246771202643458],[-122.427159120408874,41.246919402643243],[-122.427071787075647,41.247062202643008],[-122.427013587075749,41.247155469309519],[-122.426984387075834,41.247314669309276],[-122.427006120409089,41.247517869308979],[-122.427129787075557,41.247677069308736],[-122.427347987075223,41.247896802641719],[-122.427350253741906,41.247899335975035],[-122.42758072040823,41.24815500264134],[-122.427748120407955,41.248352669307678],[-122.427835387074481,41.248517469307444],[-122.427820720407851,41.248731602640419],[-122.427689787074712,41.248879802640204],[-122.427486120408332,41.249072002639878],[-122.427267720408679,41.249203669306326],[-122.427158720408841,41.249253202639636],[-122.427042187075699,41.249253069306292],[-122.426612920409696,41.249203669306326],[-122.426365587076759,41.249176202639717],[-122.426161920410436,41.249159669306437],[-122.425943587077427,41.249203602639682],[-122.425770187077717,41.249287269306251],[-122.42576172041106,41.249291402639528],[-122.425557920411336,41.249428669305985],[-122.425368720411655,41.249609869305743],[-122.425179587078617,41.249769069305501],[-122.425151787078676,41.249873602638672],[-122.425115387078733,41.249939469305218],[-122.425086187078762,41.2499998693051],[-122.424991587078921,41.250115202638256],[-122.424882520412382,41.250235869304731],[-122.42476598707924,41.250439069304434],[-122.42460592041283,41.250702669304019],[-122.42451858707966,41.250900269303713],[-122.424423920413119,41.251010069303561],[-122.424314787079936,41.251191402636607],[-122.424212920413424,41.251389002636301],[-122.424125520413554,41.251542669302694],[-122.423994520413771,41.251696402635844],[-122.423703387080877,41.251993002635345],[-122.423506920414525,41.252201602635012],[-122.423397787081399,41.252322402634832],[-122.423268987081599,41.252487469301229],[-122.423252187081573,41.252509002634554],[-122.42316125374839,41.252669069300964],[-122.423142987081746,41.252701202634285],[-122.423092120415163,41.252844069300693],[-122.423041120415235,41.252981269300506],[-122.422960987082035,41.253102202633613],[-122.422917387082123,41.25314060263355],[-122.422829987082253,41.253190002633517],[-122.42272092041577,41.253288802633335],[-122.422560720416016,41.253409602633155],[-122.422371520416277,41.253519402633003],[-122.42224792041651,41.253601669299542],[-122.422189720416554,41.25367860263276],[-122.42216778708331,41.253766469299251],[-122.422145920416654,41.253887202632427],[-122.422143987083302,41.253915069299012],[-122.422138720416683,41.253991602632254],[-122.422094987083369,41.254062869298821],[-122.422043987083498,41.254128869298711],[-122.422007587083556,41.25424960263183],[-122.421963920416943,41.254337469298378],[-122.421934787083671,41.254375869298315],[-122.421862120417074,41.254403402631624],[-122.421803787083832,41.254414402631596],[-122.421672787084049,41.254463669298161],[-122.42147638708434,41.254529602631408],[-122.421323387084612,41.254611869297946],[-122.421214187084786,41.254705202631158],[-122.421105120418247,41.254793069297705],[-122.420966787085149,41.254930402630805],[-122.420835787085366,41.255040069297308],[-122.420668387085584,41.255188402630381],[-122.42053012041913,41.255276202630284],[-122.420377320419391,41.25535860263011],[-122.420158987086381,41.255418869296705],[-122.420020787086628,41.255440869296649],[-122.419860587086873,41.255451802629977],[-122.419715120420449,41.255440802630005],[-122.41945318708747,41.255407869296732],[-122.419132987088005,41.255374802630115],[-122.418696387088687,41.255330802630169],[-122.418361720422524,41.255330802630169],[-122.418019720423047,41.255374669296771],[-122.417481320423917,41.255435002630009],[-122.417059187091184,41.255506269296575],[-122.416731720425048,41.255566602629813],[-122.41665085375854,41.25558626929643],[-122.416506320425412,41.255621469296386],[-122.416331587092316,41.255692869296297],[-122.416164187092591,41.255802602629444],[-122.41600412042618,41.255917869295956],[-122.415938520426266,41.255972802629174],[-122.415824987093117,41.256021202629086],[-122.415771120426541,41.256044202629084],[-122.41566932042673,41.256082602629021],[-122.415516387093589,41.25618140262884],[-122.415334520427223,41.25630220262866],[-122.41520352042744,41.256401002628536],[-122.415108787094255,41.256521802628299],[-122.415065187094285,41.256730469294666],[-122.415108720427554,41.256851202627843],[-122.41518878709411,41.256966469294298],[-122.415304987093918,41.257164202627337],[-122.415348720427176,41.257290602627108],[-122.415334120427246,41.257504669293496],[-122.415268587093976,41.257653069293212],[-122.415202987094119,41.257724402626479],[-122.415086587094265,41.257806669293018],[-122.414904720427899,41.257916469292809],[-122.414722587094843,41.258064669292594],[-122.414562520428433,41.258278869292269],[-122.414475120428563,41.258399669292089],[-122.414322320428766,41.258569802625175],[-122.414154787095697,41.258773002624821],[-122.413936387096044,41.259069402624391],[-122.413720920429739,41.259320135957296],[-122.413681587096448,41.259365869290605],[-122.413448720430154,41.259640402623461],[-122.413186587097243,41.259942269289695],[-122.412946320430933,41.260255269289189],[-122.412757120431195,41.260502269288793],[-122.412596787098153,41.260645069288614],[-122.412436720431742,41.260754869288405],[-122.412363920431858,41.260765869288377],[-122.411970920432452,41.260760269288426],[-122.411679920432903,41.260793202621699],[-122.41146872043322,41.260815069288356],[-122.41133058710011,41.260820469288319],[-122.411199520433627,41.260831402621648],[-122.411010320433945,41.260804002621683],[-122.410682920434454,41.260749002621765],[-122.410333587101661,41.260743402621756],[-122.410049787102082,41.260770802621721],[-122.409860587102401,41.260809202621658],[-122.40970052043599,41.260836669288324],[-122.409540387102879,41.260891469288197],[-122.409445720436338,41.260968402621415],[-122.409343787103182,41.261094602621256],[-122.409234587103356,41.261259269287621],[-122.409125320436885,41.261489869287288],[-122.409008787103687,41.261764402620202],[-122.408884987103875,41.261808402620147],[-122.408746787104121,41.261868669286685],[-122.408644787104265,41.261956602619875],[-122.408571987104381,41.26201686928647],[-122.408462787104554,41.262049869286386],[-122.408382787104699,41.262093802619688],[-122.408193520438317,41.262170469286218],[-122.40798972043865,41.26228040261941],[-122.407793187105597,41.262401069285886],[-122.407560187105958,41.262521869285706],[-122.407400187106191,41.262626202618833],[-122.407349187106263,41.262747002618653],[-122.407349120439619,41.262972069284956],[-122.407399787106215,41.263164269284687],[-122.407406987106185,41.263345469284388],[-122.40747978710607,41.263444269284264],[-122.407515787106036,41.263487269284155],[-122.407567120439296,41.263548669284091],[-122.407610587105864,41.263642069283947],[-122.407625120439207,41.26391660261686],[-122.407559520439293,41.264202069283044],[-122.407472120439422,41.264399802616083],[-122.407370120439566,41.264592002615814],[-122.407253587106425,41.264745669282206],[-122.407173520439869,41.264784069282143],[-122.40702072044013,41.264866469282026],[-122.406906787106948,41.264948002615256],[-122.406729387107248,41.265075002615049],[-122.406241787108002,41.26536040261459],[-122.406030587108319,41.265492202614382],[-122.40581952044198,41.265689802614077],[-122.405702987108839,41.265832469280554],[-122.405679653775564,41.265887069280438],[-122.405637387108925,41.265986202613647],[-122.405549920442411,41.26617840261332],[-122.40554272044244,41.266293669279833],[-122.405549787109067,41.26646940261287],[-122.405564320442409,41.266606669279327],[-122.405527787109122,41.266815269278993],[-122.405418587109295,41.267062402611941],[-122.40525112044287,41.267298402611573],[-122.405021653776544,41.267563602611176],[-122.404923387110045,41.267677202611026],[-122.404712187110363,41.267951802610582],[-122.404697520443733,41.268045069277093],[-122.404704787110404,41.26823180261016],[-122.404711787110386,41.268599669276227],[-122.404682587110415,41.26875340260932],[-122.404638987110502,41.26885226927584],[-122.40451518711069,41.269038869275562],[-122.404223720444463,41.269406669274986],[-122.404171587111193,41.269463869274887],[-122.403968787111523,41.269686669274563],[-122.403879720444991,41.269796602607698],[-122.403808720445113,41.269884269274257],[-122.403633920445372,41.270081869273952],[-122.403415387112375,41.270301469273591],[-122.403306120445905,41.270466202606656],[-122.403255120445976,41.270652869273079],[-122.403225920446005,41.270867002606053],[-122.40320392044606,41.271086669272393],[-122.40318918711273,41.271306269272031],[-122.403203720446072,41.27155340260498],[-122.403203520446027,41.271806002604592],[-122.403174387112756,41.271965202604349],[-122.403130720446143,41.272086002604169],[-122.403065120446286,41.272195802604017],[-122.402992187113057,41.272261602603919],[-122.402868520446589,41.272327602603809],[-122.402773787113404,41.272360602603726],[-122.402671920446892,41.272404469270327],[-122.402511720447137,41.272464802603565],[-122.402395320447283,41.272503202603502],[-122.402293387114128,41.27254160260344],[-122.402235120447529,41.272618469270014],[-122.402140387114343,41.272739202603134],[-122.402067587114459,41.272849002602982],[-122.40198752044796,41.272942402602837],[-122.401899987114746,41.273041202602712],[-122.401754387114977,41.273156402602524],[-122.401616120448523,41.273277069269],[-122.40155778711528,41.27329360260228],[-122.401434120448812,41.273392402602155],[-122.401171987115845,41.273529669268612],[-122.400844320449721,41.273628402601787],[-122.400531387116871,41.273760069268235],[-122.400371187117116,41.273869802601382],[-122.400189120450705,41.274040002601112],[-122.400072587117563,41.274127802601015],[-122.399905120451194,41.274259469267463],[-122.399766720451396,41.274336402600682],[-122.399592120451643,41.274407669267248],[-122.39928632045212,41.274555802600332],[-122.398973320452626,41.274682002600116],[-122.398791320452915,41.274747869266719],[-122.39863112045316,41.274780669266647],[-122.39840552045348,41.27481360259992],[-122.398350520453562,41.274820535933259],[-122.39814338712057,41.274846469266549],[-122.397997787120801,41.274895802599815],[-122.397844920454361,41.274972602599689],[-122.397728387121219,41.275055002599572],[-122.397553587121479,41.275175669266048],[-122.397276987121927,41.275367802599078],[-122.396956587122418,41.275576402598745],[-122.396665187122892,41.275773869265095],[-122.396279320456813,41.276070269264665],[-122.396009920457232,41.276284402597639],[-122.395907987124019,41.276344669264233],[-122.395754987124292,41.27643246926408],[-122.395594787124537,41.276591669263837],[-122.395470787124736,41.27674540259693],[-122.395383387124866,41.276882602596743],[-122.39536878712488,41.276921069263324],[-122.395237720458397,41.27722320259619],[-122.395069920458695,41.27760746926225],[-122.394989787125496,41.277695202595453],[-122.394895187125599,41.277783069262],[-122.394800520459114,41.277832469261909],[-122.394705787125929,41.277843402595238],[-122.394545720459519,41.277859802595231],[-122.39433458712648,41.277887202595139],[-122.394094320460169,41.277909002595152],[-122.393774120460705,41.27793640259506],[-122.393737720460763,41.27794180259508],[-122.393482987127811,41.27797466926171],[-122.393477387127803,41.277976469261716],[-122.393344720461357,41.278018602594955],[-122.393191587128285,41.278100869261493],[-122.39304598712846,41.278199669261369],[-122.392827587128806,41.278347869261097],[-122.39260912046251,41.27848506926091],[-122.39239798712947,41.278589269260749],[-122.392062987130032,41.278775869260471],[-122.391567787130782,41.279055669260003],[-122.391311787131201,41.279191535926486],[-122.391050787131576,41.279330069259572],[-122.390730387132066,41.279516602592651],[-122.390519187132384,41.279664802592379],[-122.390424520465899,41.279796469258883],[-122.39035158713267,41.279895269258702],[-122.390278787132786,41.279944669258612],[-122.390118720466376,41.280032469258515],[-122.389965787133292,41.28007640259176],[-122.389812787133508,41.280142202591662],[-122.389579720467225,41.280251869258166],[-122.389375987134201,41.280334202591348],[-122.389193787134445,41.280443869257851],[-122.389084587134619,41.280515269257762],[-122.388960787134806,41.280603069257609],[-122.388778787135095,41.280668869257511],[-122.388552987135483,41.280778602590658],[-122.388261720469245,41.280926802590443],[-122.388028720469606,41.281058402590247],[-122.387824787136594,41.28123400258994],[-122.38756252047034,41.281442602589664],[-122.38732232047073,41.281634669255993],[-122.387140120470974,41.28179386925575],[-122.387023587137833,41.281843269255717],[-122.386848920471436,41.281881602588953],[-122.386688787138326,41.281903602588955],[-122.386557720471899,41.281936469255527],[-122.386404787138815,41.28195286925552],[-122.386317320472244,41.281936402588883],[-122.386164387139161,41.281958202588839],[-122.386040720472693,41.282007602588749],[-122.385954587139508,41.282057469255335],[-122.385945987139507,41.282062469255322],[-122.385814920473024,41.282161202588554],[-122.385705587139853,41.282265469255037],[-122.385545587140143,41.282385469254848],[-122.385402720473678,41.282458802588053],[-122.385305387140477,41.282498135921344],[-122.385246920473946,41.282521802587951],[-122.385159387140732,41.282545269254626],[-122.384904587141136,41.282567069254583],[-122.384678987141456,41.282594469254548],[-122.38450432047506,41.282610869254484],[-122.384416920475189,41.282660269254393],[-122.384307587142075,41.282720669254331],[-122.384183787142263,41.282813869254198],[-122.384045387142464,41.28287426925408],[-122.383834320476126,41.282934602587318],[-122.383659520476385,41.282967402587303],[-122.383470187143359,41.28300580258724],[-122.383462253810023,41.283008802587233],[-122.383368187143503,41.283044069253833],[-122.383229920477049,41.28313186925368],[-122.383098787143922,41.283269202586837],[-122.382967587144151,41.283384402586648],[-122.382807387144396,41.28354906925307],[-122.382632387144668,41.283752202586072],[-122.382362987145086,41.283971669252367],[-122.382035187145561,41.284224002585347],[-122.381743787146036,41.284427069251706],[-122.381539920479668,41.284520269251516],[-122.38140158714657,41.284553202584789],[-122.381277787146757,41.284553202584789],[-122.381044920480463,41.284575002584802],[-122.380819120480794,41.284607802584731],[-122.380695387147682,41.284673669251276]]]}},
{"type":"Feature","properties":{"GNIS_Name":"North Fork Sacramento River"},"geometry":{"type":"MultiLineString","coordinates":[[[-122.478493520329209,41.300845602559548],[-122.478289586996198,41.300895002559457],[-122.477954720330047,41.30092260255941],[-122.477692520330436,41.300933802559371],[-122.477445120330799,41.300972269226008],[-122.477197386997886,41.301021802559262],[-122.477117320331331,41.301071202559172],[-122.477051720331417,41.301087669225808],[-122.47693532033162,41.30113160255911],[-122.476920786998278,41.301153602559054],[-122.476745986998594,41.301219602558945],[-122.47654218699887,41.301280002558826],[-122.476272720332645,41.301351469225381],[-122.475959720333094,41.301417469225328],[-122.475697720333528,41.301538402558435],[-122.475442920333933,41.301697669224893],[-122.475209987000937,41.301818602558001],[-122.474896987001443,41.301972402557794],[-122.474649387001818,41.30208240255763],[-122.474525920335338,41.302129002557535],[-122.474343720335639,41.30219780255743],[-122.474052520336102,41.302236269224011],[-122.473812120336447,41.302236269224011],[-122.473557320336852,41.302230869224047],[-122.473280587003956,41.302192602557454],[-122.473003787004359,41.302148802557497],[-122.472544987005108,41.302072002557622],[-122.472195520338971,41.302028202557665],[-122.471860520339476,41.301989869224428],[-122.471612987006552,41.301967869224427],[-122.471525587006681,41.301957002557799],[-122.471321720340313,41.301962469224463],[-122.470768320341165,41.301940669224507],[-122.470273187008615,41.301929869224523],[-122.46993098700915,41.30194100255784],[-122.469872720342551,41.301924469224502],[-122.469697920342867,41.301919002557838],[-122.469144520343718,41.301908202557854],[-122.468685787011054,41.30194686922448],[-122.468372587011572,41.301969002557769],[-122.468146987011892,41.301985469224405],[-122.467855587012366,41.30198560255775],[-122.467556987012813,41.302013069224358],[-122.46727312034659,41.302029602557695],[-122.467003587013664,41.302040669224311],[-122.466573987014328,41.302090202557622],[-122.46642838701456,41.302079202557593],[-122.466202720348292,41.301996869224411],[-122.465867587015453,41.301898202557879],[-122.465234187016449,41.301783002558068],[-122.464939787016874,41.301746135891449],[-122.464928320350225,41.301744669224774],[-122.464702520350613,41.301706269224837],[-122.464287520351263,41.301629469224963],[-122.463777720352027,41.301596669225034],[-122.46340638701929,41.301596802558379],[-122.462787520353572,41.301640802558268],[-122.462503520354005,41.301684802558214],[-122.462372387020878,41.301695802558186],[-122.462190387021167,41.301701402558194],[-122.461869987021657,41.301712402558167],[-122.46158598702209,41.301756402558112],[-122.461374187022443,41.301820335891364],[-122.461294787022553,41.301844269224659],[-122.461134587022798,41.301904802557885],[-122.460952720356431,41.302009069224368],[-122.460928520356447,41.302021869224347],[-122.460806987023318,41.302086002557587],[-122.46061778702358,41.302201269224099],[-122.460479520357126,41.30228920255729],[-122.460341187024028,41.302344069223864],[-122.460108120357745,41.30240460255709],[-122.459933387024648,41.302448602557035],[-122.459685787025023,41.302509069223618],[-122.459525587025269,41.302542002556891],[-122.459343587025558,41.302564002556835],[-122.459044987026061,41.302575069223508],[-122.458717387026525,41.302569669223544],[-122.458376787027078,41.302581402556825],[-122.458236787027317,41.302586269223468],[-122.458011120360993,41.302597269223497],[-122.457654120361553,41.302619269223442],[-122.457529320361743,41.302634935890069],[-122.457173587028933,41.302679669223323],[-122.456714787029682,41.302712802556641],[-122.45629992036362,41.302767802556559],[-122.455979387030823,41.302778802556531],[-122.455644520364672,41.302833802556449],[-122.455193120365379,41.302916202556332],[-122.454748920366058,41.302998602556158],[-122.454450387033148,41.303059069222741],[-122.454173720366953,41.303141469222624],[-122.453998987033856,41.303201869222562],[-122.453825920367478,41.303248935889144],[-122.45363492036779,41.303300802555725],[-122.453343720368252,41.303383202555608],[-122.453154320368526,41.303421669222189],[-122.452841187035688,41.303460069222126],[-122.452477187036209,41.30350960255538],[-122.452040320370259,41.303614002555207],[-122.451734387037391,41.30367986922181],[-122.451530587037723,41.303773269221665],[-122.451414120371226,41.303877669221492],[-122.451268520371457,41.30405880255455],[-122.451115587038373,41.304267469220861],[-122.450991920371848,41.304509202553845],[-122.450889920372049,41.304673869220267],[-122.450707987038982,41.304877002553269],[-122.450598720372511,41.304959469219796],[-122.450489520372628,41.305003402553098],[-122.450271120372975,41.305091269219588],[-122.449965187040107,41.305184669219443],[-122.449831053706987,41.305230735886028],[-122.449805120373696,41.305239669219361],[-122.449630320374013,41.305239669219361],[-122.449324520374489,41.305228669219389],[-122.449222587041277,41.30520120255278],[-122.44907678704152,41.305228669219389],[-122.448916720375109,41.305294602552635],[-122.448705520375427,41.305377002552518],[-122.448559920375658,41.305415469219099],[-122.448326720376031,41.305448402552372],[-122.448093720376392,41.305454002552381],[-122.447817120376783,41.305426469219071],[-122.447532987043928,41.305382669219171],[-122.447241787044391,41.305366202552534],[-122.446812120378354,41.305366202552534],[-122.446557187045414,41.305366269219178],[-122.446338787045761,41.305415669219087],[-122.446178587046006,41.305498002552326],[-122.445974720379638,41.305596869218846],[-122.445785320379969,41.305679269218672],[-122.445523187047002,41.305822002551793],[-122.445333920380676,41.305964802551557],[-122.445035387047767,41.306201002551234],[-122.444938053714623,41.306267602551088],[-122.444642187048373,41.306470002550782],[-122.44442378704872,41.306607269217238],[-122.444161720382453,41.306739069217031],[-122.443870387049571,41.306909402550104],[-122.443608187050017,41.307052202549869],[-122.443520787050147,41.307151002549745],[-122.443389787050364,41.307304802549481],[-122.443273187050522,41.307431002549322],[-122.443156787050725,41.307540869215813],[-122.442945587051042,41.307727602548823],[-122.442741720384674,41.30786486921528],[-122.442435787051807,41.30805706921501],[-122.442042587052413,41.308293202547986],[-122.441736787052889,41.308403069214478],[-122.441452720386678,41.308513002547613],[-122.44113958705384,41.308639269214098],[-122.440906520387557,41.30872160254728],[-122.44057892038802,41.308798469213855],[-122.440229320388596,41.308875269213729],[-122.439974520389001,41.308902802547038],[-122.43973418705599,41.308952269213592],[-122.439399187056551,41.309029069213466],[-122.439151587056926,41.309078469213432],[-122.4389403203906,41.309100469213377],[-122.438746520390907,41.309119669213374],[-122.438663520391003,41.309127869213341],[-122.43844512039135,41.309149869213286],[-122.438306720391552,41.309160869213315],[-122.438197387058381,41.309160869213315],[-122.438022720391984,41.309128002546686],[-122.437847920392301,41.309034602546831],[-122.437816787058978,41.309019135880192],[-122.437527520392791,41.308875402547073],[-122.437316320393109,41.308699602547335],[-122.437075987060155,41.308480002547697],[-122.436908587060429,41.308254869214693],[-122.436595387060891,41.307832069215351],[-122.436274987061381,41.307442202549282],[-122.435961787061899,41.307145669216425],[-122.435824587062086,41.307000069216656],[-122.435568587062505,41.306728402550391],[-122.435270120396297,41.306442802550862],[-122.4349933870634,41.30619020255125],[-122.434767720397076,41.305976069218218],[-122.434687520397176,41.305877202551699],[-122.43465852039725,41.305838802551762],[-122.434607387063977,41.305789402551852],[-122.434541920397407,41.305729002551971],[-122.43449818706415,41.305696069218641],[-122.434447320397567,41.30565760255206],[-122.43425792039784,41.305553269218876],[-122.4340831870648,41.305454402552357],[-122.433711920398707,41.305333602552537],[-122.433449587065752,41.305212802552774],[-122.433100120399672,41.3051798025528],[-122.432838120400049,41.305152402552835],[-122.432291920400928,41.305152269219491],[-122.43198598706806,41.305152269219491],[-122.431947920401456,41.305149669219531],[-122.43182592040165,41.305141402552863],[-122.431709320401808,41.305102869219581],[-122.431549187068697,41.305064402553],[-122.43141812040227,41.305042402552999],[-122.431345187069041,41.305042402552999],[-122.431228787069244,41.305053469219672],[-122.43107578706946,41.305086402552945],[-122.430937520403006,41.30511380255291],[-122.430842720403177,41.305130269219546],[-122.430755387069951,41.305141269219519],[-122.430624320403467,41.305124802552882],[-122.43033312040393,41.305080869219637],[-122.430012587071133,41.305053469219672],[-122.429910720404621,41.305064402553],[-122.429830587071365,41.305075402552973],[-122.429721387071538,41.305064402553],[-122.429612187071712,41.305053402552971],[-122.429328187072144,41.305042402552999],[-122.429014987072662,41.305036869219691],[-122.428854920406252,41.30504780255302],[-122.428636387073254,41.305102802552938],[-122.4283959870736,41.305152069219503],[-122.427929920407678,41.30525646921933],[-122.427696787074694,41.305355269219206],[-122.427485720408356,41.305443069219052],[-122.427318187075286,41.305498002552326],[-122.427157987075532,41.305525469218935],[-122.426997787075777,41.305569269218836],[-122.426917587075934,41.305624269218754],[-122.426793787076122,41.30573960255191],[-122.42669192040961,41.305838402551785],[-122.426626320409696,41.305882269218387],[-122.426458787076626,41.305942602551625],[-122.426269520410244,41.305992069218178],[-122.426080120410518,41.306063402551445],[-122.425985387077333,41.306151269217935],[-122.425876187077506,41.306255602551118],[-122.425796120411007,41.306326869217685],[-122.42566498707788,41.306387402550911],[-122.425402787078269,41.306491669217451],[-122.425104187078716,41.306601469217242],[-122.424885787079063,41.306716802550397],[-122.424849387079121,41.306793602550272],[-122.424841987079105,41.306947402550065],[-122.424790987079234,41.307029669216604],[-122.424754587079292,41.307073602549849],[-122.424696320412693,41.30709560254985],[-122.424601720412852,41.307139469216452],[-122.424441387079753,41.307216402549614],[-122.424252120413371,41.307320669216153],[-122.42405538708033,41.307457869215909],[-122.423858720413989,41.307644602548976],[-122.423764187080792,41.307694002548885],[-122.423705787080905,41.307726869215514],[-122.423589320414408,41.307727002548859],[-122.423436387081324,41.307748869215459],[-122.423123187081785,41.30777620254878],[-122.42271552041575,41.307847602548634],[-122.422540587082722,41.307886002548571],[-122.42235132041634,41.307940869215201],[-122.422300320416412,41.307951869215174],[-122.422096520416744,41.307979402548426],[-122.421826987083818,41.307968402548454],[-122.421266187084655,41.308023202548384],[-122.420916720418575,41.308056069215013],[-122.420632587085663,41.308083469214978],[-122.420355920419411,41.308132869214887],[-122.420108320419786,41.308204269214798],[-122.419846120420232,41.308281069214672],[-122.419656720420505,41.30834140254791],[-122.419496587087451,41.308407269214456],[-122.41931452042104,41.308489602547638],[-122.419132387087984,41.308555469214241],[-122.419015787088199,41.308599402547486],[-122.418906520421672,41.308626869214095],[-122.418797320421845,41.308632269214115],[-122.418717187088646,41.308632269214115],[-122.418607987088819,41.308626802547451],[-122.418411320422422,41.308599402547486],[-122.418229187089423,41.308577402547542],[-122.418061787089641,41.308582802547505],[-122.417836120423317,41.308604669214162],[-122.417551987090462,41.308632069214127],[-122.417333520424108,41.308643069214099],[-122.417279120424212,41.30864760254741],[-122.417202520424325,41.308654002547428],[-122.417129720424441,41.308659469214092],[-122.417042187091226,41.308659402547391],[-122.416860120424872,41.308610069214126],[-122.416576187091948,41.308511202547606],[-122.416124787092656,41.308324402547896],[-122.415746187093248,41.308203469214789],[-122.41545492042701,41.308115469214897],[-122.415221987094071,41.308049669214995],[-122.41495978709446,41.308005602548405],[-122.414799587094706,41.307978202548441],[-122.414690320428235,41.30796166921516],[-122.414610320428324,41.307934202548552],[-122.414566520428423,41.30791220254855],[-122.414508320428524,41.307846269215304],[-122.414449987095281,41.307736469215513],[-122.414399187095341,41.307643069215658],[-122.414377320428684,41.307571669215747],[-122.414289987095515,41.307478269215892],[-122.414107920429103,41.307319069216135],[-122.413976987096021,41.307231202549588],[-122.413882387096123,41.307165269216398],[-122.413787720429639,41.307088402549823],[-122.413692987096454,41.306912669216786],[-122.413547587096673,41.306693002550446],[-122.413358187096946,41.306385469217616],[-122.413285520430406,41.306226202551159],[-122.413234587097122,41.306077869218086],[-122.413205520430552,41.306001069218212],[-122.413161920430582,41.305902202551692],[-122.413045320430797,41.305814269218502],[-122.4129507870976,41.305732002551963],[-122.412899787097672,41.305660469218708],[-122.412848787097744,41.305605602552134],[-122.412852587097746,41.305580202552164],[-122.412870787097688,41.305457402552349],[-122.412856320431047,41.305303602552613],[-122.412819920431104,41.305155269219483],[-122.412688920431322,41.304880802553271],[-122.41258712043151,41.304655669220267],[-122.412485120431654,41.304479869220529],[-122.412397787098428,41.304359069220766],[-122.412303187098587,41.304254669220882],[-122.41227418709866,41.304161269221026],[-122.412288787098589,41.304024069221271],[-122.412310587098602,41.30381000255494],[-122.412332587098547,41.303667202555175],[-122.412339987098562,41.303551869222019],[-122.412296320431949,41.303398069222226],[-122.412230920432023,41.303277269222406],[-122.412128920432224,41.30316200255595],[-122.412012387099026,41.30307406922276],[-122.411895920432585,41.302986202556212],[-122.4118231204327,41.302909269222994],[-122.411764987099446,41.302837869223083],[-122.411750520432804,41.302794002556482],[-122.411815987099374,41.30261280255678],[-122.411852520432603,41.302442602557051],[-122.411874320432617,41.302343802557175],[-122.411837987099318,41.302255869223984],[-122.411728787099491,41.302157002557465],[-122.411495920433197,41.302003269224372],[-122.411284787100158,41.301882402557908],[-122.411117320433789,41.301816469224661],[-122.41099358710062,41.301734069224835],[-122.410811520434265,41.301563802558405],[-122.410520520434716,41.30134960255873],[-122.410454987101446,41.301313735892109],[-122.410229187101834,41.301190269225685],[-122.409974387102181,41.301080402559137],[-122.409747320435883,41.301015069225912],[-122.409668720436002,41.300992469225946],[-122.409384720436435,41.300915469226084],[-122.409217187103366,41.300877069226146],[-122.40904978710364,41.300866002559474],[-122.408780387104059,41.300893402559439],[-122.408510987104478,41.300953802559377],[-122.408430787104578,41.300959202559341],[-122.408343387104765,41.300964802559349],[-122.408256120438182,41.300882402559466],[-122.408059587105186,41.300668202559791],[-122.407899387105431,41.300574802559936],[-122.407688187105748,41.300492402560053],[-122.407455187106109,41.300448402560164],[-122.407376253772895,41.300434335893499],[-122.407207720439828,41.300404402560218],[-122.40706212044006,41.300371402560245],[-122.406931120440277,41.300327469227],[-122.406821787107106,41.300256002560445],[-122.406690920440667,41.30015720256057],[-122.406465187107642,41.299882469227668],[-122.406348920441189,41.299739802561248],[-122.406225120441377,41.299624402561449],[-122.406064987108266,41.299536469228201],[-122.405904787108511,41.299421069228401],[-122.405773920442073,41.299316802561918],[-122.405657387108931,41.299184869228782],[-122.405533587109119,41.299102602562243],[-122.405417120442621,41.299036669228997],[-122.405264320442825,41.298970669229107],[-122.405118720443056,41.298904802562561],[-122.404958520443301,41.298860802562615],[-122.404863920443461,41.298811269229361],[-122.404740187110349,41.298734469229487],[-122.404572720443923,41.298580669229693],[-122.404441787110784,41.298509202563139],[-122.404099587111318,41.298388269230031],[-122.403932120444892,41.298333269230113],[-122.403859387111709,41.298256469230239],[-122.403772120445183,41.298185069230328],[-122.40367018711197,41.297992802563954],[-122.403466387112303,41.29776766923095],[-122.403313720445908,41.297570002564612],[-122.403146387112827,41.297300869231719],[-122.402942720446447,41.297009802565469],[-122.402804387113349,41.296740602565876],[-122.402666320446883,41.296477002566292],[-122.402571720447042,41.296284869233261],[-122.402513520447144,41.296169469233462],[-122.402455320447189,41.296048669233642],[-122.402266120447507,41.295872869233904],[-122.402091520447755,41.295719069234167],[-122.401967920447987,41.295565402567718],[-122.401851387114789,41.295422469234609],[-122.401785920448276,41.295285269234853],[-122.401698720448394,41.295169869234996],[-122.401560387115296,41.295049069235176],[-122.4014075871155,41.294900669235403],[-122.401305587115644,41.294747002569011],[-122.401225720449133,41.294571202569273],[-122.401174787115849,41.294400869236199],[-122.401102120449309,41.294236269236478],[-122.400978387116197,41.294087869236705],[-122.400840187116387,41.293950602570249],[-122.400716520449919,41.29382426923712],[-122.400563587116835,41.293698002570636],[-122.400432587116995,41.293648469237382],[-122.400221587117358,41.293577002570828],[-122.400032320450975,41.293511069237582],[-122.399770320451353,41.293351669237836],[-122.399581120451671,41.293208869238072],[-122.399420987118617,41.293110002571552],[-122.399326320452076,41.293044069238306],[-122.399202587118907,41.292934202571814],[-122.399049920452512,41.292714469238831],[-122.3989699204526,41.292566269239046],[-122.398918987119373,41.29242900257259],[-122.39887532045276,41.292341069239399],[-122.398817187119505,41.292264202572824],[-122.398737120453006,41.292220269239579],[-122.398627987119824,41.292159802572996],[-122.398518920453341,41.292000469239952],[-122.398417120453473,41.291742402573675],[-122.39830078712032,41.291451269240781],[-122.398213587120438,41.291248202574423],[-122.398169920453881,41.291154802574567],[-122.398097187120641,41.291072402574684],[-122.397995320454129,41.291023002574775],[-122.39791518712093,41.290957002574885],[-122.397856987121031,41.290869202575038],[-122.397762520454478,41.290649469241998],[-122.397697120454609,41.290484669242289],[-122.397602587121412,41.290380402575749],[-122.397333320455175,41.290166069242787],[-122.397020387122325,41.289902402576502],[-122.396787387122686,41.289693802576835],[-122.396540120456393,41.289490469243844],[-122.396365520456641,41.289292802577449],[-122.396234387123513,41.289193802577586],[-122.39609618712376,41.289127869244396],[-122.39585598712415,41.289061869244506],[-122.395717587124352,41.289018002577905],[-122.39563038712447,41.288957469244622],[-122.395528520457958,41.288792802578257],[-122.395383120458177,41.288617002578519],[-122.395215720458452,41.28849060257869],[-122.395070187125327,41.288457602578774],[-122.394982920458801,41.288419202578837],[-122.394895387125587,41.288353202578946],[-122.394771787125819,41.288199402579153],[-122.394655387125965,41.28806760257936],[-122.39448078712627,41.287968669246197],[-122.394349787126487,41.287897269246287],[-122.394269787126575,41.287847802579677],[-122.394211520460033,41.287798402579767],[-122.394167920460063,41.287666602579975],[-122.394116987126836,41.287512802580238],[-122.394029920460298,41.287370069247117],[-122.393935187127113,41.287276602580562],[-122.393833320460601,41.287210669247372],[-122.393775320460691,41.287111802580853],[-122.393593187127635,41.28701286924769],[-122.393382187127941,41.286853669247932],[-122.393236787128217,41.286710802581467],[-122.393134920461705,41.286622869248276],[-122.393032987128493,41.286573469248367],[-122.392931120461981,41.286551402581722],[-122.392850987128782,41.286545869248414],[-122.392741920462299,41.286518402581748],[-122.39259632046253,41.286414002581921],[-122.392443520462734,41.286337069248702],[-122.392319787129622,41.286337002582059],[-122.392159587129868,41.286386402581968],[-122.391999387130113,41.28644680258185],[-122.391919320463558,41.286485202581844],[-122.391839187130358,41.286507069248444],[-122.39178818713043,41.286490602581807],[-122.39162812046402,41.286419069248609],[-122.391482587130895,41.286353202582006],[-122.391286120464542,41.286331069248718],[-122.391002120464975,41.286292602582137],[-122.39082752046528,41.286270469248791],[-122.390725587132067,41.286287002582128],[-122.390521587132412,41.286380202581995],[-122.390375987132643,41.286468002581842],[-122.390310387132729,41.286523069248403],[-122.390259387132801,41.286561402581697],[-122.390150187132974,41.286583402581641],[-122.390062787133104,41.286566869248361],[-122.389800920466882,41.286495269248462],[-122.389640720467128,41.286473269248518],[-122.389524187133929,41.286517202581763],[-122.389414987134103,41.286588602581674],[-122.389320187134274,41.286670869248212],[-122.389232787134404,41.286758669248059],[-122.389130987134536,41.286786069248024],[-122.389058120468007,41.286786002581323],[-122.388985320468123,41.286769602581387],[-122.388883520468255,41.286714602581469],[-122.388752520468472,41.286659602581551],[-122.388570387135417,41.286615602581605],[-122.388279387135867,41.286582469248344],[-122.387937120469758,41.286576869248336],[-122.387696987136792,41.286576802581692],[-122.387522320470396,41.286576669248348],[-122.387376720470627,41.286582202581656],[-122.387318387137384,41.286582069248311],[-122.387216520470872,41.286516202581765],[-122.387092920471048,41.286417269248602],[-122.387005587137878,41.286356869248664],[-122.386838120471452,41.286345802582048],[-122.386495787138642,41.286334669248731],[-122.386139187139179,41.28631800258205],[-122.385855320472956,41.286307002582078],[-122.3857095871399,41.286301402582126],[-122.38557858714006,41.286323269248726],[-122.385498520473561,41.286361669248663],[-122.385403787140319,41.286416469248593],[-122.38530178714052,41.286476869248474],[-122.385127120474124,41.286465869248502],[-122.384661320474834,41.286460069248506],[-122.38435552047531,41.286493002581778],[-122.38410058714237,41.28647086924849],[-122.383918787142647,41.286459802581874],[-122.383853187142734,41.286432269248564],[-122.383744120476251,41.286366402582019],[-122.383591320476512,41.286201602582253],[-122.383416920476748,41.285894002582722],[-122.383336920476893,41.285767602582951],[-122.38322778714371,41.285701669249704],[-122.383038520477328,41.285657669249758],[-122.382681787144577,41.285646602583142],[-122.38241252047834,41.285597002583188],[-122.382237787145243,41.285552869249955],[-122.382143320478747,41.285487002583352],[-122.382077787145533,41.285388069250189],[-122.381990720478996,41.285157469250521],[-122.381954387145697,41.284987269250792],[-122.381889120479116,41.284828002584391],[-122.381648920479506,41.284805869251102],[-122.38145958714648,41.284767402584464],[-122.381248520480142,41.284734269251203],[-122.381037520480447,41.284712269251258],[-122.380891787147334,41.284695669251278],[-122.380695387147682,41.284673669251276]]]}}
]
}
