{
  "type": "FeatureCollection",
  "name": "geometro_editor_edited",
  "features": [
    {
      "type": "Feature",
      "properties": {
        "metro_river_id": "river",
        "metro_river_name": "River Network",
        "metro_feature_index": 0,
        "metro_line_index": 0,
        "metro_color": "#36a9e1",
        "metro_stroke_width": 8
      },
      "geometry": {
        "type": "LineString",
        "coordinates": [
          [-120.03102912412817, 38.810525006424996],
          [-121.0252029960048, 38.810525006424996],
          [-121.15844533591985, 38.706647453461244]
        ]
      }
    },
    {
      "type": "Feature",
      "properties": {
        "metro_river_id": "river",
        "metro_river_name": "River Network",
        "metro_feature_index": 1,
        "metro_line_index": 0,
        "metro_color": "#36a9e1",
        "metro_stroke_width": 8
      },
      "geometry": {
        "type": "LineString",
        "coordinates": [
          [-120.27390729770946, 39.216709866211204],
          [-120.78211416419425, 39.216709866211204],
          [-120.915665204005, 39.11259164658111],
          [-120.915665204005, 39.01046285852161],
          [-121.03735548089946, 38.91559145209527],
          [-121.15656272238107, 38.82265585408219],
          [-121.15656272238107, 38.70775787325118]
        ]
      }
    },
    {
      "type": "Feature",
      "properties": {
        "metro_river_id": "river",
        "metro_river_name": "River Network",
        "metro_feature_index": 2,
        "metro_line_index": 0,
        "metro_color": "#36a9e1",
        "metro_stroke_width": 8
      },
      "geometry": {
        "type": "LineString",
        "coordinates": [
          [-121.15844533591985, 38.706647453461244],
          [-121.36724234710756, 38.706647453461244],
          [-121.50846132183489, 38.59655120675711]
        ]
      }
    },
    {
      "type": "Feature",
      "properties": {
        "metro_river_id": "river",
        "metro_river_name": "River Network",
        "metro_feature_index": 3,
        "metro_line_index": 0,
        "metro_color": "#36a9e1",
        "metro_stroke_width": 8
      },
      "geometry": {
        "type": "LineString",
        "coordinates": [
          [-120.28287972373721, 39.191930072499645],
          [-120.63733555506035, 38.91559145209527],
          [-121.03735548089946, 38.91559145209527]
        ]
      }
    },
    {
      "type": "Feature",
      "properties": {
        "metro_river_id": "river",
        "metro_river_name": "River Network",
        "metro_feature_index": 4,
        "metro_line_index": 0,
        "metro_color": "#36a9e1",
        "metro_stroke_width": 8
      },
      "geometry": {
        "type": "LineString",
        "coordinates": [
          [-121.99763912107557, 40.42279520392242],
          [-122.0884019267023, 40.42279520392242],
          [-122.17601018746535, 40.354494604028446]
        ]
      }
    },
    {
      "type": "Feature",
      "properties": {
        "metro_river_id": "river",
        "metro_river_name": "River Network",
        "metro_feature_index": 5,
        "metro_line_index": 0,
        "metro_color": "#36a9e1",
        "metro_stroke_width": 8
      },
      "geometry": {
        "type": "LineString",
        "coordinates": [
          [-121.66594532159041, 40.63544160359237],
          [-121.72488044455548, 40.63544160359237],
          [-121.99763912107557, 40.42279520392242]
        ]
      }
    },
    {
      "type": "Feature",
      "properties": {
        "metro_river_id": "river",
        "metro_river_name": "River Network",
        "metro_feature_index": 6,
        "metro_line_index": 0,
        "metro_color": "#36a9e1",
        "metro_stroke_width": 8
      },
      "geometry": {
        "type": "LineString",
        "coordinates": [
          [-121.57151898840368, 40.353663270696416],
          [-121.9089645202299, 40.353663270696416],
          [-121.99763912107557, 40.42279520392242]
        ]
      }
    },
    {
      "type": "Feature",
      "properties": {
        "metro_river_id": "river",
        "metro_river_name": "River Network",
        "metro_feature_index": 7,
        "metro_line_index": 0,
        "metro_color": "#36a9e1",
        "metro_stroke_width": 8
      },
      "geometry": {
        "type": "LineString",
        "coordinates": [
          [-120.84721778952792, 38.55378560682351],
          [-121.07471941547998, 38.55378560682351],
          [-121.49130603986671, 38.22900896925989]
        ]
      }
    },
    {
      "type": "Feature",
      "properties": {
        "metro_river_id": "river",
        "metro_river_name": "River Network",
        "metro_feature_index": 8,
        "metro_line_index": 0,
        "metro_color": "#36a9e1",
        "metro_stroke_width": 8
      },
      "geometry": {
        "type": "LineString",
        "coordinates": [
          [-120.23269219048177, 38.607500206740156],
          [-120.77831879473746, 38.607500206740156],
          [-120.84721778952792, 38.55378560682351]
        ]
      }
    },
    {
      "type": "Feature",
      "properties": {
        "metro_river_id": "river",
        "metro_river_name": "River Network",
        "metro_feature_index": 9,
        "metro_line_index": 0,
        "metro_color": "#36a9e1",
        "metro_stroke_width": 8
      },
      "geometry": {
        "type": "LineString",
        "coordinates": [
          [-120.38011119025299, 39.81308687153552],
          [-120.43188982565258, 39.853454204806155],
          [-121.09410939479729, 39.853454204806155],
          [-121.50137212184586, 39.53594660529899]
        ]
      }
    },
    {
      "type": "Feature",
      "properties": {
        "metro_river_id": "river",
        "metro_river_name": "River Network",
        "metro_feature_index": 10,
        "metro_line_index": 0,
        "metro_color": "#36a9e1",
        "metro_stroke_width": 8
      },
      "geometry": {
        "type": "LineString",
        "coordinates": [
          [-121.50137212184586, 39.53594660529899],
          [-121.62098058832686, 39.44269820678157],
          [-121.62098058832686, 38.784695073131786]
        ]
      }
    },
    {
      "type": "Feature",
      "properties": {
        "metro_river_id": "river",
        "metro_river_name": "River Network",
        "metro_feature_index": 11,
        "metro_line_index": 0,
        "metro_color": "#36a9e1",
        "metro_stroke_width": 8
      },
      "geometry": {
        "type": "LineString",
        "coordinates": [
          [-121.22579938894029, 40.01401540455697],
          [-121.50137212184586, 39.79917512799014],
          [-121.50137212184586, 39.53594660529899]
        ]
      }
    },
    {
      "type": "Feature",
      "properties": {
        "metro_river_id": "river",
        "metro_river_name": "River Network",
        "metro_feature_index": 11,
        "metro_line_index": 1,
        "metro_color": "#36a9e1",
        "metro_stroke_width": 8
      },
      "geometry": {
        "type": "LineString",
        "coordinates": [
          [-121.4216073219697, 40.35494507069444],
          [-121.29606119461072, 40.35494507069444],
          [-121.08746472248833, 40.19232040428017],
          [-121.08746472248833, 40.12186300502876],
          [-121.22579938894029, 40.01401540455697]
        ]
      }
    },
    {
      "type": "Feature",
      "properties": {
        "metro_river_id": "river",
        "metro_river_name": "River Network",
        "metro_feature_index": 11,
        "metro_line_index": 2,
        "metro_color": "#36a9e1",
        "metro_stroke_width": 8
      },
      "geometry": {
        "type": "LineString",
        "coordinates": [
          [-120.98296632265055, 40.038512471185584],
          [-121.19437733108924, 40.038512471185584],
          [-121.22579938894029, 40.01401540455697]
        ]
      }
    },
    {
      "type": "Feature",
      "properties": {
        "metro_river_id": "river",
        "metro_river_name": "River Network",
        "metro_feature_index": 12,
        "metro_line_index": 0,
        "metro_color": "#36a9e1",
        "metro_stroke_width": 8
      },
      "geometry": {
        "type": "LineString",
        "coordinates": [
          [-121.77437618808881, 41.21819500268782],
          [-121.97638601380864, 41.21819500268782],
          [-122.21036354035859, 41.035782918645964],
          [-122.21036354035859, 40.89003460535368],
          [-122.37011958716408, 40.765486603390514]
        ]
      }
    },
    {
      "type": "Feature",
      "properties": {
        "metro_river_id": "river",
        "metro_river_name": "River Network",
        "metro_feature_index": 13,
        "metro_line_index": 0,
        "metro_color": "#36a9e1",
        "metro_stroke_width": 8
      },
      "geometry": {
        "type": "LineString",
        "coordinates": [
          [-119.34748632518915, 37.70091860814733],
          [-120.2173623540709, 37.70091860814733],
          [-120.28361253296185, 37.64926906138172],
          [-120.66884249577866, 37.34893850661035],
          [-120.97531413516242, 37.34893850661035]
        ]
      }
    },
    {
      "type": "Feature",
      "properties": {
        "metro_river_id": "river",
        "metro_river_name": "River Network",
        "metro_feature_index": 14,
        "metro_line_index": 0,
        "metro_color": "#36a9e1",
        "metro_stroke_width": 8
      },
      "geometry": {
        "type": "LineString",
        "coordinates": [
          [-119.27070399197498, 37.729485008102984],
          [-119.30734572894744, 37.70091860814733],
          [-119.34748632518915, 37.70091860814733]
        ]
      }
    },
    {
      "type": "Feature",
      "properties": {
        "metro_river_id": "river",
        "metro_river_name": "River Network",
        "metro_feature_index": 15,
        "metro_line_index": 0,
        "metro_color": "#36a9e1",
        "metro_stroke_width": 8
      },
      "geometry": {
        "type": "LineString",
        "coordinates": [
          [-121.4923537676932, 38.22730646358025],
          [-121.4923537676932, 38.192680934888315],
          [-121.56888974778275, 38.1330124366433]
        ]
      }
    },
    {
      "type": "Feature",
      "properties": {
        "metro_river_id": "river",
        "metro_river_name": "River Network",
        "metro_feature_index": 16,
        "metro_line_index": 0,
        "metro_color": "#36a9e1",
        "metro_stroke_width": 8
      },
      "geometry": {
        "type": "LineString",
        "coordinates": [
          [-119.81343952446588, 38.49392280691643],
          [-120.45402334905064, 38.49392280691643],
          [-120.61069418989507, 38.3717800737727]
        ]
      }
    },
    {
      "type": "Feature",
      "properties": {
        "metro_river_id": "river",
        "metro_river_name": "River Network",
        "metro_feature_index": 17,
        "metro_line_index": 0,
        "metro_color": "#36a9e1",
        "metro_stroke_width": 8
      },
      "geometry": {
        "type": "LineString",
        "coordinates": [
          [-121.56888974778275, 38.1330124366433],
          [-121.56888974778275, 38.101826417779755],
          [-121.57664898839568, 38.09577720753441]
        ]
      }
    },
    {
      "type": "Feature",
      "properties": {
        "metro_river_id": "river",
        "metro_river_name": "River Network",
        "metro_feature_index": 17,
        "metro_line_index": 1,
        "metro_color": "#36a9e1",
        "metro_stroke_width": 8
      },
      "geometry": {
        "type": "LineString",
        "coordinates": [
          [-120.61069418989507, 38.3717800737727],
          [-120.79600854635412, 38.22730646358025],
          [-121.4923537676932, 38.22730646358025]
        ]
      }
    },
    {
      "type": "Feature",
      "properties": {
        "metro_river_id": "river",
        "metro_river_name": "River Network",
        "metro_feature_index": 18,
        "metro_line_index": 0,
        "metro_color": "#36a9e1",
        "metro_stroke_width": 8
      },
      "geometry": {
        "type": "LineString",
        "coordinates": [
          [-121.4923537676932, 38.22730646358025],
          [-121.4923537676932, 38.192680934888315],
          [-121.56888974778275, 38.1330124366433]
        ]
      }
    },
    {
      "type": "Feature",
      "properties": {
        "metro_river_id": "river",
        "metro_river_name": "River Network",
        "metro_feature_index": 19,
        "metro_line_index": 0,
        "metro_color": "#36a9e1",
        "metro_stroke_width": 8
      },
      "geometry": {
        "type": "LineString",
        "coordinates": [
          [-120.46658472345206, 41.65756606867251],
          [-120.46658472345206, 41.54490104653328],
          [-120.55826958997642, 41.4734222689583]
        ]
      }
    },
    {
      "type": "Feature",
      "properties": {
        "metro_river_id": "river",
        "metro_river_name": "River Network",
        "metro_feature_index": 20,
        "metro_line_index": 0,
        "metro_color": "#36a9e1",
        "metro_stroke_width": 8
      },
      "geometry": {
        "type": "LineString",
        "coordinates": [
          [-120.28016879040808, 41.18741566940224],
          [-120.55826958997642, 41.18741566940224],
          [-120.55826958997642, 41.4734222689583]
        ]
      }
    },
    {
      "type": "Feature",
      "properties": {
        "metro_river_id": "river",
        "metro_river_name": "River Network",
        "metro_feature_index": 21,
        "metro_line_index": 0,
        "metro_color": "#36a9e1",
        "metro_stroke_width": 8
      },
      "geometry": {
        "type": "LineString",
        "coordinates": [
          [-120.55826958997642, 41.4734222689583],
          [-120.97524876384267, 41.4734222689583],
          [-121.13185358908612, 41.351331002481174],
          [-121.13185358908612, 40.98861853553638],
          [-121.19849052231604, 40.93666746979147],
          [-122.04750435504903, 40.93666746979147],
          [-122.26707574980368, 40.765486603390514],
          [-122.37011958716408, 40.765486603390514]
        ]
      }
    },
    {
      "type": "Feature",
      "properties": {
        "metro_river_id": "river",
        "metro_river_name": "River Network",
        "metro_feature_index": 22,
        "metro_line_index": 0,
        "metro_color": "#36a9e1",
        "metro_stroke_width": 8
      },
      "geometry": {
        "type": "LineString",
        "coordinates": [
          [-122.38069538714768, 41.284673669251276],
          [-122.38069538714768, 40.77373164189427],
          [-122.37011958716408, 40.765486603390514],
          [-122.37011958716408, 40.50582495037947],
          [-122.17601018746535, 40.354494604028446],
          [-122.01181640542859, 40.2264868829038],
          [-122.01181640542859, 39.21762247975141],
          [-122.01181640542859, 39.08939602867637],
          [-121.62098058832686, 38.784695073131786],
          [-121.62098058832686, 38.68427276787585],
          [-121.50846132183489, 38.59655120675711],
          [-121.50846132183489, 38.32371005646295],
          [-121.50649138850457, 38.32217426946022],
          [-121.50649138850457, 38.31822418327522],
          [-121.82347891989336, 38.07109636263144]
        ]
      }
    },
    {
      "type": "Feature",
      "properties": {
        "metro_river_id": "river",
        "metro_river_name": "River Network",
        "metro_feature_index": 23,
        "metro_line_index": 0,
        "metro_color": "#36a9e1",
        "metro_stroke_width": 8
      },
      "geometry": {
        "type": "LineString",
        "coordinates": [
          [-118.72018930949616, 37.093871865339565],
          [-118.80366830014444, 37.093871865339565],
          [-119.24363279201702, 37.436874208557185]
        ]
      }
    },
    {
      "type": "Feature",
      "properties": {
        "metro_river_id": "river",
        "metro_river_name": "River Network",
        "metro_feature_index": 24,
        "metro_line_index": 0,
        "metro_color": "#36a9e1",
        "metro_stroke_width": 8
      },
      "geometry": {
        "type": "LineString",
        "coordinates": [
          [-119.20897879207081, 37.70759767480365],
          [-119.1830171921111, 37.68735765592859],
          [-119.1830171921111, 37.53236420840898]
        ]
      }
    },
    {
      "type": "Feature",
      "properties": {
        "metro_river_id": "river",
        "metro_river_name": "River Network",
        "metro_feature_index": 25,
        "metro_line_index": 0,
        "metro_color": "#36a9e1",
        "metro_stroke_width": 8
      },
      "geometry": {
        "type": "LineString",
        "coordinates": [
          [-119.1830171921111, 37.53236420840898],
          [-119.1830171921111, 37.48413096038001],
          [-119.24363279201702, 37.436874208557185],
          [-119.24363279201702, 37.296059161690074],
          [-119.81506143383837, 36.85056556675892],
          [-119.92740872973705, 36.76297807626986],
          [-120.22371057300064, 36.76297807626986],
          [-120.29093399039141, 36.81538637309852],
          [-120.97531413516242, 37.34893850661035],
          [-120.97531413516242, 37.4516710836681],
          [-121.17385518902091, 37.60645640829398],
          [-121.17385518902091, 37.61199316174705],
          [-121.24166378891567, 37.66485767486995],
          [-121.24166378891567, 37.87898149828795],
          [-121.33533698877028, 37.9520104077576],
          [-121.39224124814936, 37.9520104077576],
          [-121.57664898839568, 38.09577720753441],
          [-121.62064097891098, 38.06148044925436],
          [-121.81114471714959, 38.06148044925436],
          [-121.82347891989336, 38.07109636263144]
        ]
      }
    },
    {
      "type": "Feature",
      "properties": {
        "metro_river_id": "river",
        "metro_river_name": "River Network",
        "metro_feature_index": 26,
        "metro_line_index": 0,
        "metro_color": "#36a9e1",
        "metro_stroke_width": 8
      },
      "geometry": {
        "type": "LineString",
        "coordinates": [
          [-119.73043199126141, 38.29418240722646],
          [-120.1781105089088, 38.29418240722646],
          [-120.35758452362126, 38.15426200744366]
        ]
      }
    },
    {
      "type": "Feature",
      "properties": {
        "metro_river_id": "river",
        "metro_river_name": "River Network",
        "metro_feature_index": 27,
        "metro_line_index": 0,
        "metro_color": "#36a9e1",
        "metro_stroke_width": 8
      },
      "geometry": {
        "type": "LineString",
        "coordinates": [
          [-120.35758452362126, 38.15426200744366],
          [-120.98533687796721, 37.66485767486995],
          [-121.24166378891567, 37.66485767486995]
        ]
      }
    },
    {
      "type": "Feature",
      "properties": {
        "metro_river_id": "river",
        "metro_river_name": "River Network",
        "metro_feature_index": 28,
        "metro_line_index": 0,
        "metro_color": "#36a9e1",
        "metro_stroke_width": 8
      },
      "geometry": {
        "type": "LineString",
        "coordinates": [
          [-119.3532077918469, 37.8755406078763],
          [-120.3313051008477, 37.8755406078763],
          [-120.33196489300347, 37.87502622487575],
          [-120.67645578416261, 37.60645640829398],
          [-121.17385518902091, 37.60645640829398]
        ]
      }
    },
    {
      "type": "Feature",
      "properties": {
        "metro_river_id": "river",
        "metro_river_name": "River Network",
        "metro_feature_index": 29,
        "metro_line_index": 0,
        "metro_color": "#36a9e1",
        "metro_stroke_width": 8
      },
      "geometry": {
        "type": "LineString",
        "coordinates": [
          [-120.48485199009036, 39.4233980054737],
          [-121.06638276587188, 39.4233980054737],
          [-121.13663345574537, 39.36862960555874]
        ]
      }
    },
    {
      "type": "Feature",
      "properties": {
        "metro_river_id": "river",
        "metro_river_name": "River Network",
        "metro_feature_index": 30,
        "metro_line_index": 0,
        "metro_color": "#36a9e1",
        "metro_stroke_width": 8
      },
      "geometry": {
        "type": "LineString",
        "coordinates": [
          [-120.4957659234068, 39.622390471831466],
          [-120.6177344679822, 39.52730212411016],
          [-121.10198259032138, 39.52730212411016],
          [-121.13663345574537, 39.50028783487886],
          [-121.13663345574537, 39.36862960555874]
        ]
      }
    },
    {
      "type": "Feature",
      "properties": {
        "metro_river_id": "river",
        "metro_river_name": "River Network",
        "metro_feature_index": 31,
        "metro_line_index": 0,
        "metro_color": "#36a9e1",
        "metro_stroke_width": 8
      },
      "geometry": {
        "type": "LineString",
        "coordinates": [
          [-120.32653852366946, 39.32459047229372],
          [-120.36336539506681, 39.29587973900499],
          [-121.20970405563196, 39.29587973900499]
        ]
      }
    },
    {
      "type": "Feature",
      "properties": {
        "metro_river_id": "river",
        "metro_river_name": "River Network",
        "metro_feature_index": 32,
        "metro_line_index": 0,
        "metro_color": "#36a9e1",
        "metro_stroke_width": 8
      },
      "geometry": {
        "type": "LineString",
        "coordinates": [
          [-121.13663345574537, 39.36862960555874],
          [-121.13663345574537, 39.35284657938509],
          [-121.20970405563196, 39.29587973900499],
          [-121.38518033975839, 39.29587973900499],
          [-121.59441618836814, 39.13275660592484],
          [-121.62098058832686, 39.11204663591515],
          [-121.62098058832686, 38.784695073131786]
        ]
      }
    },
    {
      "type": "Feature",
      "properties": {
        "metro_river_id": "canal",
        "metro_river_name": "Canal Network",
        "metro_feature_index": 0,
        "metro_line_index": 0,
        "metro_color": "#f28c28",
        "metro_stroke_width": 8
      },
      "geometry": {
        "type": "LineString",
        "coordinates": [
          [-121.82117441657167, 38.02438418153191],
          [-121.57559977224332, 37.832930825646436],
          [-121.57559977224332, 37.83244667494037],
          [-121.08831916712158, 37.45255604183524],
          [-121.08831916712158, 37.07862804638504],
          [-120.6531453856725, 36.73936060662281],
          [-120.2273407286683, 36.40739746458881],
          [-120.2273407286683, 36.32639923614352],
          [-120.2273407286683, 36.20782039400255],
          [-119.16760683179567, 35.38163733484851]
        ]
      }
    },
    {
      "type": "Feature",
      "properties": {
        "metro_river_id": "canal",
        "metro_river_name": "Canal Network",
        "metro_feature_index": 1,
        "metro_line_index": 0,
        "metro_color": "#f28c28",
        "metro_stroke_width": 8
      },
      "geometry": {
        "type": "LineString",
        "coordinates": [
          [-119.9660904665847, 37.87363469475055],
          [-119.9660904665847, 37.84319319306947],
          [-120.0105834543123, 37.80850585050152],
          [-121.05511359695976, 37.80850585050152],
          [-121.28430503378594, 37.62982506755424],
          [-121.94116677047481, 37.62982506755424],
          [-122.33127538019025, 37.62982506755424],
          [-122.43898765800456, 37.71379903446773]
        ]
      }
    },
    {
      "type": "Feature",
      "properties": {
        "metro_river_id": "canal",
        "metro_river_name": "Canal Network",
        "metro_feature_index": 2,
        "metro_line_index": 0,
        "metro_color": "#f28c28",
        "metro_stroke_width": 8
      },
      "geometry": {
        "type": "LineString",
        "coordinates": [
          [-121.82347891989336, 38.07109636263144],
          [-121.0398815219353, 37.46019309974567],
          [-121.0398815219353, 37.41523702200957],
          [-121.0398815219353, 37.091932008892854],
          [-120.64125931397336, 36.78116067639832],
          [-120.17133512956376, 36.78116067639832],
          [-120.15057143856258, 36.79734833426348]
        ]
      }
    },
    {
      "type": "Feature",
      "properties": {
        "metro_river_id": "canal",
        "metro_river_name": "Canal Network",
        "metro_feature_index": 3,
        "metro_line_index": 0,
        "metro_color": "#f28c28",
        "metro_stroke_width": 8
      },
      "geometry": {
        "type": "LineString",
        "coordinates": [
          [-122.43898765800456, 37.71379903446773],
          [-122.21027835693842, 37.89210393777359],
          [-121.29511032533775, 37.89210393777359],
          [-120.841179939289, 38.245994283355124]
        ]
      }
    },
    {
      "type": "Feature",
      "properties": {
        "metro_station_id": "station-1788370200308",
        "metro_station_label": "bay",
        "metro_station_color": "#948d7f",
        "metro_station_radius": 30,
        "metro_station_suppliers": ["canal:1:0:end", "canal:3:0:start"]
      },
      "geometry": {
        "type": "Point",
        "coordinates": [-122.43898765800456, 37.71379903446773]
      }
    },
    {
      "type": "Feature",
      "properties": {
        "metro_station_id": "station-1788370266074",
        "metro_station_label": "delta",
        "metro_station_color": "#74c8f5",
        "metro_station_radius": 30,
        "metro_station_suppliers": [
          "river:25:0:end",
          "river:22:0:end",
          "canal:2:0:start",
          "canal:0:0:start"
        ]
      },
      "geometry": {
        "type": "Point",
        "coordinates": [-121.82347891989336, 38.07109636263144]
      }
    },
    {
      "type": "Feature",
      "properties": {
        "metro_station_id": "station-1788370509221",
        "metro_station_label": "salmon",
        "metro_station_color": "#ff6b6b",
        "metro_station_radius": 30,
        "metro_station_suppliers": []
      },
      "geometry": {
        "type": "Point",
        "coordinates": [-122.38181886938146, 40.74780993692222]
      }
    },
    {
      "type": "Feature",
      "properties": {
        "metro_station_id": "station-1788370535761",
        "metro_station_label": "ag",
        "metro_station_color": "#8f6bff",
        "metro_station_radius": 30,
        "metro_station_suppliers": ["canal:2:0:end"]
      },
      "geometry": {
        "type": "Point",
        "coordinates": [-120.15057143856258, 36.79734833426348]
      }
    },
    {
      "type": "Feature",
      "properties": {
        "metro_station_id": "station-1788370572544",
        "metro_station_label": "la",
        "metro_station_color": "#39d98a",
        "metro_station_radius": 30,
        "metro_station_suppliers": ["canal:0:0:end"]
      },
      "geometry": {
        "type": "Point",
        "coordinates": [-119.16760683179567, 35.38163733484851]
      }
    },
    {
      "type": "Feature",
      "properties": {
        "metro_station_id": "station-1788370688871",
        "metro_station_label": "small",
        "metro_station_color": "#ff9f6b",
        "metro_station_radius": 30,
        "metro_station_suppliers": []
      },
      "geometry": {
        "type": "Point",
        "coordinates": [-121.22139319227274, 38.808017857126615]
      }
    }
  ]
}
